
TimeEDT,TemperatureF,Dew PointF,Humidity,Sea Level PressureIn,VisibilityMPH,Wind Direction,Wind SpeedMPH,Gust SpeedMPH,PrecipitationIn,Events,Conditions,FullMetar,WindDirDegrees,DateUTC<br />
12:36 AM,66.2,66.2,100,29.80,1.5,East,3.5,-,0.01,Rain,Light Rain,SPECI KEWR 110436Z 09003KT 1 1/2SM -RA BR SCT003 BKN010 OVC015 19/19 A2980 RMK AO2 SFC VIS 3 P0001 $,90,2013-06-11 04:36:00<br />
12:48 AM,66.2,66.2,100,29.79,6.0,East,3.5,-,0.01,,Overcast,SPECI KEWR 110448Z 08003KT 6SM BR SCT006 BKN013 OVC023 19/19 A2979 RMK AO2 RAE41 P0001 402220183 $,80,2013-06-11 04:48:00<br />
12:51 AM,66.9,66.9,100,29.79,6.0,East,3.5,-,0.01,,Overcast,METAR KEWR 110451Z 08003KT 6SM BR SCT006 BKN013 OVC023 19/19 A2979 RMK AO2 RAE41 SLP086 P0001 T01940194 402220183 $,80,2013-06-11 04:51:00<br />
1:51 AM,68.0,66.9,96,29.76,7.0,NE,4.6,-,0.01,Rain,Light Rain,METAR KEWR 110551Z 05004KT 7SM -RA SCT006 BKN013 OVC065 20/19 A2976 RMK AO2 RAB02 SLP078 P0001 60029 T02000194 10206 20189 56033 $,50,2013-06-11 05:51:00<br />
2:12 AM,68.0,66.2,94,29.75,5.0,NE,5.8,-,0.02,Rain,Light Rain,SPECI KEWR 110612Z 05005KT 5SM -RA BR FEW003 BKN009 OVC050 20/19 A2975 RMK AO2 P0002 $,50,2013-06-11 06:12:00<br />
2:47 AM,68.0,66.2,94,29.74,2.0,Calm,Calm,-,0.02,Rain,Light Rain,SPECI KEWR 110647Z 00000KT 2SM -RA BR FEW003 BKN007 OVC014 20/19 A2974 RMK AO2 SFC VIS 3 P0002 $,0,2013-06-11 06:47:00<br />
2:51 AM,68.0,66.9,96,29.74,2.0,Calm,Calm,-,0.03,Rain,Light Rain,METAR KEWR 110651Z 00000KT 2SM -RA BR SCT003 BKN007 OVC014 20/19 A2974 RMK AO2 SFC VIS 2 1/2 SLP070 P0003 T02000194 $,0,2013-06-11 06:51:00<br />
3:00 AM,68.0,66.2,94,29.74,2.0,Calm,Calm,-,0.00,Rain,Light Rain,SPECI KEWR 110700Z 00000KT 2SM -RA BR BKN003 OVC007 20/19 A2974 RMK AO2 SFC VIS 2 1/2 P0000 PNO $,0,2013-06-11 07:00:00<br />
3:35 AM,69.8,68.0,94,29.73,6.0,SSW,3.5,-,0.00,Rain,Light Rain,SPECI KEWR 110735Z 21003KT 6SM -RA BR SCT003 BKN007 OVC012 21/20 A2973 RMK AO2 RAE10B33 P0000 PNO $,210,2013-06-11 07:35:00<br />
3:51 AM,71.1,69.1,93,29.73,8.0,SW,12.7,20.7,0.00,,Overcast,METAR KEWR 110751Z 22011G18KT 8SM BKN007 BKN012 OVC040 22/21 A2973 RMK AO2 RAE10B33E48 SLP068 P0000 T02170206 PNO $,220,2013-06-11 07:51:00<br />
4:13 AM,71.6,69.8,94,29.73,10.0,SW,11.5,-,N/A,,Overcast,SPECI KEWR 110813Z 22010KT 10SM SCT007 SCT012 BKN040 OVC250 22/21 A2973 RMK AO2 PNO $,220,2013-06-11 08:13:00<br />
4:51 AM,71.1,68.0,90,29.73,10.0,SW,13.8,-,N/A,,Mostly Cloudy,METAR KEWR 110851Z 22012KT 10SM FEW007 SCT012 BKN030 BKN250 22/20 A2973 RMK AO2 SLP067 60003 T02170200 56011 PNO $,220,2013-06-11 08:51:00<br />
5:10 AM,71.6,68.0,88,29.73,10.0,SW,9.2,-,N/A,,Overcast,SPECI KEWR 110910Z 22008KT 10SM FEW012 BKN022 BKN030 OVC150 22/20 A2973 RMK AO2 PNO $,220,2013-06-11 09:10:00<br />
5:51 AM,70.0,68.0,93,29.73,10.0,SW,12.7,-,N/A,,Mostly Cloudy,METAR KEWR 110951Z 22011KT 10SM FEW015 BKN026 BKN150 BKN250 21/20 A2973 RMK AO2 SLP068 T02110200 PNO $,220,2013-06-11 09:51:00<br />
6:24 AM,69.8,68.0,94,29.74,10.0,SW,11.5,-,N/A,,Scattered Clouds,SPECI KEWR 111024Z 22010KT 10SM FEW010 SCT027 21/20 A2974 RMK AO2 SCT V BKN PNO $,220,2013-06-11 10:24:00<br />
6:51 AM,70.0,68.0,93,29.74,10.0,SW,12.7,-,N/A,,Scattered Clouds,METAR KEWR 111051Z 23011KT 10SM FEW010 SCT027 21/20 A2974 RMK AO2 SLP069 SCT V BKN T02110200 PNO $,230,2013-06-11 10:51:00<br />
7:33 AM,71.6,66.2,83,29.74,10.0,SW,9.2,-,N/A,,Mostly Cloudy,SPECI KEWR 111133Z 23008KT 10SM BKN009 BKN028 22/19 A2974 RMK AO2 BKN009 V SCT PNO $,230,2013-06-11 11:33:00<br />
7:51 AM,72.0,66.9,84,29.75,10.0,SW,11.5,-,N/A,,Mostly Cloudy,METAR KEWR 111151Z COR 23010KT 10SM BKN009 BKN028 22/19 A2974 RMK AO2 SLP072 BKN009 V SCT 60003 70103 T02220194 10222 20194 53005 $,230,2013-06-11 11:51:00<br />
8:08 AM,71.6,66.2,83,29.75,10.0,WSW,11.5,-,N/A,,Mostly Cloudy,SPECI KEWR 111208Z 24010KT 10SM BKN010 BKN029 22/19 A2975 RMK AO2 CIG 009V012 PNO $,240,2013-06-11 12:08:00<br />
8:21 AM,71.6,66.2,83,29.75,10.0,WSW,13.8,-,N/A,,Mostly Cloudy,SPECI KEWR 111221Z 24012KT 10SM SCT012 BKN024 22/19 A2975 RMK AO2 SCT V BKN PNO $,240,2013-06-11 12:21:00<br />
8:51 AM,73.0,66.9,81,29.75,10.0,SW,12.7,-,N/A,,Scattered Clouds,METAR KEWR 111251Z 23011KT 10SM FEW012 SCT027 23/19 A2974 RMK AO2 SLP072 T02280194 PNO $,230,2013-06-11 12:51:00<br />
9:27 AM,73.4,66.2,78,29.74,10.0,WSW,13.8,-,N/A,,Mostly Cloudy,SPECI KEWR 111327Z 24012KT 10SM SCT017 BKN025 23/19 A2974 RMK AO2 SCT V BKN PNO $,240,2013-06-11 13:27:00<br />
9:51 AM,75.0,64.9,71,29.74,10.0,West,13.8,-,N/A,,Mostly Cloudy,METAR KEWR 111351Z 26012KT 10SM SCT021 BKN027 24/18 A2974 RMK AO2 SLP069 SCT V BKN T02390183 PNO $,260,2013-06-11 13:51:00<br />
10:44 AM,77.0,64.4,65,29.72,10.0,SW,13.8,-,N/A,,Mostly Cloudy,SPECI KEWR 111444Z 23012KT 10SM SCT028 BKN036 25/18 A2972 RMK AO2 SCT V BKN PNO $,230,2013-06-11 14:44:00<br />
10:51 AM,77.0,64.9,66,29.72,10.0,WSW,15.0,-,N/A,,Mostly Cloudy,METAR KEWR 111451Z 25013KT 10SM SCT028 BKN036 25/18 A2972 RMK AO2 SLP064 T02500183 58008 PNO $,250,2013-06-11 14:51:00<br />
11:51 AM,79.0,63.0,58,29.71,10.0,SW,15.0,23.0,N/A,,Scattered Clouds,METAR KEWR 111551Z 22013G20KT 10SM SCT036 26/17 A2971 RMK AO2 SLP059 T02610172 PNO $,220,2013-06-11 15:51:00<br />
12:51 PM,81.0,62.1,52,29.69,10.0,West,18.4,25.3,N/A,,Mostly Cloudy,METAR KEWR 111651Z 27016G22KT 10SM SCT037 BKN043 27/17 A2969 RMK AO2 SLP053 T02720167 PNO $,270,2013-06-11 16:51:00<br />
1:51 PM,80.1,63.0,56,29.67,10.0,SW,18.4,-,N/A,,Mostly Cloudy,METAR KEWR 111751Z 22016KT 10SM SCT046TCU BKN065 BKN085 27/17 A2966 RMK AO2 SLP045 TCU OHD MDT CU ALQDS T02670172 10278 20222 58020 PNO $,220,2013-06-11 17:51:00<br />
2:51 PM,81.0,63.0,54,29.66,10.0,WSW,18.4,26.5,0.00,,Overcast,METAR KEWR 111851Z 24016G23KT 10SM BKN043TCU BKN070 OVC100 27/17 A2965 RMK AO2 PK WND 24027/1809 RAB32E38 SLP042 TCU N-NE P0000 T02720172,240,2013-06-11 18:51:00<br />
3:51 PM,80.1,63.0,56,29.65,10.0,WSW,20.7,29.9,0.00,,Mostly Cloudy,METAR KEWR 111951Z 25018G26KT 10SM SCT040TCU BKN065 BKN110 BKN250 27/17 A2964 RMK AO2 PK WND 25029/1937 RAB09E32 SLP038 VCSH NE-E TCU NE-E P0000 T02670172,250,2013-06-11 19:51:00<br />
4:51 PM,81.0,64.0,56,29.63,10.0,West,21.9,28.8,0.00,,Mostly Cloudy,METAR KEWR 112051Z 26019G25KT 10SM FEW040 SCT065 BKN110 BKN250 27/18 A2963 RMK AO2 PK WND 25029/2026 RAB15E23 SLP034 P0000 60000 T02720178 58011,260,2013-06-11 20:51:00<br />
5:51 PM,80.1,63.0,56,29.62,10.0,WSW,18.4,32.2,N/A,,Mostly Cloudy,METAR KEWR 112151Z 25016G28KT 10SM SCT041 BKN065 BKN110 BKN250 27/17 A2962 RMK AO2 PK WND 23032/2111 SLP031 TCU DSNT NW T02670172,250,2013-06-11 21:51:00<br />
6:51 PM,80.1,63.0,56,29.63,10.0,West,19.6,33.4,N/A,,Mostly Cloudy,METAR KEWR 112251Z 27017G29KT 10SM SCT043TCU SCT065 BKN110 27/17 A2963 RMK AO2 PK WND 27031/2204 SLP034 VCSH N-NE TCU N-NE T02670172,270,2013-06-11 22:51:00<br />
7:51 PM,78.1,61.0,56,29.65,10.0,West,17.3,26.5,N/A,,Mostly Cloudy,METAR KEWR 112351Z 27015G23KT 10SM FEW038 BKN065 BKN110 26/16 A2965 RMK AO2 SLP039 VCSH W-NW 60000 T02560161 10278 20256 53005,270,2013-06-11 23:51:00<br />
8:51 PM,75.0,61.0,62,29.68,10.0,WNW,25.3,33.4,0.00,,Scattered Clouds,METAR KEWR 120051Z 29022G29KT 10SM FEW040 SCT065 SCT090 24/16 A2968 RMK AO2 PK WND 28029/0051 RAB15E25 SLP049 P0000 T02390161,290,2013-06-12 00:51:00<br />
9:51 PM,73.0,60.1,64,29.71,10.0,West,13.8,-,N/A,,Scattered Clouds,METAR KEWR 120151Z 28012KT 10SM FEW045 SCT090 23/16 A2971 RMK AO2 SLP059 T02280156,280,2013-06-12 01:51:00<br />
10:51 PM,72.0,59.0,64,29.72,10.0,WNW,15.0,20.7,N/A,,Mostly Cloudy,METAR KEWR 120251Z 29013G18KT 10SM BKN070 22/15 A2972 RMK AO2 SLP063 60000 T02220150 51024,290,2013-06-12 02:51:00<br />
11:51 PM,72.0,57.9,61,29.73,10.0,WNW,11.5,-,N/A,,Scattered Clouds,METAR KEWR 120351Z 29010KT 10SM FEW045 SCT065 22/14 A2973 RMK AO2 SLP067 T02220144,290,2013-06-12 03:51:00<br />
