
TimeEST,TemperatureF,Dew PointF,Humidity,Sea Level PressureIn,VisibilityMPH,Wind Direction,Wind SpeedMPH,Gust SpeedMPH,PrecipitationIn,Events,Conditions,FullMetar,WindDirDegrees,DateUTC<br />
12:51 AM,54.0,52.0,93,30.05,10.0,NW,3.5,-,N/A,,Scattered Clouds,METAR KEWR 070551Z 31003KT 10SM FEW012 SCT100 SCT250 12/11 A3005 RMK AO2 SLP176 T01220111 10139 20122 56028,310,2013-11-07 05:51:00<br />
1:51 AM,55.9,53.1,90,30.02,10.0,Calm,Calm,-,N/A,,Mostly Cloudy,METAR KEWR 070651Z 00000KT 10SM FEW012 SCT030 BKN080 13/12 A3002 RMK AO2 SLP166 T01330117,0,2013-11-07 06:51:00<br />
1:58 AM,55.4,53.6,94,30.02,9.0,Calm,Calm,-,N/A,,Overcast,SPECI KEWR 070658Z 00000KT 9SM OVC015 13/12 A3002 RMK AO2,0,2013-11-07 06:58:00<br />
2:18 AM,55.4,53.6,94,30.01,10.0,Calm,Calm,-,N/A,,Overcast,SPECI KEWR 070718Z 00000KT 10SM OVC013 13/12 A3001 RMK AO2,0,2013-11-07 07:18:00<br />
2:51 AM,55.9,53.1,90,29.99,10.0,Calm,Calm,-,N/A,,Overcast,METAR KEWR 070751Z 00000KT 10SM OVC011 13/12 A2999 RMK AO2 SLP153 T01330117,0,2013-11-07 07:51:00<br />
3:51 AM,57.0,53.1,87,29.96,10.0,Calm,Calm,-,N/A,,Overcast,METAR KEWR 070851Z 00000KT 10SM OVC011 14/12 A2996 RMK AO2 SLP144 T01390117 57032,0,2013-11-07 08:51:00<br />
4:51 AM,57.9,55.0,90,29.92,10.0,WNW,5.8,-,N/A,,Overcast,METAR KEWR 070951Z 29005KT 10SM OVC011 14/13 A2992 RMK AO2 SLP132 T01440128,290,2013-11-07 09:51:00<br />
5:51 AM,60.1,57.0,90,29.89,10.0,SW,9.2,-,N/A,,Overcast,METAR KEWR 071051Z 23008KT 10SM OVC014 16/14 A2989 RMK AO2 SLP121 T01560139,230,2013-11-07 10:51:00<br />
5:58 AM,60.8,57.2,88,29.89,10.0,SW,10.4,-,N/A,,Overcast,SPECI KEWR 071058Z 23009KT 10SM OVC016 16/14 A2989 RMK AO2,230,2013-11-07 10:58:00<br />
6:51 AM,62.1,57.9,86,29.87,10.0,SW,12.7,-,N/A,,Overcast,METAR KEWR 071151Z 22011KT 10SM FEW014 BKN018 OVC025 17/14 A2987 RMK AO2 SLP114 T01670144 10167 20122 56030,220,2013-11-07 11:51:00<br />
7:51 AM,63.0,57.9,84,29.86,10.0,SSW,12.7,-,N/A,,Mostly Cloudy,METAR KEWR 071251Z 21011KT 10SM BKN017 BKN095 17/14 A2986 RMK AO2 SLP111 T01720144,210,2013-11-07 12:51:00<br />
8:51 AM,63.0,55.9,78,29.87,10.0,SW,17.3,-,N/A,,Overcast,METAR KEWR 071351Z 22015KT 10SM SCT020 BKN027 OVC095 17/13 A2987 RMK AO2 SLP115 SCT V BKN T01720133,220,2013-11-07 13:51:00<br />
9:21 AM,62.6,55.4,77,29.85,10.0,SW,13.8,-,N/A,,Overcast,SPECI KEWR 071421Z 22012KT 10SM SCT021 BKN030 OVC080 17/13 A2985 RMK AO2 SCT V BKN,220,2013-11-07 14:21:00<br />
9:46 AM,64.4,55.4,73,29.84,10.0,WSW,16.1,-,N/A,,Overcast,SPECI KEWR 071446Z 24014KT 10SM BKN023 BKN070 OVC110 18/13 A2984 RMK AO2 CIG 020V025,240,2013-11-07 14:46:00<br />
9:51 AM,63.0,55.0,75,29.85,10.0,WSW,16.1,-,N/A,,Overcast,METAR KEWR 071451Z 24014KT 10SM BKN023 BKN030 OVC065 17/13 A2985 RMK AO2 SLP106 CIG 020V025 T01720128 58004,240,2013-11-07 14:51:00<br />
10:30 AM,60.8,57.2,88,29.84,10.0,SW,12.7,-,0.01,Rain,Light Rain,SPECI KEWR 071530Z 23011KT 10SM -RA SCT021 BKN047 OVC065 16/14 A2984 RMK AO2 RAB1457 P0001,230,2013-11-07 15:30:00<br />
10:51 AM,61.0,57.0,87,29.83,8.0,SW,13.8,-,0.01,Rain,Light Rain,METAR KEWR 071551Z 23012KT 8SM -RA SCT013 BKN045 OVC070 16/14 A2983 RMK AO2 RAB1457 SLP100 P0001 T01610139,230,2013-11-07 15:51:00<br />
11:00 AM,60.8,57.2,88,29.83,8.0,WSW,12.7,-,0.01,Rain,Light Rain,SPECI KEWR 071600Z 24011KT 8SM -RA BKN013 BKN045 OVC070 16/14 A2983 RMK AO2 BKN013 V SCT P0001,240,2013-11-07 16:00:00<br />
11:34 AM,60.8,57.2,88,29.81,9.0,WSW,12.7,-,0.01,Rain,Light Rain,SPECI KEWR 071634Z 24011KT 9SM -RA SCT013 OVC085 16/14 A2981 RMK AO2 SCT V BKN P0001,240,2013-11-07 16:34:00<br />
11:51 AM,60.1,57.0,90,29.78,10.0,WSW,8.1,-,0.02,Rain,Light Rain,METAR KEWR 071651Z 25007KT 10SM -RA SCT013 OVC085 16/14 A2978 RMK AO2 PRESFR SLP085 SCT V BKN P0002 T01560139,250,2013-11-07 16:51:00<br />
12:51 PM,60.1,57.0,90,29.77,10.0,West,10.4,-,0.00,,Overcast,METAR KEWR 071751Z 26009KT 10SM SCT014 OVC080 16/14 A2977 RMK AO2 RAE09 SLP081 P0000 60003 T01560139 10178 20156 56025,260,2013-11-07 17:51:00<br />
1:40 PM,60.8,55.4,82,29.78,2.0,West,15.0,21.9,0.00,Rain,Light Rain,SPECI KEWR 071840Z 27013G19KT 2SM R04R/5500VP6000FT -RA BR BKN023 BKN040 OVC080 16/13 A2978 RMK AO2 SFC VIS 3 RAB07 P0000,270,2013-11-07 18:40:00<br />
1:51 PM,57.0,53.1,87,29.80,5.0,NW,17.3,-,0.04,Rain,Light Rain,METAR KEWR 071851Z 31015KT 5SM -RA BR SCT015 BKN040 OVC065 14/12 A2980 RMK AO2 RAB07 SLP089 SCT V BKN P0004 T01390117,310,2013-11-07 18:51:00<br />
1:56 PM,55.4,51.8,88,29.80,5.0,NW,16.1,24.2,0.00,Rain,Light Rain,SPECI KEWR 071856Z 31014G21KT 5SM -RA BR SCT011 BKN035 OVC065 13/11 A2980 RMK AO2 WSHFT 1838 P0000 PNO $,310,2013-11-07 18:56:00<br />
2:51 PM,55.9,52.0,87,29.79,10.0,NW,8.1,-,0.02,Rain,Light Rain,METAR KEWR 071951Z 32007KT 10SM -RA FEW010 SCT050 OVC070 13/11 A2979 RMK AO2 WSHFT 1838 SLP088 P0002 T01330111 $,320,2013-11-07 19:51:00<br />
3:51 PM,51.1,45.0,80,29.83,10.0,NW,15.0,24.2,0.00,Rain,Light Rain,METAR KEWR 072051Z 31013G21KT 10SM -RA FEW010 SCT020 BKN040 BKN130 BKN250 11/07 A2983 RMK AO2 PK WND 33027/2033 SLP101 P0000 60006 T01060072 53019,310,2013-11-07 20:51:00<br />
4:51 PM,48.9,39.0,69,29.86,10.0,NW,17.3,26.5,0.00,,Mostly Cloudy,METAR KEWR 072151Z 32015G23KT 10SM FEW020 SCT050 BKN090 BKN140 BKN260 09/04 A2986 RMK AO2 RAE2058 SLP111 P0000 T00940039,320,2013-11-07 21:51:00<br />
5:51 PM,48.0,37.9,68,29.89,10.0,NW,11.5,-,N/A,,Scattered Clouds,METAR KEWR 072251Z 31010KT 10SM FEW020 SCT050 SCT160 09/03 A2989 RMK AO2 SLP120 T00890033,310,2013-11-07 22:51:00<br />
6:51 PM,48.9,37.0,64,29.92,10.0,NW,19.6,26.5,N/A,,Mostly Cloudy,METAR KEWR 072351Z 32017G23KT 10SM FEW020 BKN035 BKN045 09/03 A2992 RMK AO2 SLP131 60006 T00940028 10156 20089 52030,320,2013-11-07 23:51:00<br />
7:51 PM,46.9,30.9,54,29.93,10.0,NW,16.1,21.9,N/A,,Partly Cloudy,METAR KEWR 080051Z 32014G19KT 10SM FEW040 08/M01 A2993 RMK AO2 SLP135 T00831006,320,2013-11-08 00:51:00<br />
8:51 PM,46.0,30.9,56,29.95,10.0,NW,8.1,-,N/A,,Partly Cloudy,METAR KEWR 080151Z 32007KT 10SM FEW150 08/M01 A2995 RMK AO2 SLP141 T00781006,320,2013-11-08 01:51:00<br />
9:51 PM,44.1,30.9,60,29.95,10.0,Variable,4.6,-,N/A,,Clear,METAR KEWR 080251Z VRB04KT 10SM CLR 07/M01 A2995 RMK AO2 SLP142 T00671006 51012,0,2013-11-08 02:51:00<br />
10:51 PM,44.1,30.9,60,29.95,10.0,Variable,5.8,-,N/A,,Clear,METAR KEWR 080351Z VRB05KT 10SM CLR 07/M01 A2995 RMK AO2 SLP142 T00671006,0,2013-11-08 03:51:00<br />
11:51 PM,43.0,30.9,62,29.95,10.0,Variable,6.9,-,N/A,,Clear,METAR KEWR 080451Z VRB06KT 10SM CLR 06/M01 A2995 RMK AO2 SLP140 T00611006 401780061,0,2013-11-08 04:51:00<br />
