
TimeEST,TemperatureF,Dew PointF,Humidity,Sea Level PressureIn,VisibilityMPH,Wind Direction,Wind SpeedMPH,Gust SpeedMPH,PrecipitationIn,Events,Conditions,FullMetar,WindDirDegrees,DateUTC<br />
12:51 AM,37.0,36.0,96,29.81,3.0,North,11.5,-,0.00,,Light Drizzle,METAR KEWR 240551Z 36010KT 3SM -DZ BR OVC006 03/02 A2981 RMK AO2 SFC VIS 6 SLP092 P0000 60000 T00280022 10039 20028 56016,360,2013-02-24 05:51:00<br />
1:51 AM,37.9,36.0,93,29.81,3.0,North,8.1,-,0.00,,Light Drizzle,METAR KEWR 240651Z 01007KT 3SM -DZ BR OVC007 03/02 A2980 RMK AO2 SFC VIS 5 SLP092 P0000 T00330022,10,2013-02-24 06:51:00<br />
2:51 AM,37.9,37.0,97,29.80,3.0,North,9.2,-,0.00,,Light Drizzle,METAR KEWR 240751Z 35008KT 3SM -DZ BKN007 OVC010 03/03 A2980 RMK AO2 SFC VIS 7 SLP089 P0000 T00330028,350,2013-02-24 07:51:00<br />
3:41 AM,37.4,37.4,100,29.79,10.0,NNW,9.2,-,0.00,,Overcast,SPECI KEWR 240841Z 33008KT 10SM SCT007 OVC012 03/03 A2979 RMK AO2 DZE41 P0000,330,2013-02-24 08:41:00<br />
3:51 AM,37.9,36.0,93,29.80,10.0,NNW,10.4,-,0.00,,Overcast,METAR KEWR 240851Z 33009KT 10SM FEW008 OVC014 03/02 A2980 RMK AO2 DZE41 SLP089 P0000 60000 T00330022 55003,330,2013-02-24 08:51:00<br />
4:03 AM,37.4,35.6,93,29.80,10.0,NNW,10.4,-,N/A,,Overcast,SPECI KEWR 240903Z 33009KT 10SM BKN009 OVC014 03/02 A2980 RMK AO2,330,2013-02-24 09:03:00<br />
4:10 AM,37.4,35.6,93,29.80,10.0,NNW,8.1,-,N/A,,Overcast,SPECI KEWR 240910Z 34007KT 10SM SCT009 OVC014 03/02 A2980 RMK AO2,340,2013-02-24 09:10:00<br />
4:51 AM,37.0,35.1,93,29.76,10.0,North,10.4,-,N/A,,Overcast,METAR KEWR 240951Z 01009KT 10SM BKN014 BKN043 OVC110 03/02 A2976 RMK AO2 SLP076 T00280017,10,2013-02-24 09:51:00<br />
4:58 AM,37.4,35.6,93,29.77,10.0,North,9.2,-,N/A,,Mostly Cloudy,SPECI KEWR 240958Z 01008KT 10SM FEW011 SCT045 BKN110 03/02 A2977 RMK AO2,10,2013-02-24 09:58:00<br />
5:51 AM,37.9,36.0,93,29.76,10.0,North,10.4,-,N/A,,Mostly Cloudy,METAR KEWR 241051Z 36009KT 10SM BKN130 03/02 A2976 RMK AO2 SLP078 T00330022,360,2013-02-24 10:51:00<br />
6:03 AM,37.4,35.6,93,29.76,10.0,NNW,9.2,-,N/A,,Mostly Cloudy,SPECI KEWR 241103Z 34008KT 10SM BKN014 BKN130 03/02 A2976 RMK AO2,340,2013-02-24 11:03:00<br />
6:19 AM,37.4,35.6,93,29.77,10.0,NNW,9.2,-,N/A,,Overcast,SPECI KEWR 241119Z 33008KT 10SM OVC015 03/02 A2977 RMK AO2,330,2013-02-24 11:19:00<br />
6:38 AM,37.4,35.6,93,29.78,10.0,NW,5.8,-,N/A,,Overcast,SPECI KEWR 241138Z 31005KT 10SM FEW008 OVC015 03/02 A2978 RMK AO2,310,2013-02-24 11:38:00<br />
6:51 AM,37.9,35.1,89,29.78,10.0,NW,8.1,-,N/A,,Overcast,METAR KEWR 241151Z 31007KT 10SM FEW008 BKN017 OVC120 03/02 A2978 RMK AO2 SLP084 60000 70034 T00330017 10033 20028 55005,310,2013-02-24 11:51:00<br />
7:46 AM,39.2,35.6,87,29.77,10.0,North,5.8,-,N/A,,Mostly Cloudy,SPECI KEWR 241246Z 36005KT 10SM FEW008 SCT017 BKN120 BKN250 04/02 A2977 RMK AO2,360,2013-02-24 12:46:00<br />
7:51 AM,39.0,36.0,89,29.77,10.0,North,5.8,-,N/A,,Mostly Cloudy,METAR KEWR 241251Z 36005KT 10SM FEW008 SCT017 BKN120 BKN250 04/02 A2977 RMK AO2 SLP080 T00390022,360,2013-02-24 12:51:00<br />
8:51 AM,42.1,37.0,82,29.78,10.0,NNW,9.2,-,N/A,,Mostly Cloudy,METAR KEWR 241351Z 33008KT 10SM FEW009 SCT015 BKN120 BKN250 06/03 A2978 RMK AO2 SLP085 T00560028,330,2013-02-24 13:51:00<br />
9:07 AM,42.8,37.4,81,29.78,10.0,NW,13.8,-,N/A,,Mostly Cloudy,SPECI KEWR 241407Z 31012KT 10SM BKN013 BKN110 BKN250 06/03 A2978 RMK AO2,310,2013-02-24 14:07:00<br />
9:51 AM,43.0,37.0,80,29.78,10.0,NNW,10.4,-,N/A,,Mostly Cloudy,METAR KEWR 241451Z 33009KT 10SM BKN014 06/03 A2978 RMK AO2 SLP084 T00610028 55000,330,2013-02-24 14:51:00<br />
10:25 AM,42.8,37.4,81,29.78,10.0,NNW,11.5,-,N/A,,Mostly Cloudy,SPECI KEWR 241525Z 34010KT 10SM BKN016 06/03 A2978 RMK AO2,340,2013-02-24 15:25:00<br />
10:51 AM,45.0,37.0,74,29.78,10.0,NNW,11.5,-,N/A,,Mostly Cloudy,METAR KEWR 241551Z 33010KT 10SM SCT016 BKN022 BKN130 07/03 A2977 RMK AO2 SLP082 T00720028,330,2013-02-24 15:51:00<br />
11:17 AM,46.4,35.6,66,29.78,10.0,NW,18.4,25.3,N/A,,Mostly Cloudy,SPECI KEWR 241617Z 31016G22KT 10SM SCT025 BKN031 08/02 A2978 RMK AO2,310,2013-02-24 16:17:00<br />
11:51 AM,46.9,34.0,61,29.78,10.0,NW,15.0,21.9,N/A,,Mostly Cloudy,METAR KEWR 241651Z 31013G19KT 10SM SCT025 BKN031 BKN039 08/01 A2978 RMK AO2 SLP082 T00830011,310,2013-02-24 16:51:00<br />
12:51 PM,48.9,30.9,50,29.76,10.0,West,18.4,23.0,N/A,,Mostly Cloudy,METAR KEWR 241751Z 28016G20KT 10SM SCT031 BKN039 BKN250 09/M01 A2976 RMK AO2 PK WND 29027/1741 SLP076 T00941006 10106 20033 58008,280,2013-02-24 17:51:00<br />
1:51 PM,48.0,28.9,48,29.75,10.0,WNW,18.4,27.6,N/A,,Mostly Cloudy,METAR KEWR 241851Z 29016G24KT 10SM FEW035 BKN045 BKN250 09/M02 A2975 RMK AO2 PK WND 28026/1809 SLP075 T00891017,290,2013-02-24 18:51:00<br />
2:51 PM,46.0,27.0,47,29.76,10.0,NW,16.1,28.8,N/A,,Mostly Cloudy,METAR KEWR 241951Z 31014G25KT 10SM BKN045 08/M03 A2976 RMK AO2 PK WND 30026/1941 SLP078 T00781028,310,2013-02-24 19:51:00<br />
3:51 PM,44.1,27.0,51,29.79,10.0,NW,18.4,25.3,N/A,,Overcast,METAR KEWR 242051Z 31016G22KT 10SM OVC045 07/M03 A2979 RMK AO2 SLP086 T00671028 53011,310,2013-02-24 20:51:00<br />
4:51 PM,39.9,28.0,63,29.83,10.0,WNW,21.9,28.8,N/A,,Overcast,METAR KEWR 242151Z 29019G25KT 10SM FEW025 OVC030 04/M02 A2983 RMK AO2 SLP101 T00441022 $,290,2013-02-24 21:51:00<br />
5:51 PM,39.0,24.1,55,29.87,10.0,WNW,11.5,21.9,N/A,,Mostly Cloudy,METAR KEWR 242251Z 30010G19KT 10SM FEW025 SCT030 BKN050 04/M04 A2987 RMK AO2 PK WND 31029/2200 SLP114 T00391044 $,300,2013-02-24 22:51:00<br />
6:51 PM,37.0,21.0,52,29.90,10.0,WNW,15.0,24.2,N/A,,Partly Cloudy,METAR KEWR 242351Z 30013G21KT 10SM FEW050 03/M06 A2990 RMK AO2 SLP124 T00281061 10100 20028 51037 $,300,2013-02-24 23:51:00<br />
7:51 PM,36.0,21.0,55,29.93,10.0,NW,18.4,27.6,N/A,,Scattered Clouds,METAR KEWR 250051Z 31016G24KT 10SM FEW041 SCT120 02/M06 A2993 RMK AO2 SLP135 T00221061 $,310,2013-02-25 00:51:00<br />
8:51 PM,35.1,21.9,59,29.96,10.0,NW,18.4,24.2,N/A,,Partly Cloudy,METAR KEWR 250151Z 31016G21KT 10SM FEW120 02/M06 A2996 RMK AO2 SLP144 T00171056 $,310,2013-02-25 01:51:00<br />
9:51 PM,34.0,21.0,59,29.96,10.0,WNW,15.0,21.9,N/A,,Partly Cloudy,METAR KEWR 250251Z 30013G19KT 10SM FEW120 01/M06 A2997 RMK AO2 SLP146 T00111061 51023 $,300,2013-02-25 02:51:00<br />
10:51 PM,34.0,21.0,59,29.97,10.0,NW,13.8,20.7,N/A,,Partly Cloudy,METAR KEWR 250351Z 31012G18KT 10SM FEW270 01/M06 A2997 RMK AO2 SLP148 T00111061 $,310,2013-02-25 03:51:00<br />
11:51 PM,34.0,21.0,59,29.98,10.0,NW,11.5,20.7,N/A,,Clear,METAR KEWR 250451Z 31010G18KT 10SM CLR 01/M06 A2998 RMK AO2 SLP151 T00111061 401060011 $,310,2013-02-25 04:51:00<br />
