
TimeEDT,TemperatureF,Dew PointF,Humidity,Sea Level PressureIn,VisibilityMPH,Wind Direction,Wind SpeedMPH,Gust SpeedMPH,PrecipitationIn,Events,Conditions,FullMetar,WindDirDegrees,DateUTC<br />
12:51 AM,73.0,66.9,81,30.04,10.0,South,4.6,-,N/A,,Mostly Cloudy,METAR KEWR 120451Z 19004KT 10SM FEW010 SCT055 BKN075 23/19 A3004 RMK AO2 SLP172 T02280194 402890172,190,2013-08-12 04:51:00<br />
1:51 AM,72.0,68.0,87,30.03,10.0,South,3.5,-,0.00,,Mostly Cloudy,METAR KEWR 120551Z 18003KT 10SM FEW010 SCT055 BKN070 BKN250 22/20 A3003 RMK AO2 RAB0452E22 SLP167 P0000 60000 T02220200 10250 20222 58007,180,2013-08-12 05:51:00<br />
2:51 AM,72.0,68.0,87,30.02,10.0,Calm,Calm,-,N/A,,Mostly Cloudy,METAR KEWR 120651Z 00000KT 10SM SCT027 BKN032 BKN075 22/20 A3002 RMK AO2 SLP166 T02220200,0,2013-08-12 06:51:00<br />
3:51 AM,71.1,66.9,87,30.01,10.0,SW,3.5,-,N/A,,Mostly Cloudy,METAR KEWR 120751Z 23003KT 10SM FEW038 BKN070 BKN100 22/19 A3001 RMK AO2 SLP163 T02170194,230,2013-08-12 07:51:00<br />
4:51 AM,72.0,68.0,87,30.00,10.0,Calm,Calm,-,N/A,,Overcast,METAR KEWR 120851Z 00000KT 10SM FEW028 BKN038 OVC100 22/20 A3000 RMK AO2 SLP159 T02220200 58008,0,2013-08-12 08:51:00<br />
5:51 AM,72.0,66.9,84,30.01,10.0,WSW,3.5,-,N/A,,Overcast,METAR KEWR 120951Z 25003KT 10SM BKN035 OVC100 22/19 A3001 RMK AO2 SLP161 T02220194,250,2013-08-12 09:51:00<br />
6:37 AM,71.6,68.0,88,30.02,1.5,WNW,5.8,-,0.07,Rain,Heavy Rain,SPECI KEWR 121037Z 30005KT 1 1/2SM R04R/5500VP6000FT +RA BR FEW015 OVC030 22/20 A3002 RMK AO2 SFC VIS 2 1/2 RAB30 P0007,300,2013-08-12 10:37:00<br />
6:44 AM,69.8,68.0,94,30.02,1.5,NW,4.6,-,0.18,Rain,Heavy Rain,SPECI KEWR 121044Z 32004KT 1 1/2SM R04R/3000VP6000FT +RA BR FEW015 BKN025 OVC036 21/20 A3002 RMK AO2 RAB30 P0018 $,320,2013-08-12 10:44:00<br />
6:51 AM,70.0,68.0,93,30.02,1.2,West,10.4,-,0.36,Rain,Heavy Rain,METAR KEWR 121051Z 28009KT 1 1/4SM R04R/3000VP6000FT +RA BR FEW009 BKN023 OVC035 21/20 A3002 RMK AO2 TWR VIS 1 1/2 RAB30 SLP166 P0036 T02110200 $,280,2013-08-12 10:51:00<br />
7:08 AM,69.8,68.0,94,30.03,5.0,West,6.9,-,0.13,Rain,Rain,SPECI KEWR 121108Z 28006KT 5SM RA BR FEW009 BKN025 OVC045 21/20 A3003 RMK AO2 P0013 $,280,2013-08-12 11:08:00<br />
7:19 AM,69.8,68.0,94,30.03,7.0,NNW,6.9,-,0.14,Rain,Light Rain,SPECI KEWR 121119Z 33006KT 7SM -RA FEW008 SCT025 OVC045 21/20 A3003 RMK AO2 P0014 $,330,2013-08-12 11:19:00<br />
7:51 AM,71.1,66.9,87,30.02,10.0,NNE,5.8,-,0.15,,Mostly Cloudy,METAR KEWR 121151Z 03005KT 10SM FEW015 SCT045 BKN080 BKN140 BKN250 22/19 A3002 RMK AO2 RAE51 SLP164 P0015 60051 70051 T02170194 10228 20211 50005 $,30,2013-08-12 11:51:00<br />
8:51 AM,73.0,64.9,76,30.02,10.0,Calm,Calm,-,N/A,,Overcast,METAR KEWR 121251Z 00000KT 10SM FEW020 BKN050 BKN095 OVC250 23/18 A3002 RMK AO2 SLP165 T02280183,0,2013-08-12 12:51:00<br />
9:51 AM,73.9,64.9,73,30.03,10.0,North,3.5,-,0.00,Rain,Light Rain,METAR KEWR 121351Z 35003KT 10SM -RA FEW020 SCT055 OVC070 23/18 A3003 RMK AO2 RAB47 SLP167 ACC SE-S P0000 T02330183,350,2013-08-12 13:51:00<br />
10:51 AM,75.0,64.9,71,30.02,10.0,NNE,6.9,-,0.00,,Overcast,METAR KEWR 121451Z 02006KT 10SM FEW055 SCT070 OVC085 24/18 A3002 RMK AO2 RAE00B22E40 SLP164 P0000 60000 T02390183 50000,20,2013-08-12 14:51:00<br />
11:51 AM,75.9,66.0,71,30.01,10.0,Variable,3.5,-,N/A,,Overcast,METAR KEWR 121551Z VRB03KT 10SM FEW023 OVC060 24/19 A3001 RMK AO2 SLP162 T02440189,0,2013-08-12 15:51:00<br />
12:51 PM,78.1,64.0,62,30.00,10.0,Calm,Calm,-,N/A,,Overcast,METAR KEWR 121651Z 00000KT 10SM FEW028 OVC070 26/18 A3000 RMK AO2 SLP159 T02560178,0,2013-08-12 16:51:00<br />
1:51 PM,79.0,60.1,52,29.99,10.0,Variable,3.5,-,N/A,,Mostly Cloudy,METAR KEWR 121751Z VRB03KT 10SM FEW037 SCT080 BKN100 26/16 A2999 RMK AO2 SLP156 60000 T02610156 10272 20217 58008,0,2013-08-12 17:51:00<br />
2:51 PM,81.0,62.1,52,29.98,10.0,Calm,Calm,-,N/A,,Mostly Cloudy,METAR KEWR 121851Z 00000KT 10SM FEW040 BKN075 BKN250 27/17 A2998 RMK AO2 SLP151 T02720167,0,2013-08-12 18:51:00<br />
3:51 PM,82.0,61.0,49,29.96,10.0,SSE,3.5,-,N/A,,Mostly Cloudy,METAR KEWR 121951Z 16003KT 10SM SCT045 SCT075 BKN250 28/16 A2996 RMK AO2 SLP146 T02780161,160,2013-08-12 19:51:00<br />
4:51 PM,80.1,66.9,64,29.95,10.0,South,6.9,-,N/A,,Scattered Clouds,METAR KEWR 122051Z 18006KT 10SM FEW035 SCT250 27/19 A2995 RMK AO2 SLP142 T02670194 56014,180,2013-08-12 20:51:00<br />
5:51 PM,80.1,66.0,62,29.95,10.0,SSE,6.9,-,N/A,,Scattered Clouds,METAR KEWR 122151Z 16006KT 10SM FEW030 SCT250 27/19 A2995 RMK AO2 SLP140 T02670189,160,2013-08-12 21:51:00<br />
6:51 PM,79.0,66.9,66,29.94,10.0,SSE,4.6,-,N/A,,Scattered Clouds,METAR KEWR 122251Z 15004KT 10SM FEW030 SCT045 SCT250 26/19 A2994 RMK AO2 SLP137 TCU DSNT NE T02610194,150,2013-08-12 22:51:00<br />
7:51 PM,78.1,66.9,68,29.93,10.0,SSE,4.6,-,N/A,,Mostly Cloudy,METAR KEWR 122351Z 16004KT 10SM FEW030 SCT045 BKN250 26/19 A2993 RMK AO2 SLP135 T02560194 10283 20256 57007,160,2013-08-12 23:51:00<br />
8:51 PM,75.9,70.0,82,29.93,10.0,SSE,4.6,-,N/A,,Mostly Cloudy,METAR KEWR 130051Z 16004KT 10SM FEW045 SCT090 BKN250 24/21 A2993 RMK AO2 SLP135 T02440211,160,2013-08-13 00:51:00<br />
9:51 PM,75.0,70.0,84,29.94,10.0,South,3.5,-,N/A,,Mostly Cloudy,METAR KEWR 130151Z 17003KT 10SM FEW090 BKN250 24/21 A2994 RMK AO2 SLP137 T02390211,170,2013-08-13 01:51:00<br />
10:51 PM,75.0,69.1,82,29.94,10.0,South,3.5,-,N/A,,Mostly Cloudy,METAR KEWR 130251Z 18003KT 10SM FEW150 BKN250 24/21 A2993 RMK AO2 SLP136 T02390206 50001,180,2013-08-13 02:51:00<br />
11:51 PM,73.0,69.1,87,29.94,10.0,SSW,4.6,-,N/A,,Mostly Cloudy,METAR KEWR 130351Z 20004KT 10SM BKN250 23/21 A2994 RMK AO2 SLP137 T02280206,200,2013-08-13 03:51:00<br />
