
TimeEDT,TemperatureF,Dew PointF,Humidity,Sea Level PressureIn,VisibilityMPH,Wind Direction,Wind SpeedMPH,Gust SpeedMPH,PrecipitationIn,Events,Conditions,FullMetar,WindDirDegrees,DateUTC<br />
12:51 AM,51.1,36.0,56,29.99,10.0,WNW,18.4,28.8,0.00,,Overcast,METAR KEWR 260451Z 30016G25KT 10SM FEW045 OVC060 11/02 A2999 RMK AO2 PK WND 28029/0431 RAB24E34 SLP156 P0000 T01060022 401440078,300,2013-05-26 04:51:00<br />
1:51 AM,50.0,36.0,59,29.99,10.0,WNW,17.3,-,N/A,,Mostly Cloudy,METAR KEWR 260551Z 29015KT 10SM FEW045 BKN060 BKN100 10/02 A2999 RMK AO2 SLP154 60000 T01000022 10128 20100 56010,290,2013-05-26 05:51:00<br />
2:51 AM,48.9,36.0,61,29.98,10.0,NW,13.8,25.3,N/A,,Scattered Clouds,METAR KEWR 260651Z 31012G22KT 10SM SCT060 SCT120 09/02 A2998 RMK AO2 SLP152 T00940022,310,2013-05-26 06:51:00<br />
3:51 AM,48.9,37.0,64,29.97,10.0,West,20.7,27.6,N/A,,Scattered Clouds,METAR KEWR 260751Z 28018G24KT 10SM FEW060 SCT110 09/03 A2997 RMK AO2 SLP149 T00940028,280,2013-05-26 07:51:00<br />
4:51 AM,48.9,37.0,64,29.99,10.0,West,12.7,-,N/A,,Scattered Clouds,METAR KEWR 260851Z 27011KT 10SM FEW110 SCT250 09/03 A2999 RMK AO2 PK WND 28026/0753 SLP156 T00940028 53002,270,2013-05-26 08:51:00<br />
5:51 AM,48.0,37.0,66,30.02,10.0,West,15.0,-,N/A,,Scattered Clouds,METAR KEWR 260951Z 27013KT 10SM FEW110 SCT250 09/03 A3002 RMK AO2 SLP164 T00890028,270,2013-05-26 09:51:00<br />
6:51 AM,51.1,37.9,61,30.03,10.0,West,13.8,-,N/A,,Scattered Clouds,METAR KEWR 261051Z 26012KT 10SM FEW040 SCT110 SCT250 11/03 A3003 RMK AO2 SLP167 T01060033,260,2013-05-26 10:51:00<br />
7:51 AM,53.1,37.9,57,30.03,10.0,West,18.4,25.3,N/A,,Scattered Clouds,METAR KEWR 261151Z 26016G22KT 10SM FEW040 SCT130 SCT250 12/03 A3003 RMK AO2 SLP168 70001 T01170033 10117 20089 51012,260,2013-05-26 11:51:00<br />
8:51 AM,57.0,37.0,47,30.03,10.0,West,18.4,26.5,N/A,,Scattered Clouds,METAR KEWR 261251Z 27016G23KT 10SM FEW040 SCT130 SCT250 14/03 A3003 RMK AO2 PK WND 28026/1241 SLP169 T01390028,270,2013-05-26 12:51:00<br />
9:51 AM,59.0,36.0,42,30.03,10.0,West,19.6,34.5,N/A,,Scattered Clouds,METAR KEWR 261351Z 28017G30KT 10SM FEW045 SCT130 SCT250 15/02 A3003 RMK AO2 PK WND 28030/1348 SLP167 T01500022,280,2013-05-26 13:51:00<br />
10:51 AM,63.0,34.0,34,30.03,10.0,WNW,19.6,39.1,N/A,,Mostly Cloudy,METAR KEWR 261451Z 30017G34KT 10SM BKN060 BKN130 BKN250 17/01 A3003 RMK AO2 PK WND 33034/1445 SLP168 T01720011 50000,300,2013-05-26 14:51:00<br />
11:51 AM,64.9,35.1,33,30.04,10.0,WNW,21.9,29.9,N/A,,Mostly Cloudy,METAR KEWR 261551Z 30019G26KT 10SM BKN060 BKN130 BKN250 18/02 A3004 RMK AO2 PK WND 33031/1501 SLP170 T01830017,300,2013-05-26 15:51:00<br />
12:51 PM,64.9,33.1,31,30.03,10.0,WNW,19.6,27.6,N/A,,Mostly Cloudy,METAR KEWR 261651Z 30017G24KT 10SM BKN070 BKN130 BKN250 18/01 A3003 RMK AO2 PK WND 34028/1554 SLP168 T01830006,300,2013-05-26 16:51:00<br />
1:51 PM,68.0,33.1,27,30.02,10.0,WNW,18.4,31.1,N/A,,Mostly Cloudy,METAR KEWR 261751Z 29016G27KT 10SM BKN075 BKN150 BKN250 20/01 A3002 RMK AO2 PK WND 30027/1743 SLP165 T02000006 10200 20117 58003,290,2013-05-26 17:51:00<br />
2:51 PM,69.1,28.9,22,30.02,10.0,NW,24.2,34.5,N/A,,Mostly Cloudy,METAR KEWR 261851Z 31021G30KT 10SM BKN075 BKN250 21/M02 A3002 RMK AO2 PK WND 32032/1834 SLP164 T02061017,310,2013-05-26 18:51:00<br />
3:51 PM,70.0,30.9,24,30.03,10.0,NW,24.2,31.1,N/A,,Mostly Cloudy,METAR KEWR 261951Z 31021G27KT 10SM BKN080 BKN250 21/M01 A3003 RMK AO2 PK WND 31031/1921 SLP167 T02111006,310,2013-05-26 19:51:00<br />
4:51 PM,71.1,32.0,24,30.04,10.0,WNW,16.1,25.3,N/A,,Scattered Clouds,METAR KEWR 262051Z 30014G22KT 10SM SCT080 SCT250 22/00 A3003 RMK AO2 PK WND 32030/2009 SLP170 T02170000 53005,300,2013-05-26 20:51:00<br />
5:51 PM,68.0,30.9,25,30.06,10.0,NNW,20.7,29.9,N/A,,Scattered Clouds,METAR KEWR 262151Z 33018G26KT 10SM FEW080 SCT250 20/M01 A3006 RMK AO2 PK WND 31033/2055 SLP177 T02001006,330,2013-05-26 21:51:00<br />
6:51 PM,66.9,28.9,24,30.08,10.0,NW,23.0,31.1,N/A,,Scattered Clouds,METAR KEWR 262251Z 32020G27KT 10SM FEW080 SCT250 19/M02 A3008 RMK AO2 PK WND 32028/2218 SLP186 T01941017,320,2013-05-26 22:51:00<br />
7:51 PM,64.9,30.0,27,30.11,10.0,NW,9.2,20.7,N/A,,Scattered Clouds,METAR KEWR 262351Z 32008G18KT 10SM FEW080 SCT250 18/M01 A3011 RMK AO2 PK WND 32027/2253 SLP194 T01831011 10217 20183 53024,320,2013-05-26 23:51:00<br />
8:51 PM,63.0,30.0,29,30.14,10.0,NW,12.7,-,N/A,,Clear,METAR KEWR 270051Z 32011KT 10SM CLR 17/M01 A3014 RMK AO2 SLP204 T01721011,320,2013-05-27 00:51:00<br />
9:51 PM,61.0,32.0,34,30.17,10.0,NW,9.2,-,N/A,,Clear,METAR KEWR 270151Z 31008KT 10SM CLR 16/00 A3017 RMK AO2 SLP217 T01610000,310,2013-05-27 01:51:00<br />
10:51 PM,60.1,30.9,33,30.19,10.0,NW,9.2,-,N/A,,Clear,METAR KEWR 270251Z 32008KT 10SM CLR 16/M01 A3019 RMK AO2 SLP224 T01561006 51030,320,2013-05-27 02:51:00<br />
11:51 PM,57.0,33.1,40,30.20,10.0,West,3.5,-,N/A,,Clear,METAR KEWR 270351Z 27003KT 10SM CLR 14/01 A3020 RMK AO2 SLP227 T01390006,270,2013-05-27 03:51:00<br />
