
TimeEST,TemperatureF,Dew PointF,Humidity,Sea Level PressureIn,VisibilityMPH,Wind Direction,Wind SpeedMPH,Gust SpeedMPH,PrecipitationIn,Events,Conditions,FullMetar,WindDirDegrees,DateUTC<br />
12:51 AM,30.9,14.0,50,30.20,10.0,South,6.9,-,N/A,,Mostly Cloudy,METAR KEWR 190551Z 18006KT 10SM BKN250 M01/M10 A3020 RMK AO2 SLP225 T10061100 10006 21011 58006 $,180,2013-02-19 05:51:00<br />
1:51 AM,30.9,12.9,47,30.18,10.0,South,5.8,-,N/A,,Scattered Clouds,METAR KEWR 190651Z 18005KT 10SM FEW060 SCT250 M01/M11 A3018 RMK AO2 SLP220 T10061106 $,180,2013-02-19 06:51:00<br />
2:51 AM,30.9,12.9,47,30.15,10.0,South,4.6,-,N/A,,Partly Cloudy,METAR KEWR 190751Z 18004KT 10SM FEW250 M01/M11 A3015 RMK AO2 SLP210 T10061106 $,180,2013-02-19 07:51:00<br />
3:51 AM,30.0,15.1,54,30.13,10.0,Calm,Calm,-,N/A,,Partly Cloudy,METAR KEWR 190851Z 00000KT 10SM FEW250 M01/M09 A3013 RMK AO2 SLP203 T10111094 58022 $,0,2013-02-19 08:51:00<br />
4:51 AM,30.9,16.0,54,30.13,10.0,South,4.6,-,N/A,,Partly Cloudy,METAR KEWR 190951Z 19004KT 10SM FEW250 M01/M09 A3013 RMK AO2 SLP201 T10061089 $,190,2013-02-19 09:51:00<br />
5:51 AM,32.0,18.0,56,30.09,10.0,South,3.5,-,N/A,,Partly Cloudy,METAR KEWR 191051Z 18003KT 10SM FEW250 00/M08 A3009 RMK AO2 SLP188 T00001078 $,180,2013-02-19 10:51:00<br />
6:51 AM,33.1,19.9,59,30.06,10.0,SE,4.6,-,N/A,,Mostly Cloudy,METAR KEWR 191151Z 14004KT 10SM BKN250 01/M07 A3007 RMK AO2 SLP180 T00061067 10006 21011 58023 $,140,2013-02-19 11:51:00<br />
7:51 AM,35.1,21.9,59,30.07,10.0,Variable,3.5,-,N/A,,Mostly Cloudy,METAR KEWR 191251Z VRB03KT 10SM BKN250 02/M06 A3007 RMK AO2 SLP181 T00171056 $,0,2013-02-19 12:51:00<br />
8:51 AM,37.0,24.1,59,30.05,10.0,South,5.8,-,N/A,,Overcast,METAR KEWR 191351Z 18005KT 10SM BKN230 OVC260 03/M04 A3005 RMK AO2 SLP174 T00281044 $,180,2013-02-19 13:51:00<br />
9:51 AM,41.0,24.1,51,30.01,10.0,SSE,5.8,-,N/A,,Overcast,METAR KEWR 191451Z 16005KT 10SM FEW160 SCT210 OVC250 05/M04 A3001 RMK AO2 SLP160 T00501044 58021,160,2013-02-19 14:51:00<br />
10:51 AM,44.1,25.0,47,29.99,10.0,South,5.8,-,N/A,,Overcast,METAR KEWR 191551Z 17005KT 10SM FEW140 BKN200 OVC250 07/M04 A2999 RMK AO2 SLP154 T00671039,170,2013-02-19 15:51:00<br />
11:51 AM,48.9,28.9,46,29.94,10.0,SSW,12.7,21.9,N/A,,Overcast,METAR KEWR 191651Z 20011G19KT 10SM SCT120 BKN140 OVC220 09/M02 A2993 RMK AO2 SLP136 T00941017,200,2013-02-19 16:51:00<br />
12:51 PM,45.0,36.0,71,29.91,9.0,SW,17.3,26.5,0.00,Rain,Light Rain,METAR KEWR 191751Z 22015G23KT 9SM -RA SCT055 BKN110 OVC220 07/02 A2991 RMK AO2 PK WND 21030/1733 RAB31 SLP128 P0000 60000 T00720022 10100 20006 58031,220,2013-02-19 17:51:00<br />
1:51 PM,44.1,37.9,79,29.86,8.0,South,8.1,-,0.05,Rain,Light Rain,METAR KEWR 191851Z 19007KT 8SM -RA BKN035 BKN047 OVC080 07/03 A2986 RMK AO2 SLP111 P0005 T00670033,190,2013-02-19 18:51:00<br />
2:32 PM,44.6,39.2,81,29.83,7.0,South,5.8,-,0.03,Rain,Light Rain,SPECI KEWR 191932Z 17005KT 7SM -RA BKN023 BKN030 OVC035 07/04 A2983 RMK AO2 BKN023 V SCT P0003,170,2013-02-19 19:32:00<br />
2:51 PM,44.1,39.9,85,29.81,7.0,South,6.9,-,0.04,Rain,Light Rain,METAR KEWR 191951Z 18006KT 7SM -RA BKN023 OVC033 07/04 A2982 RMK AO2 SLP095 P0004 T00670044,180,2013-02-19 19:51:00<br />
3:51 PM,45.0,42.1,90,29.75,7.0,South,10.4,-,0.02,Rain,Light Rain,METAR KEWR 192051Z 17009KT 7SM -RA BKN016 BKN026 OVC047 07/06 A2975 RMK AO2 SLP074 CIG 014V018 P0002 60011 T00720056 58054,170,2013-02-19 20:51:00<br />
4:51 PM,46.9,43.0,86,29.73,7.0,SSW,15.0,-,0.02,Rain,Light Rain,METAR KEWR 192151Z 20013KT 7SM -RA BKN015 OVC026 08/06 A2973 RMK AO2 SLP066 P0002 T00830061 $,200,2013-02-19 21:51:00<br />
5:13 PM,46.4,44.6,93,29.72,4.0,SSW,12.7,21.9,0.01,Rain,Light Rain,SPECI KEWR 192213Z 21011G19KT 4SM -RA BR BKN012 OVC020 08/07 A2972 RMK AO2 P0001 $,210,2013-02-19 22:13:00<br />
5:51 PM,46.0,44.1,93,29.72,5.0,SW,16.1,23.0,0.04,Rain,Light Rain,METAR KEWR 192251Z 23014G20KT 5SM -RA BR BKN012 OVC030 08/07 A2972 RMK AO2 SLP062 P0004 T00780067,230,2013-02-19 22:51:00<br />
7:22 PM,44.6,42.8,93,29.69,10.0,WSW,12.7,17.3,0.00,Rain,Light Rain,SPECI KEWR 200022Z 24011G15KT 10SM -RA FEW010 BKN017 OVC050 07/06 A2969 RMK AO2 RAB2353 P0000,240,2013-02-20 00:22:00<br />
7:37 PM,44.6,42.8,93,29.68,8.0,SW,16.1,-,0.00,Rain,Light Rain,SPECI KEWR 200037Z 23014KT 8SM -RA FEW010 BKN014 OVC020 07/06 A2968 RMK AO2 RAB2353 P0000,230,2013-02-20 00:37:00<br />
7:51 PM,45.0,43.0,93,29.69,8.0,WSW,18.4,-,0.00,Rain,Light Rain,METAR KEWR 200051Z 25016KT 8SM -RA FEW010 BKN014 OVC020 07/06 A2969 RMK AO2 RAB2353 SLP052 P0000 T00720061,250,2013-02-20 00:51:00<br />
8:25 PM,44.6,41.0,87,29.68,10.0,WSW,16.1,27.6,0.01,Rain,Light Rain,SPECI KEWR 200125Z 24014G24KT 10SM -RA FEW012 BKN046 OVC070 07/05 A2968 RMK AO2 P0001,240,2013-02-20 01:25:00<br />
8:51 PM,44.1,39.9,85,29.69,10.0,West,12.7,-,0.02,Rain,Light Rain,METAR KEWR 200151Z 26011KT 10SM -RA FEW012 BKN048 OVC070 07/04 A2969 RMK AO2 SLP053 P0002 T00670044,260,2013-02-20 01:51:00<br />
9:19 PM,44.6,39.2,81,29.70,10.0,West,15.0,-,0.00,,Overcast,SPECI KEWR 200219Z 26013KT 10SM FEW012 BKN026 OVC070 07/04 A2970 RMK AO2 RAE09 P0000,260,2013-02-20 02:19:00<br />
9:45 PM,42.8,35.6,76,29.70,10.0,West,13.8,-,0.00,,Overcast,SPECI KEWR 200245Z 28012KT 10SM FEW015 BKN036 OVC120 06/02 A2970 RMK AO2 RAE09 P0000,280,2013-02-20 02:45:00<br />
9:51 PM,42.1,34.0,73,29.70,10.0,West,15.0,-,0.00,,Overcast,METAR KEWR 200251Z 28013KT 10SM FEW015 BKN036 OVC120 06/01 A2970 RMK AO2 RAE09 SLP057 P0000 60002 T00560011 55000,280,2013-02-20 02:51:00<br />
10:51 PM,39.9,30.9,70,29.72,10.0,West,17.3,25.3,N/A,,Mostly Cloudy,METAR KEWR 200351Z 27015G22KT 10SM FEW015 SCT035 BKN150 04/M01 A2972 RMK AO2 SLP064 T00441006,270,2013-02-20 03:51:00<br />
11:51 PM,37.9,28.0,68,29.73,10.0,West,19.6,27.6,N/A,,Mostly Cloudy,METAR KEWR 200451Z 28017G24KT 10SM FEW020 SCT035 SCT045 BKN150 03/M02 A2973 RMK AO2 PK WND 26027/0411 SLP068 T00331022 401001011,280,2013-02-20 04:51:00<br />
