
TimeEDT,TemperatureF,Dew PointF,Humidity,Sea Level PressureIn,VisibilityMPH,Wind Direction,Wind SpeedMPH,Gust SpeedMPH,PrecipitationIn,Events,Conditions,FullMetar,WindDirDegrees,DateUTC<br />
12:51 AM,72.0,69.1,91,29.76,10.0,SSE,6.9,-,0.00,,Overcast,METAR KLGA 150451Z 15006KT 10SM FEW018 BKN047 OVC060 22/21 A2976 RMK AO2 RAB0355E07 SLP076 P0000 T02220206 402440194,150,2011-08-15 04:51:00<br />
1:51 AM,72.0,66.9,84,29.75,10.0,SE,5.8,-,N/A,,Overcast,METAR KLGA 150551Z 14005KT 10SM SCT030 BKN050 OVC080 22/19 A2974 RMK AO2 SLP072 60075 T02220194 10222 20211 58007,140,2011-08-15 05:51:00<br />
2:51 AM,71.1,66.9,87,29.72,10.0,ESE,4.6,-,0.00,,Mostly Cloudy,METAR KLGA 150651Z 12004KT 10SM FEW024 BKN046 BKN110 22/19 A2972 RMK AO2 RAB06E37 SLP063 P0000 T02170194,120,2011-08-15 06:51:00<br />
3:42 AM,71.6,66.2,83,29.72,10.0,East,3.5,-,N/A,,Overcast,SPECI KLGA 150742Z 09003KT 10SM BKN020 BKN048 OVC120 22/19 A2972 RMK AO2,90,2011-08-15 07:42:00<br />
3:51 AM,71.1,66.9,87,29.72,10.0,East,3.5,-,N/A,,Overcast,METAR KLGA 150751Z 09003KT 10SM BKN019 BKN032 OVC110 22/19 A2972 RMK AO2 SLP062 T02170194,90,2011-08-15 07:51:00<br />
4:27 AM,71.6,66.2,83,29.70,10.0,ESE,8.1,-,N/A,,Overcast,SPECI KLGA 150827Z 11007KT 10SM SCT020 BKN045 BKN065 OVC130 22/19 A2970 RMK AO2,110,2011-08-15 08:27:00<br />
4:51 AM,71.1,66.9,87,29.70,10.0,ESE,3.5,-,N/A,,Overcast,METAR KLGA 150851Z 12003KT 10SM FEW020 BKN060 BKN120 OVC170 22/19 A2970 RMK AO2 SLP057 60000 T02170194 56015,120,2011-08-15 08:51:00<br />
5:51 AM,70.0,66.0,87,29.71,10.0,ENE,5.8,-,N/A,,Overcast,METAR KLGA 150951Z 06005KT 10SM FEW020 SCT037 BKN065 OVC170 21/19 A2971 RMK AO2 SLP060 T02110189,60,2011-08-15 09:51:00<br />
6:51 AM,71.1,66.9,87,29.71,10.0,NE,8.1,-,N/A,,Overcast,METAR KLGA 151051Z 04007KT 10SM FEW025 BKN050 OVC200 22/19 A2971 RMK AO2 SLP060 T02170194,40,2011-08-15 10:51:00<br />
7:06 AM,71.6,66.2,83,29.71,10.0,ENE,8.1,-,N/A,,Overcast,SPECI KLGA 151106Z 06007KT 10SM SCT021 BKN028 OVC050 22/19 A2971 RMK AO2,60,2011-08-15 11:06:00<br />
7:14 AM,71.6,66.2,83,29.71,10.0,ENE,8.1,-,N/A,,Overcast,SPECI KLGA 151114Z 07007KT 10SM SCT021 OVC050 22/19 A2971 RMK AO2,70,2011-08-15 11:14:00<br />
7:51 AM,71.1,66.9,87,29.70,10.0,ENE,9.2,-,N/A,,Overcast,METAR KLGA 151151Z 06008KT 10SM FEW036 BKN047 OVC060 22/19 A2970 RMK AO2 SLP058 60000 70272 T02170194 10222 20211 50001,60,2011-08-15 11:51:00<br />
8:25 AM,71.6,66.2,83,29.70,10.0,ENE,9.2,-,N/A,,Overcast,SPECI KLGA 151225Z 07008KT 10SM BKN014 BKN019 OVC060 22/19 A2970 RMK AO2,70,2011-08-15 12:25:00<br />
8:51 AM,71.1,66.9,87,29.70,10.0,NE,9.2,-,N/A,,Overcast,METAR KLGA 151251Z 05008KT 10SM FEW014 BKN026 OVC031 22/19 A2970 RMK AO2 SLP056 T02170194,50,2011-08-15 12:51:00<br />
9:08 AM,71.6,66.2,83,29.70,10.0,NE,9.2,-,N/A,,Overcast,SPECI KLGA 151308Z 05008KT 10SM SCT028 BKN034 OVC041 22/19 A2970,50,2011-08-15 13:08:00<br />
9:51 AM,71.6,66.2,83,29.70,10.0,NE,10.4,-,N/A,,Overcast,METAR KLGA 151351Z 05009KT 10SM FEW046 OVC060 22/19 A2970,50,2011-08-15 13:51:00<br />
10:47 AM,71.6,66.2,83,29.69,10.0,NE,10.4,-,N/A,,Mostly Cloudy,SPECI KLGA 151447Z 04009KT 10SM BKN017 BKN060 22/19 A2969 RMK AO2,40,2011-08-15 14:47:00<br />
10:51 AM,72.0,66.9,84,29.69,10.0,NE,10.4,-,N/A,,Mostly Cloudy,METAR KLGA 151451Z 04009KT 10SM SCT015 BKN020 BKN060 22/19 A2969 RMK AO2 SLP054 T02220194 58002,40,2011-08-15 14:51:00<br />
11:21 AM,73.4,66.2,78,29.69,10.0,NE,6.9,-,N/A,,Mostly Cloudy,SPECI KLGA 151521Z 04006KT 10SM SCT017 BKN055 23/19 A2969 RMK AO2,40,2011-08-15 15:21:00<br />
11:51 AM,73.9,66.0,76,29.69,10.0,NE,6.9,-,N/A,,Overcast,METAR KLGA 151551Z 05006KT 10SM FEW021 OVC050 23/19 A2969 RMK AO2 SLP052 T02330189,50,2011-08-15 15:51:00<br />
12:51 PM,73.0,66.0,79,29.67,10.0,NE,11.5,-,N/A,,Mostly Cloudy,METAR KLGA 151651Z 05010KT 10SM FEW027 BKN055 23/19 A2967 RMK AO2 SLP047 T02280189,50,2011-08-15 16:51:00<br />
1:11 PM,73.4,66.2,78,29.66,10.0,NE,9.2,-,N/A,,Overcast,SPECI KLGA 151711Z 05008KT 10SM BKN027 OVC055 23/19 A2966,50,2011-08-15 17:11:00<br />
1:49 PM,73.4,66.2,78,29.65,10.0,NE,10.4,-,N/A,,Mostly Cloudy,SPECI KLGA 151749Z 05009KT 10SM SCT029 SCT036 BKN060 23/19 A2965 RMK AO2,50,2011-08-15 17:49:00<br />
1:51 PM,73.9,66.9,79,29.65,10.0,NE,9.2,-,N/A,,Mostly Cloudy,METAR KLGA 151751Z 05008KT 10SM FEW027 SCT036 BKN060 23/19 A2965 RMK AO2 SLP039 T02330194 10233 20217 56013,50,2011-08-15 17:51:00<br />
2:51 PM,75.2,66.2,73,29.64,10.0,ENE,9.2,-,N/A,,Mostly Cloudy,METAR KLGA 151851Z 06008KT 10SM SCT020 SCT035 BKN070 BKN140 24/19 A2964,60,2011-08-15 18:51:00<br />
3:51 PM,75.0,66.0,73,29.63,10.0,NE,9.2,-,N/A,,Mostly Cloudy,METAR KLGA 151951Z 05008KT 10SM SCT026CB SCT060 BKN070 BKN140 24/19 A2963 RMK AO2 SLP033 CB SW-NW MOV NE T02390189,50,2011-08-15 19:51:00<br />
4:51 PM,73.0,66.9,81,29.64,6.0,ENE,3.5,-,0.04,Rain,Light Rain,METAR KLGA 152051Z 06003KT 6SM -RA FEW010 SCT022CB BKN055 BKN140 23/19 A2963 RMK AO2 RAB38 SLP035 CB OHD-SW-NW MOV NE P0004 60004 T02280194 55005,60,2011-08-15 20:51:00<br />
4:55 PM,73.4,66.2,78,29.63,6.0,NNE,3.5,-,0.00,Rain-Thunderstorm,Light Thunderstorms and Rain,SPECI KLGA 152055Z 03003KT 6SM -TSRA FEW009 SCT019CB BKN055 BKN140 23/19 A2963 RMK AO2 TSB55 OCNL LTGIC SW-NW TS SW-NW MOV NE P0000,30,2011-08-15 20:55:00<br />
5:28 PM,73.4,66.2,78,29.63,10.0,Calm,Calm,-,0.00,,Mostly Cloudy,SPECI KLGA 152128Z 00000KT 10SM FEW009 SCT027 BKN100 BKN130 23/19 A2963 RMK AO2 TSB2055E27RAE27 CB DSNT S AND DSNT N MOV NE P0000,0,2011-08-15 21:28:00<br />
5:51 PM,75.0,64.9,71,29.63,10.0,NW,13.8,-,0.00,,Mostly Cloudy,METAR KLGA 152151Z 32012KT 10SM FEW009 SCT027 BKN085 BKN130 24/18 A2963 RMK AO2 TSB2055E27RAE27 SLP034 CB DSNT S AND DSNT N MOV NE P0000 T02390183,320,2011-08-15 21:51:00<br />
6:51 PM,73.0,64.0,73,29.64,10.0,NE,3.5,-,N/A,,Mostly Cloudy,METAR KLGA 152251Z 05003KT 10SM FEW010 SCT027 SCT085 BKN140 BKN250 23/18 A2964 RMK AO2 SLP037 T02280178,50,2011-08-15 22:51:00<br />
7:51 PM,72.0,63.0,73,29.66,10.0,NW,6.9,-,N/A,,Mostly Cloudy,METAR KLGA 152351Z 31006KT 10SM FEW020 SCT085 BKN140 BKN250 22/17 A2966 RMK AO2 SLP044 60004 T02220172 10244 20222 53009,310,2011-08-15 23:51:00<br />
8:51 PM,71.1,63.0,75,29.66,10.0,North,6.9,-,N/A,,Mostly Cloudy,METAR KLGA 160051Z 01006KT 10SM FEW020 SCT085 SCT140 BKN250 22/17 A2966 RMK AO2 SLP043 T02170172,10,2011-08-16 00:51:00<br />
9:51 PM,70.0,64.0,81,29.67,10.0,NNW,6.9,-,N/A,,Mostly Cloudy,METAR KLGA 160151Z 33006KT 10SM FEW025 SCT080 SCT140 BKN250 21/18 A2967 RMK AO2 SLP047 T02110178,330,2011-08-16 01:51:00<br />
10:51 PM,70.0,64.0,81,29.68,10.0,North,4.6,-,N/A,,Scattered Clouds,METAR KLGA 160251Z 36004KT 10SM FEW025 SCT140 SCT250 21/18 A2968 RMK AO2 SLP051 T02110178 53007,360,2011-08-16 02:51:00<br />
11:46 PM,69.8,64.4,83,29.69,10.0,NE,10.4,-,N/A,,Mostly Cloudy,SPECI KLGA 160346Z 05009KT 10SM BKN012 BKN020 21/18 A2969 RMK AO2,50,2011-08-16 03:46:00<br />
11:51 PM,69.1,64.0,84,29.69,10.0,NE,13.8,-,N/A,,Mostly Cloudy,METAR KLGA 160351Z 05012KT 10SM BKN012 BKN020 21/18 A2969 RMK AO2 SLP054 T02060178,50,2011-08-16 03:51:00<br />
