
TimeEST,TemperatureF,Dew PointF,Humidity,Sea Level PressureIn,VisibilityMPH,Wind Direction,Wind SpeedMPH,Gust SpeedMPH,PrecipitationIn,Events,Conditions,FullMetar,WindDirDegrees,DateUTC<br />
12:23 AM,46.4,39.2,76,29.97,6.0,SSE,6.9,-,N/A,,Haze,SPECI KLGA 020523Z 16006KT 6SM HZ OVC013 08/04 A2997 RMK AO2,160,2011-01-02 05:23:00<br />
12:51 AM,46.9,41.0,80,29.97,6.0,South,3.5,-,N/A,,Haze,METAR KLGA 020551Z 18003KT 6SM HZ OVC013 08/05 A2997 RMK AO2 SLP147 4/003 T00830050 10089 20072 58015,180,2011-01-02 05:51:00<br />
1:51 AM,46.0,41.0,83,29.95,3.0,South,4.6,-,N/A,,Haze,METAR KLGA 020651Z 17004KT 3SM HZ OVC011 08/05 A2995 RMK AO2 SLP142 T00780050,170,2011-01-02 06:51:00<br />
1:55 AM,44.6,42.8,93,29.95,3.0,South,4.6,-,N/A,,Overcast,SPECI KLGA 020655Z 17004KT 3SM BR OVC009 07/06 A2995 RMK AO2,170,2011-01-02 06:55:00<br />
2:10 AM,44.6,42.8,93,29.95,2.0,South,3.5,-,N/A,,Overcast,SPECI KLGA 020710Z COR 18003KT 2SM BR OVC007 07/06 A2995 RMK AO2 TWR VIS 2 1/2 CIG 006V010,180,2011-01-02 07:10:00<br />
2:45 AM,44.6,42.8,93,29.94,2.5,South,4.6,-,0.00,,Light Drizzle,SPECI KLGA 020745Z 17004KT 2 1/2SM -DZ BR OVC005 07/06 A2994 RMK AO2 RAB16E26DZB45 P0000,170,2011-01-02 07:45:00<br />
2:51 AM,45.0,41.0,86,29.94,2.5,South,5.8,-,0.00,,Light Drizzle,METAR KLGA 020751Z 17005KT 2 1/2SM -DZ BR OVC005 07/05 A2994 RMK AO2 RAB16E26DZB45 SLP139 P0000 T00720050,170,2011-01-02 07:51:00<br />
3:47 AM,44.6,41.0,87,29.92,0.2,SE,3.5,-,0.00,Fog,Light Drizzle,SPECI KLGA 020847Z 13003KT 1/4SM R04/3000V5000FT -DZ FG OVC002 07/05 A2992 RMK AO2 SFC VIS 1/2 P0000,130,2011-01-02 08:47:00<br />
3:51 AM,45.0,41.0,86,29.93,0.2,SE,3.5,-,0.00,Fog,Light Drizzle,METAR KLGA 020851Z 14003KT 1/4SM R04/3000VP6000FT -DZ FG OVC002 07/05 A2992 RMK AO2 SFC VIS 1/2 SLP133 P0000 60000 T00720050 58015,140,2011-01-02 08:51:00<br />
4:31 AM,44.6,42.8,93,29.94,0.2,Calm,Calm,-,0.00,Fog,Fog,SPECI KLGA 020931Z 00000KT 1/4SM R04/4500V5500FT FG VV001 07/06 A2994 RMK AO2 SFC VIS 1/2 DZE30 P0000,0,2011-01-02 09:31:00<br />
4:51 AM,46.0,43.0,89,29.93,0.2,Calm,Calm,-,0.00,Fog,Fog,METAR KLGA 020951Z 00000KT 1/4SM R04/3000V3500FT FG VV001 08/06 A2993 RMK AO2 SFC VIS 1/2 DZE30 SLP135 P0000 T00780061,0,2011-01-02 09:51:00<br />
5:51 AM,44.1,41.0,89,29.93,0.2,Calm,Calm,-,N/A,Fog,Fog,METAR KLGA 021051Z 00000KT 1/4SM R04/1600V2000FT FG VV001 07/05 A2993 RMK AO2 SLP135 T00670050,0,2011-01-02 10:51:00<br />
6:51 AM,45.0,42.1,90,29.94,0.2,North,3.5,-,N/A,Fog,Fog,METAR KLGA 021151Z 01003KT 1/4SM R04/1800VP6000FT FG VV001 07/06 A2994 RMK AO2 TWR VIS 1/2 SLP139 VIS S 3/4 4/002 60000 T00720056 10083 20061 53006,10,2011-01-02 11:51:00<br />
7:16 AM,44.6,42.8,93,29.96,0.5,Calm,Calm,-,N/A,Fog,Fog,SPECI KLGA 021216Z 00000KT 1/2SM R04/2200V5000FT FG BKN001 OVC002 07/06 A2996 RMK AO2 TWR VIS 3/4 VIS S 1,0,2011-01-02 12:16:00<br />
7:51 AM,45.0,42.1,90,29.96,0.5,Calm,Calm,-,N/A,Fog,Fog,METAR KLGA 021251Z 00000KT 1/2SM R04/3500VP6000FT FG BKN001 BKN002 OVC007 07/06 A2996 RMK AO2 SLP146 VIS N 1/4 T00720056,0,2011-01-02 12:51:00<br />
8:23 AM,46.4,44.6,93,29.95,1.0,Calm,Calm,-,0.00,Rain,Light Rain,SPECI KLGA 021323Z 00000KT 1SM R04/2400VP6000FT -RA BR SCT001 BKN002 BKN007 BKN130 08/07 A2995 RMK AO2 TWR VIS 2 RAB11 P0000,0,2011-01-02 13:23:00<br />
8:45 AM,46.4,44.6,93,29.97,3.0,Calm,Calm,-,0.00,Rain,Light Rain,SPECI KLGA 021345Z 00000KT 3SM R04/6000VP6000FT -RA BR FEW001 SCT002 BKN007 BKN130 08/07 A2997 RMK AO2 RAB11 VIS NE-E 1 1/2 P0000,0,2011-01-02 13:45:00<br />
8:51 AM,46.0,43.0,89,29.97,3.0,Calm,Calm,-,0.00,Rain,Light Rain,METAR KLGA 021351Z 00000KT 3SM R04/6000VP6000FT -RA BR FEW001 SCT002 BKN007 OVC130 08/06 A2997 RMK AO2 RAB11 SLP147 VIS N 1/4 NE-E 1 1/2 P0000 T00780061,0,2011-01-02 13:51:00<br />
9:13 AM,46.4,44.6,93,29.96,5.0,Calm,Calm,-,0.00,Rain,Light Rain,SPECI KLGA 021413Z 00000KT 5SM -RA BR FEW001 SCT007 OVC040 08/07 A2996 RMK AO2 P0000,0,2011-01-02 14:13:00<br />
9:51 AM,50.0,44.1,80,29.98,8.0,WNW,6.9,-,0.00,,Mostly Cloudy,METAR KLGA 021451Z 29006KT 8SM FEW010 BKN045 BKN080 BKN130 10/07 A2997 RMK AO2 RAE20 SLP150 P0000 60000 T01000067 51011,290,2011-01-02 14:51:00<br />
10:51 AM,52.0,43.0,71,29.97,8.0,WSW,6.9,-,N/A,,Mostly Cloudy,METAR KLGA 021551Z 25006KT 8SM FEW020 BKN050 BKN080 BKN130 11/06 A2997 RMK AO2 SLP148 T01110061,250,2011-01-02 15:51:00<br />
11:51 AM,52.0,42.1,69,29.96,10.0,West,9.2,-,N/A,,Mostly Cloudy,METAR KLGA 021651Z 27008KT 10SM FEW022 BKN060 BKN090 BKN130 11/06 A2995 RMK AO2 SLP143 T01110056,270,2011-01-02 16:51:00<br />
12:51 PM,51.1,41.0,68,29.91,10.0,NW,6.9,-,0.00,,Mostly Cloudy,METAR KLGA 021751Z 32006KT 10SM FEW022 BKN070 BKN090 BKN130 11/05 A2990 RMK AO2 RAB1652E45 SLP126 4/002 933004 P0000 60000 T01060050 10117 20067 58024,320,2011-01-02 17:51:00<br />
1:51 PM,51.1,37.0,59,29.90,10.0,NW,6.9,-,N/A,,Mostly Cloudy,METAR KLGA 021851Z 32006KT 10SM FEW032 BKN065 BKN080 BKN130 11/03 A2990 RMK AO2 SLP125 VCSH W-NW T01060028,320,2011-01-02 18:51:00<br />
2:51 PM,51.1,33.1,50,29.88,10.0,North,4.6,-,0.00,,Overcast,METAR KLGA 021951Z 01004KT 10SM FEW032 BKN065 BKN085 OVC130 11/01 A2988 RMK AO2 RAB06E31 SLP119 P0000 T01060006,10,2011-01-02 19:51:00<br />
3:51 PM,50.0,32.0,50,29.89,10.0,NNW,4.6,-,0.00,Rain,Light Rain,METAR KLGA 022051Z 33004KT 10SM -RA SCT032 BKN065 OVC090 10/00 A2989 RMK AO2 RAB50 SLP121 P0000 60000 T01000000 55005,330,2011-01-02 20:51:00<br />
4:51 PM,48.0,35.1,61,29.86,10.0,Calm,Calm,-,0.00,Rain,Light Rain,METAR KLGA 022151Z 00000KT 10SM -RA SCT025 BKN065 BKN090 OVC130 09/02 A2986 RMK AO2 SLP110 P0000 T00890017,0,2011-01-02 21:51:00<br />
5:51 PM,50.0,37.9,63,29.88,10.0,SSW,5.8,-,0.00,Rain,Light Rain,METAR KLGA 022251Z 21005KT 10SM -RA SCT033 BKN050 OVC090 10/03 A2988 RMK AO2 RAE2153B47 SLP119 P0000 T01000033,210,2011-01-02 22:51:00<br />
6:51 PM,48.9,30.9,50,29.89,10.0,WSW,10.4,18.4,0.00,Rain,Light Rain,METAR KLGA 022351Z 25009G16KT 10SM -RA SCT033 BKN060 BKN090 OVC130 09/M01 A2989 RMK AO2 SLP121 4/001 P0000 60000 T00941006 10111 20078 55000,250,2011-01-02 23:51:00<br />
7:51 PM,46.4,28.4,50,29.90,10.0,West,10.4,-,N/A,,Mostly Cloudy,METAR KLGA 030051Z 28009KT 10SM FEW033 BKN050 BKN090 BKN130 08/M02 A2990,280,2011-01-03 00:51:00<br />
8:51 PM,45.0,34.0,65,29.91,10.0,North,12.7,-,N/A,,Mostly Cloudy,METAR KLGA 030151Z 35011KT 10SM FEW033 SCT060 BKN090 BKN130 07/01 A2990 RMK AO2 WSHFT 0136 SLP126 T00720011,350,2011-01-03 01:51:00<br />
8:55 PM,44.6,33.8,66,29.90,10.0,North,12.7,-,N/A,,Mostly Cloudy,SPECI KLGA 030155Z 36011KT 10SM FEW033 SCT060 BKN090 BKN130 07/01 A2990 RMK AO2 WSHFT 0138,360,2011-01-03 01:55:00<br />
9:51 PM,42.1,30.9,65,29.93,10.0,North,15.0,-,N/A,,Overcast,METAR KLGA 030251Z 35013KT 10SM BKN035 BKN050 OVC090 06/M01 A2993 RMK AO2 WSHFT 0138 SLP134 60000 T00561006 53013,350,2011-01-03 02:51:00<br />
10:51 PM,39.9,25.0,55,29.95,10.0,NW,19.6,27.6,N/A,,Scattered Clouds,METAR KLGA 030351Z 31017G24KT 10SM FEW029 SCT037 04/M04 A2995 RMK AO2 SLP142 T00441039,310,2011-01-03 03:51:00<br />
11:51 PM,37.9,21.9,53,29.96,10.0,NW,18.4,33.4,N/A,,Partly Cloudy,METAR KLGA 030451Z 31016G29KT 10SM FEW037 03/M06 A2996 RMK AO2 PK WND 31029/0443 SLP144 T00331056 401170033,310,2011-01-03 04:51:00<br />
