
TimeEDT,TemperatureF,Dew PointF,Humidity,Sea Level PressureIn,VisibilityMPH,Wind Direction,Wind SpeedMPH,Gust SpeedMPH,PrecipitationIn,Events,Conditions,FullMetar,WindDirDegrees,DateUTC<br />
12:51 AM,68.0,53.1,59,30.00,10.0,SW,4.6,-,N/A,,Partly Cloudy,METAR KEWR 160451Z 23004KT 10SM FEW250 20/12 A3000 RMK AO2 SLP159 T02000117 402670150,230,2012-04-16 04:51:00<br />
1:51 AM,66.9,53.1,61,29.99,10.0,SSW,5.8,-,N/A,,Scattered Clouds,METAR KEWR 160551Z 21005KT 10SM SCT250 19/12 A2999 RMK AO2 SLP154 T01940117 10244 20189 58008,210,2012-04-16 05:51:00<br />
2:51 AM,66.0,53.1,63,29.98,10.0,South,3.5,-,N/A,,Scattered Clouds,METAR KEWR 160651Z 19003KT 10SM SCT250 19/12 A2998 RMK AO2 SLP151 T01890117,190,2012-04-16 06:51:00<br />
3:51 AM,64.9,53.1,65,29.98,10.0,SW,3.5,-,N/A,,Scattered Clouds,METAR KEWR 160751Z 22003KT 10SM SCT250 18/12 A2998 RMK AO2 SLP152 T01830117,220,2012-04-16 07:51:00<br />
4:51 AM,64.0,53.1,67,29.98,10.0,SW,4.6,-,N/A,,Scattered Clouds,METAR KEWR 160851Z 23004KT 10SM SCT250 18/12 A2998 RMK AO2 SLP152 T01780117 55001,230,2012-04-16 08:51:00<br />
5:51 AM,63.0,53.1,70,29.99,10.0,SW,5.8,-,N/A,,Mostly Cloudy,METAR KEWR 160951Z 23005KT 10SM BKN250 17/12 A2999 RMK AO2 SLP155 T01720117,230,2012-04-16 09:51:00<br />
6:51 AM,62.1,54.0,75,30.00,8.0,SW,6.9,-,N/A,,Mostly Cloudy,METAR KEWR 161051Z 22006KT 8SM BKN250 17/12 A3000 RMK AO2 SLP159 T01670122 $,220,2012-04-16 10:51:00<br />
7:51 AM,66.9,55.0,66,30.02,8.0,SW,10.4,-,N/A,,Mostly Cloudy,METAR KEWR 161151Z 23009KT 8SM BKN250 19/13 A3002 RMK AO2 SLP164 T01940128 10206 20161 53012 $,230,2012-04-16 11:51:00<br />
8:51 AM,70.0,55.0,59,30.02,8.0,SW,11.5,-,N/A,,Mostly Cloudy,METAR KEWR 161251Z 23010KT 8SM BKN250 21/13 A3002 RMK AO2 SLP164 T02110128 $,230,2012-04-16 12:51:00<br />
9:51 AM,75.0,55.0,50,30.02,9.0,Variable,6.9,-,N/A,,Mostly Cloudy,METAR KEWR 161351Z VRB06KT 9SM BKN250 24/13 A3002 RMK AO2 SLP165 HAZE ALOFT VIS LWR NE-SE T02390128,0,2012-04-16 13:51:00<br />
10:51 AM,79.0,55.9,45,30.01,9.0,SSW,3.5,-,N/A,,Mostly Cloudy,METAR KEWR 161451Z 20003KT 9SM BKN250 26/13 A3001 RMK AO2 SLP163 HAZE ALOFT VIS LWR NE-SE T02610133 58001,200,2012-04-16 14:51:00<br />
11:51 AM,84.0,54.0,35,29.99,9.0,South,4.6,-,N/A,,Mostly Cloudy,METAR KEWR 161551Z 19004KT 9SM BKN250 29/12 A2999 RMK AO2 SLP156 HAZE ALOFT VIS LWR NE-SE T02890122 $,190,2012-04-16 15:51:00<br />
12:51 PM,86.0,54.0,33,29.97,10.0,South,3.5,-,N/A,,Mostly Cloudy,METAR KEWR 161651Z 19003KT 10SM BKN270 30/12 A2997 RMK AO2 SLP148 T03000122,190,2012-04-16 16:51:00<br />
1:51 PM,87.1,55.0,33,29.95,10.0,SE,11.5,-,N/A,,Mostly Cloudy,METAR KEWR 161751Z 14010KT 10SM BKN270 31/13 A2995 RMK AO2 SLP140 T03060128 10311 20194 58023,140,2012-04-16 17:51:00<br />
2:51 PM,87.1,54.0,32,29.93,10.0,SE,11.5,-,N/A,,Mostly Cloudy,METAR KEWR 161851Z 14010KT 10SM BKN270 31/12 A2993 RMK AO2 SLP134 T03060122,140,2012-04-16 18:51:00<br />
3:51 PM,82.0,55.0,39,29.92,10.0,SE,13.8,21.9,N/A,,Mostly Cloudy,METAR KEWR 161951Z 13012G19KT 10SM BKN270 28/13 A2992 RMK AO2 SLP130 T02780128,130,2012-04-16 19:51:00<br />
4:51 PM,81.0,53.1,38,29.91,10.0,SE,10.4,18.4,N/A,,Mostly Cloudy,METAR KEWR 162051Z 13009G16KT 10SM BKN270 27/12 A2990 RMK AO2 SLP126 T02720117 56015,130,2012-04-16 20:51:00<br />
5:51 PM,82.9,51.1,33,29.90,10.0,SSE,9.2,-,N/A,,Mostly Cloudy,METAR KEWR 162151Z 15008KT 10SM BKN270 28/11 A2990 RMK AO2 SLP123 T02830106,150,2012-04-16 21:51:00<br />
6:51 PM,78.1,53.1,42,29.89,10.0,ENE,3.5,-,N/A,,Scattered Clouds,METAR KEWR 162251Z 07003KT 10SM SCT270 26/12 A2989 RMK AO2 SLP120 T02560117,70,2012-04-16 22:51:00<br />
7:51 PM,81.0,52.0,36,29.89,10.0,SSE,6.9,-,N/A,,Partly Cloudy,METAR KEWR 162351Z 16006KT 10SM FEW270 27/11 A2989 RMK AO2 SLP122 T02720111 10311 20250 55004,160,2012-04-16 23:51:00<br />
8:51 PM,80.1,52.0,38,29.91,10.0,South,6.9,-,N/A,,Partly Cloudy,METAR KEWR 170051Z 17006KT 10SM FEW270 27/11 A2990 RMK AO2 SLP126 T02670111,170,2012-04-17 00:51:00<br />
9:51 PM,78.1,55.0,45,29.92,10.0,South,8.1,-,N/A,,Partly Cloudy,METAR KEWR 170151Z 18007KT 10SM FEW270 26/13 A2992 RMK AO2 SLP131 T02560128,180,2012-04-17 01:51:00<br />
10:51 PM,75.2,57.2,53,29.91,10.0,South,9.2,-,N/A,,Partly Cloudy,METAR KEWR 170251Z 19008KT 10SM FEW270 24/14 A2991,190,2012-04-17 02:51:00<br />
11:51 PM,75.0,57.0,53,29.92,10.0,SSW,10.4,-,N/A,,Clear,METAR KEWR 170351Z 20009KT 10SM CLR 24/14 A2992 RMK AO2 SLP131 T02390139,200,2012-04-17 03:51:00<br />
