
TimeEDT,TemperatureF,Dew PointF,Humidity,Sea Level PressureIn,VisibilityMPH,Wind Direction,Wind SpeedMPH,Gust SpeedMPH,PrecipitationIn,Events,Conditions,FullMetar,WindDirDegrees,DateUTC<br />
12:51 AM,55.0,46.9,74,29.84,10.0,WSW,6.9,-,N/A,,Clear,METAR KEWR 010451Z 24006KT 10SM CLR 13/08 A2984 RMK AO2 SLP103 T01280083 402110128 $,240,2012-10-01 04:51:00<br />
1:51 AM,53.1,48.0,83,29.85,10.0,SW,8.1,-,N/A,,Clear,METAR KEWR 010551Z 23007KT 10SM CLR 12/09 A2984 RMK AO2 SLP106 T01170089 10161 20117 52003 $,230,2012-10-01 05:51:00<br />
2:51 AM,53.1,46.9,80,29.84,10.0,West,8.1,-,N/A,,Clear,METAR KEWR 010651Z 27007KT 10SM CLR 12/08 A2984 RMK AO2 SLP103 T01170083 $,270,2012-10-01 06:51:00<br />
3:51 AM,51.1,46.0,83,29.84,10.0,SSW,5.8,-,N/A,,Clear,METAR KEWR 010751Z 21005KT 10SM CLR 11/08 A2984 RMK AO2 SLP103 T01060078 $,210,2012-10-01 07:51:00<br />
4:51 AM,51.1,48.0,89,29.85,10.0,WSW,8.1,-,N/A,,Clear,METAR KEWR 010851Z 25007KT 10SM CLR 11/09 A2985 RMK AO2 SLP106 T01060089 55000 $,250,2012-10-01 08:51:00<br />
5:51 AM,51.1,48.0,89,29.85,10.0,WSW,11.5,-,N/A,,Clear,METAR KEWR 010951Z 25010KT 10SM CLR 11/09 A2985 RMK AO2 SLP108 T01060089 $,250,2012-10-01 09:51:00<br />
6:51 AM,51.1,46.9,86,29.86,10.0,WSW,11.5,-,N/A,,Partly Cloudy,METAR KEWR 011051Z 25010KT 10SM FEW250 11/08 A2986 RMK AO2 SLP111 T01060083 $,250,2012-10-01 10:51:00<br />
7:51 AM,53.1,46.9,80,29.87,10.0,WSW,10.4,-,N/A,,Partly Cloudy,METAR KEWR 011151Z 25009KT 10SM FEW250 12/08 A2987 RMK AO2 SLP115 70001 T01170083 10122 20100 53009 $,250,2012-10-01 11:51:00<br />
8:51 AM,57.0,46.9,69,29.88,10.0,WSW,12.7,-,N/A,,Partly Cloudy,METAR KEWR 011251Z 24011KT 10SM FEW250 14/08 A2989 RMK AO2 SLP119 T01390083 $,240,2012-10-01 12:51:00<br />
9:51 AM,62.1,46.9,58,29.90,10.0,West,12.7,-,N/A,,Scattered Clouds,METAR KEWR 011351Z 26011KT 10SM FEW030 SCT250 17/08 A2989 RMK AO2 SLP123 T01670083,260,2012-10-01 13:51:00<br />
10:51 AM,64.9,46.9,52,29.89,10.0,West,13.8,-,N/A,,Scattered Clouds,METAR KEWR 011451Z 26012KT 10SM FEW035 SCT250 18/08 A2989 RMK AO2 SLP122 T01830083 50007,260,2012-10-01 14:51:00<br />
11:51 AM,68.0,46.9,47,29.89,10.0,WNW,9.2,21.9,N/A,,Scattered Clouds,METAR KEWR 011551Z 29008G19KT 10SM FEW045 SCT250 20/08 A2989 RMK AO2 SLP122 T02000083,290,2012-10-01 15:51:00<br />
12:51 PM,69.1,46.9,45,29.88,10.0,West,13.8,19.6,N/A,,Scattered Clouds,METAR KEWR 011651Z 27012G17KT 10SM FEW050 SCT250 21/08 A2988 RMK AO2 SLP119 T02060083,270,2012-10-01 16:51:00<br />
1:51 PM,72.0,48.0,43,29.87,10.0,West,16.1,21.9,N/A,,Scattered Clouds,METAR KEWR 011751Z 27014G19KT 10SM FEW045 SCT250 22/09 A2987 RMK AO2 SLP115 T02220089 10222 20117 58007,270,2012-10-01 17:51:00<br />
2:51 PM,73.0,48.0,41,29.87,10.0,WNW,10.4,19.6,N/A,,Scattered Clouds,METAR KEWR 011851Z 29009G17KT 10SM FEW050 SCT250 23/09 A2987 RMK AO2 SLP115 T02280089,290,2012-10-01 18:51:00<br />
3:51 PM,72.0,48.0,43,29.87,10.0,WSW,11.5,-,N/A,,Scattered Clouds,METAR KEWR 011951Z 24010KT 10SM FEW050 SCT250 22/09 A2987 RMK AO2 SLP113 T02220089,240,2012-10-01 19:51:00<br />
4:51 PM,71.1,46.9,42,29.89,10.0,WSW,12.7,-,N/A,,Scattered Clouds,METAR KEWR 012051Z 25011KT 10SM FEW050 SCT250 22/08 A2989 RMK AO2 SLP121 T02170083 53006,250,2012-10-01 20:51:00<br />
5:51 PM,69.8,46.4,43,29.90,10.0,WSW,12.7,-,N/A,,Scattered Clouds,METAR KEWR 012151Z 25011KT 10SM FEW050 SCT250 21/08 A2990,250,2012-10-01 21:51:00<br />
6:51 PM,68.0,48.0,49,29.92,10.0,WSW,9.2,-,N/A,,Scattered Clouds,METAR KEWR 012251Z 24008KT 10SM FEW050 SCT100 SCT250 20/09 A2992 RMK AO2 SLP130 T02000089,240,2012-10-01 22:51:00<br />
7:51 PM,68.0,48.9,50,29.94,10.0,SW,9.2,-,N/A,,Mostly Cloudy,METAR KEWR 012351Z 22008KT 10SM SCT100 BKN200 BKN250 20/09 A2994 RMK AO2 SLP139 T02000094 10228 20194 53018,220,2012-10-01 23:51:00<br />
8:51 PM,66.0,48.9,54,29.96,10.0,WSW,6.9,-,N/A,,Mostly Cloudy,METAR KEWR 020051Z 24006KT 10SM FEW100 SCT200 BKN250 19/09 A2996 RMK AO2 SLP144 T01890094,240,2012-10-02 00:51:00<br />
9:51 PM,64.9,48.9,56,29.97,10.0,WSW,4.6,-,N/A,,Mostly Cloudy,METAR KEWR 020151Z 25004KT 10SM SCT100 BKN200 18/09 A2997 RMK AO2 SLP147 T01830094,250,2012-10-02 01:51:00<br />
10:51 PM,64.0,48.9,58,29.96,10.0,Calm,Calm,-,N/A,,Overcast,METAR KEWR 020251Z 00000KT 10SM SCT100 BKN150 OVC250 18/09 A2996 RMK AO2 SLP146 T01780094 50007,0,2012-10-02 02:51:00<br />
11:51 PM,64.0,50.0,60,29.96,10.0,Calm,Calm,-,N/A,,Overcast,METAR KEWR 020351Z 00000KT 10SM BKN120 OVC250 18/10 A2996 RMK AO2 SLP146 T01780100,0,2012-10-02 03:51:00<br />
