
TimeEST,TemperatureF,Dew PointF,Humidity,Sea Level PressureIn,VisibilityMPH,Wind Direction,Wind SpeedMPH,Gust SpeedMPH,PrecipitationIn,Events,Conditions,FullMetar,WindDirDegrees,DateUTC<br />
12:51 AM,61.0,57.9,90,30.16,10.0,South,5.8,-,N/A,,Mostly Cloudy,METAR KEWR 130551Z 18005KT 10SM FEW013 SCT075 BKN100 BKN200 16/14 A3016 RMK AO2 SLP212 T01610144 10167 20156 58022 $,180,2012-11-13 05:51:00<br />
1:47 AM,60.8,57.2,88,30.15,10.0,South,5.8,-,N/A,,Overcast,SPECI KEWR 130647Z 17005KT 10SM FEW007 BKN050 BKN070 OVC200 16/14 A3015 RMK AO2 $,170,2012-11-13 06:47:00<br />
1:51 AM,62.6,57.2,82,30.14,10.0,South,4.6,-,N/A,,Overcast,METAR KEWR 130651Z 17004KT 10SM FEW007 BKN050 BKN070 OVC200 17/14 A3014,170,2012-11-13 06:51:00<br />
2:51 AM,62.1,57.9,86,30.14,10.0,South,6.9,-,N/A,,Overcast,METAR KEWR 130751Z 19006KT 10SM FEW007 BKN050 BKN090 OVC130 17/14 A3013 RMK AO2 SLP204 T01670144 $,190,2012-11-13 07:51:00<br />
3:43 AM,62.6,59.0,88,30.12,10.0,SSW,6.9,-,N/A,,Overcast,SPECI KEWR 130843Z 21006KT 10SM FEW007 BKN020 BKN080 OVC200 17/15 A3012 RMK AO2 $,210,2012-11-13 08:43:00<br />
3:51 AM,62.1,59.0,90,30.12,10.0,SW,8.1,-,N/A,,Overcast,METAR KEWR 130851Z 22007KT 10SM FEW007 BKN020 BKN080 OVC130 17/15 A3012 RMK AO2 SLP200 T01670150 56013 $,220,2012-11-13 08:51:00<br />
4:06 AM,55.4,48.2,77,30.15,10.0,NW,20.7,34.5,0.00,Rain,Light Rain,SPECI KEWR 130906Z 31018G30KT 10SM -RA OVC014 13/09 A3015 RMK AO2 PK WND 31030/0858 RAB00 PRESRR P0000 $,310,2012-11-13 09:06:00<br />
4:14 AM,53.6,48.2,82,30.16,10.0,NW,21.9,27.6,0.01,Rain,Light Rain,SPECI KEWR 130914Z 32019G24KT 10SM -RA OVC014 12/09 A3016 RMK AO2 PK WND 31030/0858 WSHFT 0854 RAB00 P0001 $,320,2012-11-13 09:14:00<br />
4:23 AM,51.8,48.2,88,30.17,10.0,NW,18.4,28.8,0.02,Rain,Light Rain,SPECI KEWR 130923Z 32016G25KT 10SM -RA OVC020 11/09 A3017 RMK AO2 PK WND 31030/0858 WSHFT 0854 RAB00 P0002 $,320,2012-11-13 09:23:00<br />
4:47 AM,51.8,48.2,88,30.18,10.0,NNW,12.7,20.7,0.02,Rain,Light Rain,SPECI KEWR 130947Z 33011G18KT 10SM -RA FEW006 BKN024 OVC032 11/09 A3018 RMK AO2 PK WND 31030/0858 WSHFT 0854 RAB00 P0002 $,330,2012-11-13 09:47:00<br />
4:51 AM,52.0,48.0,86,30.18,10.0,NNW,12.7,20.7,0.02,Rain,Light Rain,METAR KEWR 130951Z 34011G18KT 10SM -RA FEW006 BKN024 OVC032 11/09 A3018 RMK AO2 PK WND 31030/0858 WSHFT 0854 RAB00 SLP219 P0002 T01110089 $,340,2012-11-13 09:51:00<br />
5:16 AM,51.8,46.4,82,30.19,10.0,NNW,10.4,-,0.01,,Overcast,SPECI KEWR 131016Z 34009KT 10SM FEW009 OVC031 11/08 A3019 RMK AO2 RAE08 P0001 $,340,2012-11-13 10:16:00<br />
5:51 AM,52.0,46.0,80,30.21,10.0,NW,11.5,-,0.01,Rain,Light Rain,METAR KEWR 131051Z 31010KT 10SM -RA FEW009 OVC033 11/08 A3021 RMK AO2 RAE08B43 SLP228 P0001 T01110078 $,310,2012-11-13 10:51:00<br />
6:42 AM,50.0,46.4,87,30.23,7.0,NW,10.4,-,0.00,Rain,Light Rain,SPECI KEWR 131142Z 32009KT 7SM -RA FEW009 BKN023 OVC036 10/08 A3023 RMK AO2 BKN023 V SCT P0000 $,320,2012-11-13 11:42:00<br />
6:51 AM,50.0,46.0,86,30.24,7.0,NW,10.4,-,0.00,Rain,Light Rain,METAR KEWR 131151Z 31009KT 7SM -RA FEW009 BKN023 OVC036 10/08 A3024 RMK AO2 SLP239 BKN023 V SCT P0000 60003 70003 T01000078 10167 20100 51040 $,310,2012-11-13 11:51:00<br />
7:10 AM,50.0,46.4,87,30.26,9.0,NW,8.1,-,0.00,Rain,Light Rain,SPECI KEWR 131210Z 32007KT 9SM -RA FEW009 BKN014 OVC038 10/08 A3026 RMK AO2 PRESRR CIG 012V016 P0000 $,320,2012-11-13 12:10:00<br />
7:51 AM,50.0,45.0,83,30.30,6.0,NNW,15.0,-,0.00,Rain,Light Rain,METAR KEWR 131251Z 33013KT 6SM -RA SCT009 BKN014 OVC045 10/07 A3030 RMK AO2 SLP260 P0000 T01000072 $,330,2012-11-13 12:51:00<br />
8:08 AM,48.2,44.6,87,30.29,5.0,NNW,15.0,-,0.01,Rain,Light Rain,SPECI KEWR 131308Z 34013KT 5SM -RA BR FEW009 SCT014 OVC048 09/07 A3029 RMK AO2 SCT V BKN P0001 $,340,2012-11-13 13:08:00<br />
8:32 AM,48.2,42.8,82,30.30,7.0,NNW,16.1,21.9,0.01,Rain,Light Rain,SPECI KEWR 131332Z 33014G19KT 7SM -RA SCT008 BKN013 OVC055 09/06 A3030 RMK AO2 BKN013 V SCT P0001 $,330,2012-11-13 13:32:00<br />
8:51 AM,48.0,44.1,86,30.29,6.0,NNW,10.4,-,0.01,Rain,Light Rain,METAR KEWR 131351Z 34009KT 6SM -RA BR SCT008 BKN013 OVC060 09/07 A3029 RMK AO2 SLP256 BKN013 V SCT P0001 T00890067 $,340,2012-11-13 13:51:00<br />
9:51 AM,46.9,43.0,86,30.29,8.0,NW,10.4,-,0.02,Rain,Light Rain,METAR KEWR 131451Z 32009KT 8SM -RA FEW008 BKN012 OVC065 08/06 A3029 RMK AO2 SLP257 BKN V SCT P0002 60003 T00830061 51018,320,2012-11-13 14:51:00<br />
10:28 AM,46.4,42.8,87,30.31,9.0,NW,13.8,-,0.01,Rain,Light Rain,SPECI KEWR 131528Z 31012KT 9SM -RA FEW008 BKN015 OVC070 08/06 A3031 RMK AO2 CIG 013V017 P0001,310,2012-11-13 15:28:00<br />
10:51 AM,46.0,42.1,86,30.32,9.0,WNW,12.7,-,0.01,Rain,Light Rain,METAR KEWR 131551Z 29011KT 9SM -RA SCT011 BKN021 OVC075 08/06 A3032 RMK AO2 SLP265 CIG 018V023 SCT V BKN P0001 T00780056,290,2012-11-13 15:51:00<br />
11:43 AM,46.4,37.4,71,30.31,8.0,NNW,10.4,21.9,0.00,,Overcast,SPECI KEWR 131643Z 33009G19KT 8SM FEW010 OVC080 08/03 A3031 RMK AO2 RAE24 P0000,330,2012-11-13 16:43:00<br />
11:51 AM,46.0,37.9,73,30.30,10.0,NW,15.0,23.0,0.00,,Overcast,METAR KEWR 131651Z 32013G20KT 10SM FEW010 OVC080 08/03 A3030 RMK AO2 RAE24 SLP261 P0000 T00780033,320,2012-11-13 16:51:00<br />
12:51 PM,46.0,36.0,68,30.31,9.0,NW,11.5,-,0.00,Rain,Light Rain,METAR KEWR 131751Z 31010KT 9SM -RA FEW010 OVC090 08/02 A3031 RMK AO2 RAB00E19B47 SLP262 P0000 60004 T00780022 10100 20078 51005,310,2012-11-13 17:51:00<br />
1:51 PM,46.9,37.9,71,30.32,10.0,NNW,12.7,26.5,0.00,Rain,Light Rain,METAR KEWR 131851Z 33011G23KT 10SM -RA FEW025 OVC100 08/03 A3032 RMK AO2 SLP265 P0000 T00830033,330,2012-11-13 18:51:00<br />
2:51 PM,46.9,36.0,66,30.32,10.0,NNW,10.4,-,0.00,,Mostly Cloudy,METAR KEWR 131951Z 33009KT 10SM FEW030 BKN160 08/02 A3032 RMK AO2 RAE1853 SLP267 P0000 T00830022,330,2012-11-13 19:51:00<br />
3:51 PM,46.9,34.0,61,30.33,10.0,NW,12.7,20.7,N/A,,Mostly Cloudy,METAR KEWR 132051Z 32011G18KT 10SM SCT035 BKN160 08/01 A3033 RMK AO2 SLP270 60000 T00830011 51008,320,2012-11-13 20:51:00<br />
4:51 PM,46.0,32.0,58,30.35,10.0,NW,13.8,-,N/A,,Scattered Clouds,METAR KEWR 132151Z 32012KT 10SM SCT037 SCT150 08/00 A3035 RMK AO2 SLP275 T00780000,320,2012-11-13 21:51:00<br />
5:51 PM,44.6,30.2,57,30.37,10.0,NNW,11.5,-,N/A,,Scattered Clouds,METAR KEWR 132251Z 33010KT 10SM SCT037 SCT150 07/M01 A3037,330,2012-11-13 22:51:00<br />
6:51 PM,45.0,28.9,53,30.40,10.0,NNW,12.7,24.2,N/A,,Mostly Cloudy,METAR KEWR 132351Z 33011G21KT 10SM BKN040 BKN140 07/M02 A3040 RMK AO2 SLP294 60000 T00721017 10089 20072 53023,330,2012-11-13 23:51:00<br />
7:51 PM,44.1,28.9,55,30.41,10.0,NNW,11.5,19.6,N/A,,Mostly Cloudy,METAR KEWR 140051Z 33010G17KT 10SM BKN042 07/M02 A3041 RMK AO2 SLP296 T00671017,330,2012-11-14 00:51:00<br />
8:51 PM,43.0,28.0,56,30.43,10.0,NNW,11.5,19.6,N/A,,Mostly Cloudy,METAR KEWR 140151Z 33010G17KT 10SM BKN042 06/M02 A3044 RMK AO2 SLP305 T00611022,330,2012-11-14 01:51:00<br />
9:51 PM,41.0,28.9,62,30.44,10.0,NNW,11.5,-,N/A,,Scattered Clouds,METAR KEWR 140251Z 34010KT 10SM SCT044 05/M02 A3044 RMK AO2 SLP307 T00501017 51014,340,2012-11-14 02:51:00<br />
10:51 PM,41.0,28.9,62,30.45,10.0,NNW,10.4,-,N/A,,Partly Cloudy,METAR KEWR 140351Z 34009KT 10SM FEW044 05/M02 A3045 RMK AO2 SLP309 T00501017,340,2012-11-14 03:51:00<br />
11:51 PM,41.0,28.0,60,30.45,10.0,North,10.4,-,N/A,,Mostly Cloudy,METAR KEWR 140451Z 35009KT 10SM BKN038 05/M02 A3045 RMK AO2 SLP311 T00501022 401670044,350,2012-11-14 04:51:00<br />
