
TimeEST,TemperatureF,Dew PointF,Humidity,Sea Level PressureIn,VisibilityMPH,Wind Direction,Wind SpeedMPH,Gust SpeedMPH,PrecipitationIn,Events,Conditions,FullMetar,WindDirDegrees,DateUTC<br />
12:51 AM,41.0,36.0,82,30.07,10.0,Calm,Calm,-,0.00,,Overcast,METAR KEWR 150551Z 00000KT 10SM OVC055 05/02 A3007 RMK AO2 RAB0459E28 SLP181 P0000 60001 T00500022 10072 20044 57003,0,2012-02-15 05:51:00<br />
1:51 AM,39.9,36.0,86,30.07,10.0,NE,3.5,-,N/A,,Overcast,METAR KEWR 150651Z 04003KT 10SM SCT060 OVC080 04/02 A3007 RMK AO2 SLP181 T00440022,40,2012-02-15 06:51:00<br />
2:51 AM,39.9,36.0,86,30.07,10.0,Calm,Calm,-,N/A,,Overcast,METAR KEWR 150751Z 00000KT 10SM SCT055 OVC080 04/02 A3007 RMK AO2 SLP181 T00440022,0,2012-02-15 07:51:00<br />
3:51 AM,41.0,37.0,86,30.08,9.0,NE,3.5,-,N/A,,Overcast,METAR KEWR 150851Z 04003KT 9SM OVC070 05/03 A3008 RMK AO2 SLP184 T00500028 53004,40,2012-02-15 08:51:00<br />
4:51 AM,39.9,36.0,86,30.09,9.0,NNE,5.8,-,0.00,,Overcast,METAR KEWR 150951Z 03005KT 9SM SCT075 OVC090 04/02 A3009 RMK AO2 RAB05E28 SLP189 P0000 T00440022,30,2012-02-15 09:51:00<br />
5:51 AM,39.0,36.0,89,30.09,7.0,NNE,8.1,-,0.00,,Overcast,METAR KEWR 151051Z 02007KT 7SM BKN065 OVC080 04/02 A3010 RMK AO2 RAB41E51 SLP190 P0000 T00390022,20,2012-02-15 10:51:00<br />
6:51 AM,39.0,36.0,89,30.11,6.0,NNE,9.2,-,N/A,,Overcast,METAR KEWR 151151Z 02008KT 6SM BR BKN075 OVC100 04/02 A3011 RMK AO2 SLP195 60000 70001 T00390022 10056 20039 53011,20,2012-02-15 11:51:00<br />
7:51 AM,39.9,37.0,89,30.14,5.0,North,5.8,-,0.00,Rain,Light Rain,METAR KEWR 151251Z 01005KT 5SM -RA BR BKN035 OVC070 04/03 A3014 RMK AO2 RAB50 SLP206 P0000 T00440028,10,2012-02-15 12:51:00<br />
8:51 AM,39.9,37.0,89,30.16,5.0,North,4.6,-,0.00,Rain,Light Rain,METAR KEWR 151351Z 36004KT 5SM -RA BR OVC032 04/03 A3016 RMK AO2 RAE08B45 SLP212 P0000 T00440028,360,2012-02-15 13:51:00<br />
9:47 AM,41.0,37.4,87,30.18,3.0,Calm,Calm,-,0.00,Rain,Light Rain,SPECI KEWR 151447Z 00000KT 3SM -RA BR OVC029 05/03 A3018 RMK AO2 SFC VIS 4 CIG 028V030 P0000,0,2012-02-15 14:47:00<br />
9:51 AM,41.0,37.9,89,30.18,3.0,NW,5.8,-,0.00,Rain,Light Rain,METAR KEWR 151451Z 31005KT 3SM -RA BR OVC029 05/03 A3018 RMK AO2 SFC VIS 4 SLP219 CIG 028V030 P0000 60000 T00500033 51023,310,2012-02-15 14:51:00<br />
10:13 AM,41.0,37.4,87,30.19,3.0,NW,5.8,-,0.00,Rain,Light Rain,SPECI KEWR 151513Z 32005KT 3SM -RA BR SCT029 OVC033 05/03 A3019 RMK AO2 SFC VIS 4 P0000,320,2012-02-15 15:13:00<br />
10:51 AM,42.1,37.9,85,30.19,4.0,North,4.6,-,0.00,Rain,Light Rain,METAR KEWR 151551Z 35004KT 4SM -RA BR FEW029 OVC034 06/03 A3019 RMK AO2 RAE35B51 SLP221 P0000 T00560033,350,2012-02-15 15:51:00<br />
11:51 AM,42.8,37.4,81,30.19,8.0,NW,6.9,-,N/A,Rain,Light Rain,METAR KEWR 151651Z 31006KT 8SM -RA FEW028 BKN035 OVC042 06/03 A3019,310,2012-02-15 16:51:00<br />
12:51 PM,44.1,37.9,79,30.19,8.0,West,5.8,-,0.00,,Overcast,METAR KEWR 151751Z 28005KT 8SM FEW035 BKN047 OVC060 07/03 A3019 RMK AO2 RAE1658 SLP222 P0000 60000 T00670033 10067 20039 50003,280,2012-02-15 17:51:00<br />
1:51 PM,45.0,37.9,76,30.18,9.0,WNW,6.9,-,N/A,,Overcast,METAR KEWR 151851Z 30006KT 9SM SCT016 OVC065 07/03 A3018 RMK AO2 SLP220 SCT V BKN T00720033,300,2012-02-15 18:51:00<br />
2:51 PM,45.0,36.0,71,30.19,9.0,WNW,9.2,-,N/A,,Overcast,METAR KEWR 151951Z 30008KT 9SM SCT021 SCT070 OVC090 07/02 A3019 RMK AO2 SLP221 T00720022,300,2012-02-15 19:51:00<br />
3:51 PM,46.0,35.1,66,30.18,10.0,NW,11.5,-,N/A,,Mostly Cloudy,METAR KEWR 152051Z 32010KT 10SM FEW025 BKN090 08/02 A3018 RMK AO2 SLP220 T00780017 56001,320,2012-02-15 20:51:00<br />
4:51 PM,46.0,33.1,61,30.21,10.0,West,10.4,-,N/A,,Mostly Cloudy,METAR KEWR 152151Z 28009KT 10SM BKN032 BKN090 08/01 A3021 RMK AO2 SLP228 T00780006,280,2012-02-15 21:51:00<br />
5:51 PM,46.0,33.1,61,30.23,10.0,WNW,10.4,-,N/A,,Overcast,METAR KEWR 152251Z 30009KT 10SM FEW028 OVC040 08/01 A3023 RMK AO2 SLP236 T00780006,300,2012-02-15 22:51:00<br />
6:51 PM,45.0,32.0,60,30.25,10.0,WNW,9.2,-,N/A,,Overcast,METAR KEWR 152351Z 30008KT 10SM SCT033 OVC039 07/00 A3026 RMK AO2 SLP244 T00720000 10083 20067 53024,300,2012-02-15 23:51:00<br />
7:51 PM,44.1,30.9,60,30.27,10.0,NW,10.4,-,N/A,,Mostly Cloudy,METAR KEWR 160051Z 32009KT 10SM FEW030 BKN046 07/M01 A3027 RMK AO2 SLP248 T00671006,320,2012-02-16 00:51:00<br />
8:51 PM,42.1,30.9,65,30.27,10.0,WNW,8.1,-,N/A,,Scattered Clouds,METAR KEWR 160151Z 30007KT 10SM SCT047 06/M01 A3027 RMK AO2 SLP251 T00561006,300,2012-02-16 01:51:00<br />
9:51 PM,39.9,30.0,68,30.28,10.0,NW,8.1,-,N/A,,Scattered Clouds,METAR KEWR 160251Z 31007KT 280V010 10SM FEW047 SCT270 04/M01 A3028 RMK AO2 SLP254 T00441011 51009,310,2012-02-16 02:51:00<br />
10:51 PM,37.9,28.9,70,30.29,10.0,North,4.6,-,N/A,,Partly Cloudy,METAR KEWR 160351Z 36004KT 10SM FEW270 03/M02 A3029 RMK AO2 SLP255 T00331017,360,2012-02-16 03:51:00<br />
11:51 PM,37.9,28.9,70,30.27,10.0,NE,3.5,-,N/A,,Partly Cloudy,METAR KEWR 160451Z 04003KT 10SM FEW260 03/M02 A3027 RMK AO2 SLP250 T00331017 400830022,40,2012-02-16 04:51:00<br />
