
TimeEDT,TemperatureF,Dew PointF,Humidity,Sea Level PressureIn,VisibilityMPH,Wind Direction,Wind SpeedMPH,Gust SpeedMPH,PrecipitationIn,Events,Conditions,FullMetar,WindDirDegrees,DateUTC<br />
12:51 AM,52.0,48.0,86,30.15,10.0,SSE,8.1,-,N/A,,Overcast,METAR KEWR 030451Z 15007KT 10SM BKN011 OVC020 11/09 A3015 RMK SLP210 T01110089 401440106,150,2012-05-03 04:51:00<br />
1:41 AM,51.8,48.2,88,30.14,10.0,ESE,5.8,-,N/A,Thunderstorm,Thunderstorm,SPECI KEWR 030541Z 12005KT 10SM TS OVC010CB 11/09 A3014 RMK RMK TSB40 OCNL LTGICCC VC N TS N MOV E,120,2012-05-03 05:41:00<br />
1:51 AM,52.0,48.0,86,30.17,10.0,Calm,Calm,-,N/A,Thunderstorm,Thunderstorm,METAR KEWR 030551Z 00000KT 10SM TS OVC008CB 11/09 A3017 RMK TSB40 PRESRR SLP216 FQT LTGICCC VC N TS N MOV E T01110089 10117 20111 53001,0,2012-05-03 05:51:00<br />
2:44 AM,51.8,50.0,94,30.13,4.0,SSE,5.8,-,0.43,Rain,Rain,SPECI KEWR 030644Z 15005KT 4SM RABR SCT015 BKN075 OVC100 11/10 A3013 RMK TSE43RAB0553 P0043,150,2012-05-03 06:44:00<br />
2:51 AM,51.1,48.9,92,30.12,5.0,SE,9.2,-,0.45,Rain,Light Rain,METAR KEWR 030651Z 14008KT 5SM -RA BR FEW011 BKN070 OVC100 11/09 A3012 RMK TSE43RAB0553 SLP198 P0045 T01060094,140,2012-05-03 06:51:00<br />
3:42 AM,51.8,50.0,94,30.12,8.0,Calm,Calm,-,0.05,Rain,Light Rain,SPECI KEWR 030742Z 00000KT 8SM -RA BKN005 OVC033 11/10 A3012 RMK P0005,0,2012-05-03 07:42:00<br />
3:51 AM,52.0,51.1,97,30.12,8.0,Calm,Calm,-,0.06,Rain,Light Rain,METAR KEWR 030751Z 00000KT 8SM -RA BKN005 OVC033 11/11 A3012 RMK SLP200 P0006 T01110106,0,2012-05-03 07:51:00<br />
4:51 AM,52.0,50.0,93,30.12,9.0,Calm,Calm,-,0.00,,Overcast,METAR KEWR 030851Z 00000KT 9SM BKN005 OVC010 11/10 A3012 RMK RMK RAE0756 SLP199 P0000 60051 T01110100 56017,0,2012-05-03 08:51:00<br />
5:51 AM,52.0,50.0,93,30.14,10.0,SE,3.5,-,0.00,Rain,Light Rain,METAR KEWR 030951Z 14003KT 10SM -RA SCT007 OVC013 11/10 A3014 RMK RAB49 SLP204 P0000 T01110100,140,2012-05-03 09:51:00<br />
6:51 AM,53.1,50.0,89,30.15,10.0,SSE,3.5,-,0.00,,Overcast,METAR KEWR 031051Z 16003KT 10SM BKN007 OVC011 12/10 A3015 RMK RAE0959 SLP208 P0000 T01170100,160,2012-05-03 10:51:00<br />
7:51 AM,53.1,50.0,89,30.16,10.0,Variable,4.6,-,N/A,,Overcast,METAR KEWR 031151Z VRB04KT 10SM BKN008 OVC011 12/10 A3016 RMK SLP211 60051 70065 T0117 0100 10117 20106 51012,0,2012-05-03 11:51:00<br />
8:51 AM,54.0,50.0,86,30.15,9.0,Calm,Calm,-,N/A,,Overcast,METAR KEWR 031251Z 00000KT 9SM SCT005 BKN009 OVC012 12/10 A3015 RMK AO2 SLP208 CIG 008V010 T01220100,0,2012-05-03 12:51:00<br />
9:51 AM,54.0,50.0,86,30.15,9.0,Calm,Calm,-,N/A,,Overcast,METAR KEWR 031351Z 00000KT 9SM FEW005 OVC007 12/10 A3015 RMK AO2 SLP210 T01220100,0,2012-05-03 13:51:00<br />
10:51 AM,55.0,51.1,86,30.16,9.0,Calm,Calm,-,N/A,,Overcast,METAR KEWR 031451Z 00000KT 9SM OVC009 13/11 A3016 RMK AO2 SLP211 CIG 008V010 T01280106 55000,0,2012-05-03 14:51:00<br />
11:51 AM,55.0,51.1,86,30.14,8.0,South,3.5,-,N/A,,Overcast,METAR KEWR 031551Z 17003KT 8SM OVC008 13/11 A3014 RMK A02 SLP206 CIG 007V009 HAZE ALOFT VIS LWR NE-S T01280106,170,2012-05-03 15:51:00<br />
12:51 PM,57.0,52.0,83,30.13,9.0,Variable,3.5,-,N/A,,Overcast,METAR KEWR 031651Z COR VRB03KT 9SM OVC009 14/11 A3013 RMK AO2 SLP203 CIG 008V010 HAZY ALOFT VIS LWR NE-S T01390111,0,2012-05-03 16:51:00<br />
1:38 PM,55.4,51.8,88,30.13,9.0,SSE,4.6,-,N/A,,Overcast,SPECI KEWR 031738Z 16004KT 9SM OVC008 13/11 A3013 RMK AO2 HAZE ALOFT VIS LWR NE-S,160,2012-05-03 17:38:00<br />
1:51 PM,57.0,52.0,83,30.13,8.0,South,3.5,-,N/A,,Overcast,METAR KEWR 031751Z 17003KT 8SM OVC009 14/11 A3013 RMK AO2 SLP203 CIG 008V010 HAZE ALOFT VIS LWR NE-S T01390111 10139 20117 56008,170,2012-05-03 17:51:00<br />
2:29 PM,57.2,51.8,82,30.13,8.0,SE,6.9,-,N/A,,Overcast,SPECI KEWR 031829Z 13006KT 8SM OVC010 14/11 A3013 RMK AO2 CIG 009V011 HAZE ALOFT VIS LWR NE-S,130,2012-05-03 18:29:00<br />
2:51 PM,55.9,52.0,87,30.12,7.0,SE,4.6,-,0.00,,Light Drizzle,METAR KEWR 031851Z 13004KT 7SM -DZ OVC008 13/11 A3013 RMK A02 DZB05 SLP200 CIG 007V009 HZ ALOFT VIS LWR NE-S P0000 T01330111,130,2012-05-03 18:51:00<br />
3:07 PM,57.2,51.8,82,30.12,2.5,SSE,3.5,-,N/A,,Light Drizzle,SPECI KEWR 031907Z 15003KT 2 1/2SM -DZ BKN007 OVC010 14/11 A3012 RMK A02 SFC VIS 4,150,2012-05-03 19:07:00<br />
3:51 PM,55.9,52.0,87,30.12,2.5,SE,4.6,-,0.00,,Light Drizzle,METAR KEWR 031951Z 13004KT 2 1/2SM -DZ BR BKN007 OVC010 13/11 A3012 RMK A02 SFC VIS 3 SLP197 P0000 T01330111,130,2012-05-03 19:51:00<br />
4:37 PM,57.2,51.8,82,30.10,5.0,ESE,4.6,-,N/A,,Haze,SPECI KEWR 032037Z 11004KT 5SM HZ BKN007 OVC010 14/11 A3010 RMK A02 DZE37,110,2012-05-03 20:37:00<br />
4:51 PM,57.9,52.0,81,30.12,5.0,Calm,Calm,-,0.00,,Haze,METAR KEWR 032051Z 00000KT 5SM HZ BKN007 OVC010 14/11 A3011 RMK A02 DZE37 SLP197 P0000 60000 T01440111 56006,0,2012-05-03 20:51:00<br />
5:51 PM,57.0,52.0,83,30.10,5.0,SE,3.5,-,N/A,,Haze,METAR KEWR 032151Z 13003KT 5SM HZ OVC007 14/11 A3010 RMK AO2 SLP193 T01390111,130,2012-05-03 21:51:00<br />
6:51 PM,55.9,53.1,90,30.08,3.0,ESE,3.5,-,N/A,,Overcast,METAR KEWR 032251Z 11003KT 03SM BR BKN006 OVC010 13/12 A3008 RMK A02 SLP186 T01330117,110,2012-05-03 22:51:00<br />
7:51 PM,55.0,52.0,89,30.10,3.0,SE,3.5,-,0.00,,Light Drizzle,METAR KEWR 032351Z 13003KT 3SM -DZ BR OVC006 13/11 A3010 RMK DZB49 SLP193 P0000 60000 T01280111 10144 20128 55004,130,2012-05-03 23:51:00<br />
8:51 PM,55.0,52.0,89,30.11,3.0,SE,4.6,-,0.00,,Light Drizzle,METAR KEWR 040051Z 14004KT 3SM -DZ BR OVC005 13/11 A3011 RMK AO2 SLP194 P0000 T01280111,140,2012-05-04 00:51:00<br />
9:51 PM,55.0,52.0,89,30.12,3.0,ESE,3.5,-,0.00,,Light Drizzle,METAR KEWR 040151Z 12003KT 3SM -DZ BR OVC005 13/11 A3011 RMK AO2 SLP197 P0000 T01280111,120,2012-05-04 01:51:00<br />
10:51 PM,53.6,51.8,94,30.11,3.0,ESE,5.8,-,N/A,,Light Drizzle,METAR KEWR 040251Z 12005KT 3SM -DZ BR OVC005 12/11 A3011,120,2012-05-04 02:51:00<br />
11:51 PM,54.0,52.0,93,30.09,3.0,Calm,Calm,-,0.00,,Overcast,METAR KEWR 040351Z 00000KT 3SM BR BKN005 OVC012 12/11 A3010 RMK AO2 SFC VIS 4 DZE48 SLP190 P0000 T01220111,0,2012-05-04 03:51:00<br />
