
TimeEST,TemperatureF,Dew PointF,Humidity,Sea Level PressureIn,VisibilityMPH,Wind Direction,Wind SpeedMPH,Gust SpeedMPH,PrecipitationIn,Events,Conditions,FullMetar,WindDirDegrees,DateUTC<br />
12:51 AM,48.0,39.9,74,29.39,10.0,WSW,13.8,-,N/A,,Partly Cloudy,METAR KEWR 280551Z 24012KT 10SM FEW027 09/04 A2939 RMK AO2 SLP952 60063 T00890044 10144 20089 51014,240,2011-12-28 05:51:00<br />
1:51 AM,45.0,39.0,80,29.42,10.0,WSW,10.4,-,N/A,,Partly Cloudy,METAR KEWR 280651Z 24009KT 10SM FEW027 07/04 A2941 RMK AO2 SLP960 T00720039,240,2011-12-28 06:51:00<br />
2:51 AM,45.0,37.9,76,29.42,10.0,WSW,12.7,-,N/A,,Scattered Clouds,METAR KEWR 280751Z 24011KT 10SM FEW027 SCT080 07/03 A2942 RMK AO2 SLP961 T00720033,240,2011-12-28 07:51:00<br />
3:51 AM,44.1,37.0,76,29.41,10.0,WSW,12.7,-,N/A,,Mostly Cloudy,METAR KEWR 280851Z 24011KT 10SM FEW030 BKN080 07/03 A2941 RMK AO2 SLP959 T00670028 50007,240,2011-12-28 08:51:00<br />
4:51 AM,44.6,35.6,71,29.43,10.0,WSW,13.8,-,N/A,,Mostly Cloudy,METAR KEWR 280951Z 25012KT 10SM BKN080 07/02 A2943,250,2011-12-28 09:51:00<br />
5:51 AM,43.0,33.1,68,29.44,10.0,WSW,13.8,-,N/A,,Scattered Clouds,METAR KEWR 281051Z 25012KT 10SM FEW035 SCT080 06/01 A2944 RMK AO2 SLP970 T00610006,250,2011-12-28 10:51:00<br />
6:51 AM,42.1,32.0,67,29.47,10.0,WSW,12.7,-,N/A,,Scattered Clouds,METAR KEWR 281151Z 25011KT 10SM FEW035 SCT080 06/00 A2946 RMK AO2 SLP977 70121 T00560000 10089 20056 53018,250,2011-12-28 11:51:00<br />
7:51 AM,42.1,30.9,65,29.49,10.0,WSW,17.3,21.9,N/A,,Scattered Clouds,METAR KEWR 281251Z 25015G19KT 10SM FEW035 SCT080 06/M01 A2949 RMK AO2 SLP984 T00561006,250,2011-12-28 12:51:00<br />
8:51 AM,43.0,30.9,62,29.50,10.0,WSW,15.0,24.2,N/A,,Scattered Clouds,METAR KEWR 281351Z 25013G21KT 10SM FEW030 SCT100 06/M01 A2950 RMK AO2 SLP990 T00611006,250,2011-12-28 13:51:00<br />
9:51 AM,45.0,30.9,58,29.52,10.0,West,15.0,28.8,N/A,,Mostly Cloudy,METAR KEWR 281451Z 26013G25KT 10SM FEW034 SCT050 BKN110 07/M01 A2952 RMK AO2 SLP997 T00721006 52021,260,2011-12-28 14:51:00<br />
10:51 AM,46.9,30.0,52,29.53,10.0,West,18.4,29.9,N/A,,Mostly Cloudy,METAR KEWR 281551Z 26016G26KT 10SM FEW038 BKN055 08/M01 A2953 RMK AO2 PK WND 26027/1459 SLP999 T00831011,260,2011-12-28 15:51:00<br />
11:51 AM,46.0,27.0,47,29.53,10.0,West,26.5,33.4,N/A,,Mostly Cloudy,METAR KEWR 281651Z 27023G29KT 10SM BKN050 08/M03 A2953 RMK AO2 PK WND 27033/1637 SLP000 T00781028,270,2011-12-28 16:51:00<br />
12:51 PM,43.0,24.1,47,29.55,10.0,West,21.9,36.8,N/A,,Mostly Cloudy,METAR KEWR 281751Z 27019G32KT 10SM FEW044 BKN049 06/M04 A2955 RMK AO2 PK WND 28032/1748 SLP007 T00611044 10083 20050 53009,270,2011-12-28 17:51:00<br />
2:51 PM,41.0,18.0,40,29.63,10.0,WNW,23.0,33.4,N/A,,Mostly Cloudy,METAR KEWR 281951Z 29020G29KT 10SM FEW045 BKN055 05/M08 A2963 RMK AO2 PK WND 28035/1938 SLP032 VIRGA SW T00501078,290,2011-12-28 19:51:00<br />
3:51 PM,39.2,19.4,45,29.66,10.0,WNW,13.8,-,N/A,,Mostly Cloudy,METAR KEWR 282051Z 29012KT 10SM FEW045 BKN055 BKN200 04/M07 A2966,290,2011-12-28 20:51:00<br />
4:51 PM,37.9,18.0,45,29.70,10.0,West,20.7,40.3,N/A,,Mostly Cloudy,METAR KEWR 282151Z 27018G35KT 10SM BKN055 BKN250 03/M08 A2970 RMK AO2 PK WND 30035/2143 SLP055 T00331078,270,2011-12-28 21:51:00<br />
5:51 PM,36.0,17.1,46,29.73,10.0,West,18.4,-,N/A,,Scattered Clouds,METAR KEWR 282251Z 27016KT 10SM FEW055 SCT250 02/M08 A2973 RMK AO2 PK WND 28030/2211 SLP068 T00221083,270,2011-12-28 22:51:00<br />
6:51 PM,35.1,17.1,48,29.76,10.0,West,19.6,27.6,N/A,,Scattered Clouds,METAR KEWR 282351Z 27017G24KT 10SM FEW055 SCT250 02/M08 A2976 RMK AO2 PK WND 27028/2323 SLP076 T00171083 10067 20017 51032,270,2011-12-28 23:51:00<br />
7:51 PM,34.0,16.0,48,29.80,10.0,WNW,21.9,32.2,N/A,,Scattered Clouds,METAR KEWR 290051Z 30019G28KT 10SM SCT050 SCT150 01/M09 A2980 RMK AO2 PK WND 30028/0048 SLP090 T00111089,300,2011-12-29 00:51:00<br />
8:51 PM,33.1,14.0,46,29.82,10.0,WNW,20.7,36.8,N/A,,Scattered Clouds,METAR KEWR 290151Z 29018G32KT 10SM FEW050 SCT150 01/M10 A2982 RMK AO2 PK WND 28032/0145 SLP097 T00061100,290,2011-12-29 01:51:00<br />
9:51 PM,32.0,14.0,48,29.84,10.0,West,11.5,-,N/A,,Scattered Clouds,METAR KEWR 290251Z 28010KT 10SM FEW050 SCT150 00/M10 A2984 RMK AO2 PK WND 29031/0157 SLP105 T00001100 51029,280,2011-12-29 02:51:00<br />
10:51 PM,32.0,14.0,48,29.86,10.0,West,12.7,24.2,N/A,,Partly Cloudy,METAR KEWR 290351Z 28011G21KT 10SM FEW050 00/M10 A2986 RMK AO2 SLP110 T00001100,280,2011-12-29 03:51:00<br />
11:51 PM,30.9,12.9,47,29.87,10.0,WNW,10.4,24.2,N/A,,Partly Cloudy,METAR KEWR 290451Z 29009G21KT 10SM FEW050 M01/M11 A2987 RMK AO2 SLP114 T10061106 400891006,290,2011-12-29 04:51:00<br />
