
TimeEST,TemperatureF,Dew PointF,Humidity,Sea Level PressureIn,VisibilityMPH,Wind Direction,Wind SpeedMPH,Gust SpeedMPH,PrecipitationIn,Events,Conditions,FullMetar,WindDirDegrees,DateUTC<br />
12:51 AM,26.1,23.0,88,29.75,0.2,NNE,17.3,-,0.07,Fog-Snow,Heavy Snow,METAR KEWR 120551Z 02015KT 1/4SM +SN FZFG VV003 M03/M05 A2975 RMK AO2 PRESFR SLP074 SNINCR 1/4 931037 4/004 P0007 60032 T10331050 10000 21033 58058 RVRNO,20,2011-01-12 05:51:00<br />
1:35 AM,26.6,23.0,86,29.71,0.2,NNE,15.0,-,0.05,Fog-Snow,Heavy Snow,SPECI KEWR 120635Z 02013KT 1/4SM R04R/2600V4000FT +SN FZFG VV001 M03/M05 A2971 RMK AO2 P0005,20,2011-01-12 06:35:00<br />
1:51 AM,26.1,23.0,88,29.70,0.2,North,17.3,-,0.07,Fog-Snow,Snow,METAR KEWR 120651Z 36015KT 1/4SM SN FZFG VV002 M03/M05 A2970 RMK AO2 SFC VIS 1/2 SLP056 SNINCR 2/6 P0007 T10331050 RVRNO,360,2011-01-12 06:51:00<br />
2:51 AM,26.1,23.0,88,29.68,0.2,North,13.8,-,0.11,Fog-Snow,Snow,METAR KEWR 120751Z COR 35012KT 1/4SM SN FZFG VV002 M03/M05 A2968 RMK AO2 SFC VIS 1/2 SLP050 SNINCR 2/8 P0011 T10331050 RVRNO,350,2011-01-12 07:51:00<br />
3:51 AM,25.0,21.9,88,29.68,0.2,WNW,11.5,-,0.06,Snow,Light Snow,METAR KEWR 120851Z 29010KT 1/4SM R04R/2800VP6000FT -SN BR BKN004 OVC012 M04/M06 A2967 RMK AO2 SFC VIS 3/4 SLP048 SNINCR 1/9 60033 P0006 T10391056 56026,290,2011-01-12 08:51:00<br />
4:37 AM,24.8,21.2,86,29.67,1.0,West,16.1,-,N/A,Snow,Light Snow,SPECI KEWR 120937Z 28014KT 1SM -SN BR SCT004 BKN011 OVC021 M04/M06 A2967 RMK AO2 SFC VIS 1 1/4 SNINCR 1/9 60033 P0006 P0003,280,2011-01-12 09:37:00<br />
4:51 AM,25.0,19.9,81,29.66,1.0,WNW,13.8,21.9,0.03,Snow,Light Snow,METAR KEWR 120951Z 30012G19KT 1SM -SN SCT004 BKN014 OVC028 M04/M07 A2966 RMK AO2 SFC VIS 1 1/2 SLP042 P0003 T10391067,300,2011-01-12 09:51:00<br />
5:09 AM,24.8,19.4,80,29.66,5.0,WNW,11.5,-,0.00,Snow,Light Snow,SPECI KEWR 121009Z 30010KT 5SM -SN BLSN FEW020 BKN038 OVC065 M04/M07 A2966 RMK AO2 P0000,300,2011-01-12 10:09:00<br />
5:51 AM,24.1,18.0,77,29.66,6.0,West,12.7,21.9,0.00,Snow,Blowing Snow,METAR KEWR 121051Z COR 28011G19KT 260V320 6SM BLSN FEW020 SCT045 BKN095 M04/M08 A2966 RMK AO2 SNE15 SLP044 P0000 T10441078,280,2011-01-12 10:51:00<br />
6:51 AM,24.1,18.0,77,29.65,10.0,West,13.8,-,N/A,,Scattered Clouds,METAR KEWR 121151Z 26012KT 10SM FEW050 SCT100 M04/M08 A2965 RMK AO2 SLP041 931054 4/009 60036 70068 T10441078 11033 21044 56007,260,2011-01-12 11:51:00<br />
7:51 AM,25.0,18.0,75,29.66,10.0,West,16.1,-,N/A,,Scattered Clouds,METAR KEWR 121251Z 26014KT 10SM FEW020 SCT035 SCT070 M04/M08 A2966 RMK AO2 SLP043 T10391078,260,2011-01-12 12:51:00<br />
8:51 AM,27.0,19.0,72,29.67,10.0,West,16.1,28.8,N/A,,Scattered Clouds,METAR KEWR 121351Z 27014G25KT 10SM FEW020 SCT035 SCT070 M03/M07 A2967 RMK AO2 SLP045 T10281072,270,2011-01-12 13:51:00<br />
9:51 AM,28.0,19.0,69,29.67,9.0,West,15.0,21.9,N/A,,Scattered Clouds,METAR KEWR 121451Z 26013G19KT 9SM FEW025 SCT070 M02/M07 A2967 RMK AO2 SLP046 T10221072 51005,260,2011-01-12 14:51:00<br />
10:51 AM,30.2,19.4,64,29.65,8.0,West,19.6,-,N/A,,Scattered Clouds,METAR KEWR 121551Z 26017KT 8SM SCT030 SCT070 M01/M07 A2965,260,2011-01-12 15:51:00<br />
11:51 AM,32.0,21.0,64,29.64,9.0,West,18.4,24.2,N/A,,Mostly Cloudy,METAR KEWR 121651Z 28016G21KT 9SM BKN032 00/M06 A2964 RMK AO2 SLP035 T00001061,280,2011-01-12 16:51:00<br />
12:51 PM,32.0,19.9,61,29.63,10.0,West,20.7,-,N/A,,Mostly Cloudy,METAR KEWR 121751Z COR 28018KT 10SM SCT034 BKN065 00/M07 A2963 RMK AO2 PK WND 26026/1653 SLP032 PRESENT WX DRSN 4/008 933007 T00001067 10000 21044 56014,280,2011-01-12 17:51:00<br />
1:51 PM,32.0,19.9,61,29.62,9.0,West,16.1,32.2,0.00,Snow,Light Snow,METAR KEWR 121851Z 28014G28KT 9SM -SN FEW029 BKN035 00/M07 A2963 RMK AO2 PK WND 28028/1846 SNB08 SLP031 PRESENT WX DRSN P0000 T00001067,280,2011-01-12 18:51:00<br />
2:51 PM,33.1,19.9,59,29.65,10.0,West,21.9,34.5,N/A,,Mostly Cloudy,METAR KEWR 121951Z 28019G30KT 10SM FEW030 SCT037 BKN065 01/M07 A2965 RMK AO2 PK WND 29030/1948 SNE1852 SLP038 PRESENT WX DRSN T00061067,280,2011-01-12 19:51:00<br />
3:51 PM,30.2,17.6,60,29.67,10.0,WNW,21.9,36.8,N/A,,Mostly Cloudy,METAR KEWR 122051Z 29019G32KT 10SM SCT037 BKN250 M01/M08 A2967 RMK AO2 PK WND 29032/2044 SLP047 PRESENT WX,290,2011-01-12 20:51:00<br />
4:51 PM,30.0,16.0,56,29.70,10.0,WNW,23.0,29.9,N/A,,Mostly Cloudy,METAR KEWR 122151Z 29020G26KT 10SM SCT039 BKN075 BKN130 M01/M09 A2970 RMK AO2 PK WND 27026/2150 SLP057 PRESENT WX DRSN T10111089,290,2011-01-12 21:51:00<br />
5:51 PM,28.9,16.0,58,29.74,10.0,WNW,25.3,34.5,N/A,,Mostly Cloudy,METAR KEWR 122251Z 29022G30KT 10SM SCT035 BKN075 BKN130 M02/M09 A2974 RMK AO2 PK WND 28030/2250 SLP070 PRESENT WX DRSN T10171089,290,2011-01-12 22:51:00<br />
6:45 PM,28.4,12.2,51,29.78,10.0,WNW,26.5,34.5,0.00,,Mostly Cloudy,SPECI KEWR 122345Z 29023G30KT 10SM FEW035 BKN080 BKN130 M02/M11 A2978 RMK AO2 PK WND 29032/2324 P0000,290,2011-01-12 23:45:00<br />
6:51 PM,26.6,12.2,55,29.78,10.0,NW,25.3,35.7,N/A,,Mostly Cloudy,METAR KEWR 122351Z 31022G31KT 10SM FEW035 BKN080 BKN130 M03/M11 A2978 RMK AO2 PK WND 29032/2324 SLP083 PRESENT WX,310,2011-01-12 23:51:00<br />
7:51 PM,27.0,12.0,53,29.80,10.0,WNW,19.6,29.9,N/A,,Mostly Cloudy,METAR KEWR 130051Z 29017G26KT 10SM FEW035 SCT090 BKN130 M03/M11 A2980 RMK AO2 PK WND 31036/2357 SLP090 PRESENT WX DRSN T10281111,290,2011-01-13 00:51:00<br />
8:51 PM,26.1,10.9,53,29.81,10.0,NW,19.6,28.8,N/A,,Mostly Cloudy,METAR KEWR 130151Z 31017G25KT 10SM FEW035 SCT095 BKN130 M03/M12 A2981 RMK AO2 PK WND 32030/0104 SLP095 PRESENT WX DRSN T10331117,310,2011-01-13 01:51:00<br />
9:51 PM,26.1,12.0,55,29.84,10.0,NW,16.1,20.7,N/A,,Mostly Cloudy,METAR KEWR 130251Z 31014G18KT 10SM FEW035 SCT095 BKN130 M03/M11 A2984 RMK AO2 PK WND 32029/0210 SLP104 PRESENT WX DRSN T10331111 53021,310,2011-01-13 02:51:00<br />
10:51 PM,26.1,12.0,55,29.87,10.0,NW,17.3,21.9,N/A,,Mostly Cloudy,METAR KEWR 130351Z 31015G19KT 10SM FEW035 BKN070 BKN130 M03/M11 A2987 RMK AO2 SLP113 T10331111,310,2011-01-13 03:51:00<br />
11:51 PM,26.1,12.0,55,29.88,10.0,NW,19.6,26.5,N/A,,Mostly Cloudy,METAR KEWR 130451Z 31017G23KT 10SM SCT070 BKN090 BKN250 M03/M11 A2988 RMK AO2 PK WND 32026/0428 SLP117 T10331111 400061044,310,2011-01-13 04:51:00<br />
