
TimeEDT,TemperatureF,Dew PointF,Humidity,Sea Level PressureIn,VisibilityMPH,Wind Direction,Wind SpeedMPH,Gust SpeedMPH,PrecipitationIn,Events,Conditions,FullMetar,WindDirDegrees,DateUTC<br />
12:11 AM,73.4,69.8,88,29.76,7.0,SSW,6.9,-,N/A,,Mostly Cloudy,SPECI KEWR 220411Z 21006KT 7SM BKN007 BKN090 BKN250 23/21 A2976 RMK AO2 $,210,2011-08-22 04:11:00<br />
12:51 AM,72.0,69.1,91,29.75,6.0,WSW,8.1,-,N/A,,Mostly Cloudy,METAR KEWR 220451Z 25007KT 6SM BR BKN006 BKN250 22/21 A2975 RMK AO2 SLP075 CIG 005V008 T02220206 403060222 $,250,2011-08-22 04:51:00<br />
1:18 AM,71.6,68.0,88,29.75,6.0,WSW,8.1,-,N/A,,Mostly Cloudy,SPECI KEWR 220518Z 24007KT 6SM BR SCT004 BKN250 22/20 A2975 RMK AO2 SCT V BKN $,240,2011-08-22 05:18:00<br />
1:51 AM,71.1,68.0,90,29.75,7.0,West,6.9,-,N/A,,Scattered Clouds,METAR KEWR 220551Z 27006KT 7SM FEW004 SCT100 SCT250 22/20 A2975 RMK AO2 SLP072 60037 T02170200 10233 20217 58007 $,270,2011-08-22 05:51:00<br />
2:51 AM,70.0,66.9,90,29.75,10.0,West,9.2,-,N/A,,Scattered Clouds,METAR KEWR 220651Z 27008KT 10SM FEW100 SCT250 21/19 A2976 RMK AO2 SLP075 T02110194 $,270,2011-08-22 06:51:00<br />
3:51 AM,70.0,66.9,90,29.77,10.0,West,6.9,-,N/A,,Partly Cloudy,METAR KEWR 220751Z 28006KT 10SM FEW250 21/19 A2977 RMK AO2 SLP079 T02110194 $,280,2011-08-22 07:51:00<br />
4:51 AM,70.0,66.0,87,29.76,10.0,NW,6.9,-,N/A,,Mostly Cloudy,METAR KEWR 220851Z 31006KT 10SM FEW065 BKN085 BKN110 21/19 A2976 RMK AO2 SLP076 T02110189 50004 $,310,2011-08-22 08:51:00<br />
5:51 AM,69.1,57.0,65,29.76,10.0,NW,10.4,-,N/A,,Mostly Cloudy,METAR KEWR 220951Z 31009KT 10SM FEW065 SCT080 BKN110 21/14 A2976 RMK AO2 SLP078 T02060139 $,310,2011-08-22 09:51:00<br />
6:51 AM,68.0,55.9,65,29.80,10.0,NW,10.4,-,N/A,,Mostly Cloudy,METAR KEWR 221051Z 31009KT 10SM FEW065 SCT080 BKN130 BKN250 20/13 A2979 RMK AO2 SLP089 T02000133 $,310,2011-08-22 10:51:00<br />
7:51 AM,69.1,55.0,61,29.84,10.0,NW,6.9,-,N/A,,Scattered Clouds,METAR KEWR 221151Z 31006KT 10SM FEW025 SCT130 SCT250 21/13 A2984 RMK AO2 SLP105 70048 T02060128 10217 20200 53029 $,310,2011-08-22 11:51:00<br />
8:51 AM,71.1,53.1,53,29.85,10.0,NNW,9.2,-,N/A,,Partly Cloudy,METAR KEWR 221251Z 33008KT 10SM FEW150 22/12 A2985 RMK AO2 SLP107 T02170117 $,330,2011-08-22 12:51:00<br />
9:51 AM,73.4,53.6,50,29.86,10.0,WNW,6.9,-,N/A,,Partly Cloudy,METAR KEWR 221351Z 30006KT 10SM FEW042 23/12 A2986,300,2011-08-22 13:51:00<br />
10:51 AM,75.9,53.1,45,29.86,10.0,WNW,12.7,20.7,N/A,,Partly Cloudy,METAR KEWR 221451Z 29011G18KT 10SM FEW050 24/12 A2986 RMK AO2 SLP110 T02440117 51005,290,2011-08-22 14:51:00<br />
11:51 AM,77.0,52.0,42,29.86,10.0,NW,12.7,20.7,N/A,,Partly Cloudy,METAR KEWR 221551Z 31011G18KT 10SM FEW060 25/11 A2986 RMK AO2 SLP111 T02500111,310,2011-08-22 15:51:00<br />
12:51 PM,79.0,50.0,36,29.86,10.0,NNW,17.3,26.5,N/A,,Scattered Clouds,METAR KEWR 221651Z 34015G23KT 10SM SCT055 SCT150 26/10 A2985 RMK AO2 SLP109 T02610100,340,2011-08-22 16:51:00<br />
1:51 PM,78.1,50.0,37,29.86,10.0,NW,17.3,23.0,N/A,,Scattered Clouds,METAR KEWR 221751Z 31015G20KT 10SM SCT060 SCT150 26/10 A2986 RMK AO2 SLP110 T02560100 10267 20200 54000,310,2011-08-22 17:51:00<br />
2:51 PM,80.1,50.0,35,29.85,10.0,WNW,15.0,20.7,N/A,,Scattered Clouds,METAR KEWR 221851Z 30013G18KT 10SM SCT060 SCT250 27/10 A2985 RMK AO2 SLP107 T02670100,300,2011-08-22 18:51:00<br />
3:51 PM,80.1,48.9,34,29.85,10.0,West,8.1,23.0,N/A,,Scattered Clouds,METAR KEWR 221951Z 27007G20KT 230V310 10SM FEW060 SCT250 27/09 A2985 RMK AO2 SLP107 T02670094,270,2011-08-22 19:51:00<br />
4:51 PM,80.1,50.0,35,29.85,10.0,WNW,8.1,23.0,N/A,,Scattered Clouds,METAR KEWR 222051Z 30007G20KT 10SM FEW065 SCT250 27/10 A2985 RMK AO2 SLP108 T02670100 55002,300,2011-08-22 20:51:00<br />
5:51 PM,80.1,48.9,34,29.86,10.0,WNW,15.0,19.6,N/A,,Scattered Clouds,METAR KEWR 222151Z 29013G17KT 10SM SCT065 SCT250 27/09 A2986 RMK AO2 SLP111 T02670094,290,2011-08-22 21:51:00<br />
6:51 PM,78.1,48.9,36,29.86,10.0,West,15.0,20.7,N/A,,Scattered Clouds,METAR KEWR 222251Z 27013G18KT 10SM SCT070 SCT250 26/09 A2986 RMK AO2 SLP112 T02560094,270,2011-08-22 22:51:00<br />
7:51 PM,77.0,50.0,39,29.88,10.0,WNW,6.9,17.3,N/A,,Scattered Clouds,METAR KEWR 222351Z 29006G15KT 10SM FEW050 SCT100 SCT250 25/10 A2987 RMK AO2 SLP116 T02500100 10272 20244 53008,290,2011-08-22 23:51:00<br />
8:51 PM,73.9,51.1,45,29.91,10.0,WNW,9.2,-,N/A,,Scattered Clouds,METAR KEWR 230051Z 30008KT 10SM FEW050 SCT100 SCT250 23/11 A2991 RMK AO2 SLP126 T02330106,300,2011-08-23 00:51:00<br />
9:51 PM,73.0,51.1,46,29.93,10.0,WNW,9.2,-,N/A,,Scattered Clouds,METAR KEWR 230151Z 30008KT 10SM FEW050 SCT100 SCT250 23/11 A2993 RMK AO2 SLP135 T02280106,300,2011-08-23 01:51:00<br />
10:51 PM,72.0,51.1,48,29.95,10.0,NW,9.2,-,N/A,,Mostly Cloudy,METAR KEWR 230251Z 32008KT 10SM FEW100 BKN200 22/11 A2995 RMK AO2 SLP141 T02220106 51025,320,2011-08-23 02:51:00<br />
11:51 PM,71.6,51.8,50,29.96,10.0,NNW,9.2,-,N/A,,Scattered Clouds,METAR KEWR 230351Z 33008KT 10SM FEW100 SCT200 22/11 A2996,330,2011-08-23 03:51:00<br />
