
TimeEST,TemperatureF,Dew PointF,Humidity,Sea Level PressureIn,VisibilityMPH,Wind Direction,Wind SpeedMPH,Gust SpeedMPH,PrecipitationIn,Events,Conditions,FullMetar,WindDirDegrees,DateUTC<br />
12:51 AM,39.9,33.1,77,30.04,10.0,North,11.5,-,N/A,,Partly Cloudy,METAR KEWR 240551Z 35010KT 10SM FEW030 04/01 A3004 RMK AO2 SLP171 T00440006 10067 20039 53024,350,2011-11-24 05:51:00<br />
1:51 AM,39.0,32.0,76,30.05,10.0,NNW,5.8,-,N/A,,Scattered Clouds,METAR KEWR 240651Z 34005KT 10SM SCT033 04/00 A3005 RMK AO2 SLP175 T00390000,340,2011-11-24 06:51:00<br />
2:51 AM,37.9,30.9,76,30.09,10.0,NW,5.8,-,N/A,,Partly Cloudy,METAR KEWR 240751Z 31005KT 10SM FEW033 03/M01 A3009 RMK AO2 SLP187 T00331006,310,2011-11-24 07:51:00<br />
3:51 AM,37.0,28.9,73,30.11,10.0,NNW,6.9,-,N/A,,Partly Cloudy,METAR KEWR 240851Z 33006KT 10SM FEW035 03/M02 A3011 RMK AO2 SLP194 T00281017 53024,330,2011-11-24 08:51:00<br />
4:51 AM,37.0,28.9,73,30.13,10.0,NNW,8.1,-,N/A,,Partly Cloudy,METAR KEWR 240951Z 33007KT 10SM FEW035 03/M02 A3013 RMK AO2 SLP201 T00281017,330,2011-11-24 09:51:00<br />
5:51 AM,37.9,28.9,70,30.15,10.0,NNW,8.1,-,N/A,,Clear,METAR KEWR 241051Z 33007KT 10SM CLR 03/M02 A3015 RMK AO2 SLP208 T00331017,330,2011-11-24 10:51:00<br />
6:51 AM,37.0,28.0,70,30.16,10.0,North,3.5,-,N/A,,Scattered Clouds,METAR KEWR 241151Z 35003KT 10SM FEW030 SCT080 03/M02 A3016 RMK AO2 SLP212 70018 T00281022 10044 20028 51018,350,2011-11-24 11:51:00<br />
7:51 AM,39.0,28.9,67,30.18,10.0,WSW,6.9,-,N/A,,Partly Cloudy,METAR KEWR 241251Z 25006KT 10SM FEW150 04/M02 A3018 RMK AO2 SLP219 T00391017,250,2011-11-24 12:51:00<br />
8:51 AM,42.1,30.0,62,30.18,10.0,Calm,Calm,-,N/A,,Mostly Cloudy,METAR KEWR 241351Z 00000KT 10SM FEW180 BKN280 06/M01 A3018 RMK AO2 SLP218 T00561011 $,0,2011-11-24 13:51:00<br />
9:51 AM,45.0,32.0,60,30.18,10.0,WNW,5.8,-,N/A,,Scattered Clouds,METAR KEWR 241451Z 29005KT 10SM FEW180 SCT280 07/00 A3018 RMK AO2 SLP218 T00720000 50006,290,2011-11-24 14:51:00<br />
10:51 AM,48.9,34.0,56,30.17,10.0,NNW,4.6,-,N/A,,Scattered Clouds,METAR KEWR 241551Z 34004KT 10SM FEW180 SCT280 09/01 A3017 RMK AO2 SLP216 T00940011,340,2011-11-24 15:51:00<br />
11:51 AM,52.0,33.1,49,30.15,10.0,West,3.5,-,N/A,,Partly Cloudy,METAR KEWR 241651Z 28003KT 10SM FEW280 11/01 A3015 RMK AO2 SLP210 T01110006,280,2011-11-24 16:51:00<br />
12:51 PM,54.0,34.0,47,30.15,10.0,WNW,5.8,-,N/A,,Partly Cloudy,METAR KEWR 241751Z 30005KT 10SM FEW280 12/01 A3015 RMK AO2 SLP208 T01220011 10122 20028 58010,300,2011-11-24 17:51:00<br />
1:51 PM,55.9,33.1,42,30.15,10.0,West,6.9,-,N/A,,Partly Cloudy,METAR KEWR 241851Z 27006KT 10SM FEW280 13/01 A3015 RMK AO2 SLP208 T01330006,270,2011-11-24 18:51:00<br />
2:51 PM,57.0,33.1,40,30.14,10.0,West,6.9,-,N/A,,Clear,METAR KEWR 241951Z 27006KT 10SM CLR 14/01 A3014 RMK AO2 SLP205 T01390006,270,2011-11-24 19:51:00<br />
3:51 PM,55.0,34.0,45,30.14,10.0,WSW,11.5,-,N/A,,Clear,METAR KEWR 242051Z 24010KT 10SM CLR 13/01 A3015 RMK AO2 SLP207 T01280011 55001,240,2011-11-24 20:51:00<br />
4:51 PM,54.0,33.1,45,30.16,10.0,WSW,8.1,-,N/A,,Partly Cloudy,METAR KEWR 242151Z 25007KT 10SM FEW200 12/01 A3016 RMK AO2 SLP213 T01220006,250,2011-11-24 21:51:00<br />
5:51 PM,46.9,34.0,61,30.17,10.0,SSW,6.9,-,N/A,,Partly Cloudy,METAR KEWR 242251Z 21006KT 10SM FEW250 08/01 A3017 RMK AO2 SLP217 T00830011,210,2011-11-24 22:51:00<br />
6:51 PM,46.9,34.0,61,30.18,10.0,SW,5.8,-,N/A,,Scattered Clouds,METAR KEWR 242351Z 22005KT 10SM SCT250 08/01 A3018 RMK AO2 SLP219 T00830011 10139 20083 51012,220,2011-11-24 23:51:00<br />
7:51 PM,50.0,35.1,57,30.17,10.0,WSW,8.1,-,N/A,,Mostly Cloudy,METAR KEWR 250051Z 24007KT 10SM BKN270 10/02 A3017 RMK AO2 SLP216 T01000017,240,2011-11-25 00:51:00<br />
8:51 PM,46.0,35.1,66,30.17,10.0,SW,8.1,-,N/A,,Scattered Clouds,METAR KEWR 250151Z 22007KT 10SM SCT270 08/02 A3017 RMK AO2 SLP216 T00780017,220,2011-11-25 01:51:00<br />
9:51 PM,45.0,34.0,65,30.18,10.0,SW,6.9,-,N/A,,Scattered Clouds,METAR KEWR 250251Z 22006KT 10SM SCT270 07/01 A3018 RMK AO2 SLP219 T00720011 55000,220,2011-11-25 02:51:00<br />
10:51 PM,44.1,34.0,68,30.19,10.0,SW,8.1,-,N/A,,Mostly Cloudy,METAR KEWR 250351Z 23007KT 10SM BKN270 07/01 A3019 RMK AO2 SLP221 T00670011,230,2011-11-25 03:51:00<br />
11:51 PM,43.0,34.0,71,30.18,10.0,SW,8.1,-,N/A,,Scattered Clouds,METAR KEWR 250451Z 22007KT 10SM SCT270 06/01 A3018 RMK AO2 SLP218 T00610011 401390028,220,2011-11-25 04:51:00<br />
