
TimeEDT,TemperatureF,Dew PointF,Humidity,Sea Level PressureIn,VisibilityMPH,Wind Direction,Wind SpeedMPH,Gust SpeedMPH,PrecipitationIn,Events,Conditions,FullMetar,WindDirDegrees,DateUTC<br />
12:51 AM,77.0,62.1,60,29.64,10.0,North,10.4,-,N/A,,Clear,METAR KEWR 090451Z 01009KT 10SM CLR 25/17 A2964 RMK AO2 SLP036 T02500167 403390250,10,2011-08-09 04:51:00<br />
1:51 AM,75.0,64.0,69,29.65,10.0,NNE,8.1,-,N/A,,Partly Cloudy,METAR KEWR 090551Z 02007KT 10SM FEW200 24/18 A2964 RMK AO2 SLP038 T02390178 10294 20239 55002,20,2011-08-09 05:51:00<br />
2:51 AM,73.0,64.9,76,29.64,10.0,NNE,5.8,-,N/A,,Partly Cloudy,METAR KEWR 090651Z 02005KT 10SM FEW200 23/18 A2964 RMK AO2 SLP037 T02280183,20,2011-08-09 06:51:00<br />
3:51 AM,73.4,64.4,73,29.64,10.0,North,5.8,-,N/A,,Partly Cloudy,METAR KEWR 090751Z 36005KT 10SM FEW200 23/18 A2964,360,2011-08-09 07:51:00<br />
4:51 AM,73.0,64.9,76,29.63,10.0,NNE,8.1,-,N/A,,Scattered Clouds,METAR KEWR 090851Z 02007KT 10SM FEW150 SCT250 23/18 A2963 RMK AO2 SLP033 T02280183 58005,20,2011-08-09 08:51:00<br />
5:51 AM,73.0,64.9,76,29.64,10.0,North,8.1,-,N/A,,Scattered Clouds,METAR KEWR 090951Z 01007KT 10SM FEW110 SCT130 23/18 A2964 RMK AO2 SLP037 T02280183,10,2011-08-09 09:51:00<br />
6:51 AM,73.9,66.9,79,29.64,10.0,NE,5.8,-,N/A,,Scattered Clouds,METAR KEWR 091051Z 04005KT 10SM SCT100 SCT130 SCT250 23/19 A2964 RMK AO2 SLP036 T02330194,40,2011-08-09 10:51:00<br />
7:51 AM,78.1,66.9,68,29.65,10.0,Calm,Calm,-,N/A,,Scattered Clouds,METAR KEWR 091151Z 00000KT 10SM FEW100 SCT130 SCT250 26/19 A2965 RMK AO2 SLP039 T02560194 10256 20222 51007,0,2011-08-09 11:51:00<br />
8:51 AM,81.0,64.9,58,29.64,10.0,Calm,Calm,-,N/A,,Mostly Cloudy,METAR KEWR 091251Z 00000KT 10SM FEW150 BKN250 27/18 A2964 RMK AO2 SLP037 T02720183,0,2011-08-09 12:51:00<br />
9:51 AM,82.0,66.9,60,29.64,10.0,Variable,5.8,-,N/A,,Mostly Cloudy,METAR KEWR 091351Z VRB05KT 10SM FEW035 SCT130 BKN250 28/19 A2963 RMK AO2 SLP035 T02780194,0,2011-08-09 13:51:00<br />
10:51 AM,82.4,69.8,66,29.63,10.0,SSE,8.1,-,N/A,,Mostly Cloudy,METAR KEWR 091451Z 15007KT 10SM FEW030 BKN130 28/21 A2963,150,2011-08-09 14:51:00<br />
11:51 AM,82.0,71.1,69,29.63,10.0,SE,8.1,-,N/A,,Mostly Cloudy,METAR KEWR 091551Z 13007KT 10SM SCT025 BKN130 28/22 A2963 RMK AO2 SLP032 T02780217,130,2011-08-09 15:51:00<br />
12:51 PM,82.0,70.0,67,29.60,10.0,SE,6.9,-,N/A,,Overcast,METAR KEWR 091651Z 14006KT 10SM SCT025 BKN055 OVC130 28/21 A2960 RMK AO2 SLP024 T02780211,140,2011-08-09 16:51:00<br />
1:42 PM,80.6,73.4,79,29.58,6.0,ESE,8.1,-,0.00,Rain,Light Rain,SPECI KEWR 091742Z 12007KT 6SM -RA BKN016 BKN060 OVC130 27/23 A2958 RMK AO2 RAB00 BKN016 V SCT P0000,120,2011-08-09 17:42:00<br />
1:47 PM,80.6,73.4,79,29.58,6.0,SE,6.9,-,0.00,Rain,Light Rain,SPECI KEWR 091747Z 13006KT 6SM -RA SCT016 BKN060 OVC130 27/23 A2958 RMK AO2 RAB00 P0000,130,2011-08-09 17:47:00<br />
1:51 PM,80.1,73.0,79,29.58,7.0,ESE,9.2,-,0.00,Rain,Light Rain,METAR KEWR 091751Z 12008KT 7SM -RA SCT016 BKN060 OVC130 27/23 A2958 RMK AO2 RAB00 SLP015 P0000 60000 T02670228 10289 20250 58020,120,2011-08-09 17:51:00<br />
2:07 PM,80.6,73.4,79,29.56,5.0,ESE,8.1,-,0.01,Rain,Light Rain,SPECI KEWR 091807Z 12007KT 5SM -RA SCT015 BKN021 BKN065 OVC130 27/23 A2956 RMK AO2 BKN021 V SCT P0001,120,2011-08-09 18:07:00<br />
2:41 PM,78.8,71.6,78,29.57,2.5,SE,11.5,19.6,0.06,Rain,Rain,SPECI KEWR 091841Z 14010G17KT 2 1/2SM RA FEW012 BKN020 OVC047 26/22 A2957 RMK AO2 P0006,140,2011-08-09 18:41:00<br />
2:51 PM,77.0,72.0,84,29.58,2.0,SE,9.2,20.7,0.09,Rain,Rain,METAR KEWR 091851Z 14008G18KT 2SM R04R/5500VP6000FT RA SCT010 BKN018 OVC045 25/22 A2958 RMK AO2 SLP015 P0009 T02500222,140,2011-08-09 18:51:00<br />
3:10 PM,75.2,71.6,89,29.58,1.2,SE,8.1,-,0.07,Rain,Heavy Rain,SPECI KEWR 091910Z 13007KT 1 1/4SM R04R/5500VP6000FT +RA BR SCT010 BKN015 OVC045 24/22 A2958 RMK AO2 P0007,130,2011-08-09 19:10:00<br />
3:33 PM,75.2,71.6,89,29.57,2.0,SE,3.5,-,0.23,Rain,Light Rain,SPECI KEWR 091933Z 14003KT 2SM -RA BR FEW010 BKN015 OVC045 24/22 A2957 RMK AO2 P0023,140,2011-08-09 19:33:00<br />
3:40 PM,75.2,71.6,89,29.57,2.0,Calm,Calm,-,0.25,Rain-Thunderstorm,Thunderstorms and Rain,SPECI KEWR 091940Z 00000KT 2SM R04R/6000VP6000FT TSRA BR FEW010 BKN015 OVC045CB 24/22 A2957 RMK AO2 TSB40 OCNL LTGICCG VC N TS N MOV NE P0025,0,2011-08-09 19:40:00<br />
3:43 PM,75.2,71.6,89,29.57,2.0,Calm,Calm,-,0.26,Rain-Thunderstorm,Thunderstorms and Rain,SPECI KEWR 091943Z 00000KT 2SM R04R/5500VP6000FT TSRA BR FEW006 BKN015 OVC045CB 24/22 A2957 RMK AO2 TSB40 OCNL LTGICCG VC N TS N MOV NE P0026,0,2011-08-09 19:43:00<br />
3:51 PM,75.9,72.0,87,29.57,2.0,Calm,Calm,-,0.32,Rain-Thunderstorm,Heavy Thunderstorms and Rain,METAR KEWR 091951Z 00000KT 2SM R04R/5500VP6000FT +TSRA BR FEW006 BKN015 OVC045CB 24/22 A2957 RMK AO2 TSB40 SLP012 OCNL LTGICCG VC N TS N MOV NE P0032 T02440222,0,2011-08-09 19:51:00<br />
4:03 PM,75.2,71.6,89,29.56,1.5,Variable,3.5,-,0.06,Rain,Rain,SPECI KEWR 092003Z VRB03KT 1 1/2SM R04R/4500VP6000FT RA BR FEW006 BKN012 OVC035 24/22 A2956 RMK AO2 TSE03 CB DSNT N MOV NE P0006,0,2011-08-09 20:03:00<br />
4:24 PM,75.2,71.6,89,29.55,2.5,Calm,Calm,-,0.23,Rain,Light Rain,SPECI KEWR 092024Z 00000KT 2 1/2SM R04R/6000VP6000FT -RA BR FEW008 BKN015 OVC035 24/22 A2955 RMK AO2 TSE03 P0023,0,2011-08-09 20:24:00<br />
4:31 PM,75.2,73.4,94,29.55,3.0,ESE,5.8,-,0.26,Rain,Heavy Rain,SPECI KEWR 092031Z 12005KT 3SM R04R/5000VP6000FT +RA BR FEW008 BKN015 OVC035 24/23 A2955 RMK AO2 TSE03 P0026,120,2011-08-09 20:31:00<br />
4:51 PM,75.9,73.0,91,29.54,8.0,East,4.6,-,0.31,,Mostly Cloudy,METAR KEWR 092051Z 09004KT 8SM FEW008 BKN015 BKN035 24/23 A2954 RMK AO2 TSE03RAE50 SLP002 P0031 60072 T02440228 58013,90,2011-08-09 20:51:00<br />
5:08 PM,78.8,71.6,78,29.53,9.0,ESE,5.8,-,N/A,,Mostly Cloudy,SPECI KEWR 092108Z 11005KT 9SM FEW008 SCT015 BKN035 26/22 A2953 RMK AO2,110,2011-08-09 21:08:00<br />
5:51 PM,79.0,73.0,82,29.52,10.0,East,3.5,-,N/A,,Overcast,METAR KEWR 092151Z 09003KT 10SM FEW010 SCT020 OVC030 26/23 A2952 RMK AO2 SLP997 T02610228,90,2011-08-09 21:51:00<br />
6:18 PM,78.8,71.6,78,29.52,10.0,SSE,4.6,-,N/A,,Overcast,SPECI KEWR 092218Z 16004KT 10SM FEW010 BKN025 OVC045 26/22 A2952 RMK AO2,160,2011-08-09 22:18:00<br />
6:51 PM,79.0,72.0,79,29.52,10.0,Calm,Calm,-,N/A,,Overcast,METAR KEWR 092251Z 00000KT 10SM FEW010 BKN025 OVC045 26/22 A2951 RMK AO2 SLP994 T02610222,0,2011-08-09 22:51:00<br />
7:26 PM,78.8,71.6,78,29.52,10.0,Calm,Calm,-,N/A,,Mostly Cloudy,SPECI KEWR 092326Z 00000KT 10SM SCT025 BKN140 BKN250 26/22 A2952 RMK AO2,0,2011-08-09 23:26:00<br />
7:51 PM,78.1,71.1,79,29.52,7.0,Calm,Calm,-,N/A,,Mostly Cloudy,METAR KEWR 092351Z 00000KT 7SM SCT025 BKN140 BKN250 26/22 A2952 RMK AO2 SLP996 60072 T02560217 10267 20239 55006,0,2011-08-09 23:51:00<br />
8:51 PM,78.1,72.0,81,29.52,7.0,Calm,Calm,-,N/A,,Mostly Cloudy,METAR KEWR 100051Z 00000KT 7SM SCT025 BKN140 26/22 A2952 RMK AO2 SLP997 T02560222,0,2011-08-10 00:51:00<br />
9:51 PM,77.0,72.0,84,29.52,6.0,SSE,3.5,-,N/A,,Haze,METAR KEWR 100151Z 16003KT 6SM HZ FEW025 SCT140 25/22 A2952 RMK AO2 SLP996 T02500222,160,2011-08-10 01:51:00<br />
10:51 PM,77.0,72.0,84,29.53,6.0,SW,5.8,-,N/A,,Haze,METAR KEWR 100251Z 22005KT 6SM HZ FEW035 SCT140 25/22 A2953 RMK AO2 SLP000 T02500222 53004,220,2011-08-10 02:51:00<br />
11:51 PM,77.0,72.0,84,29.52,6.0,WSW,12.7,-,N/A,,Haze,METAR KEWR 100351Z 24011KT 6SM HZ FEW035 SCT140 25/22 A2952 RMK AO2 SLP997 T02500222,240,2011-08-10 03:51:00<br />
