
TimeEDT,TemperatureF,Dew PointF,Humidity,Sea Level PressureIn,VisibilityMPH,Wind Direction,Wind SpeedMPH,Gust SpeedMPH,PrecipitationIn,Events,Conditions,FullMetar,WindDirDegrees,DateUTC<br />
12:51 AM,43.0,34.0,71,30.35,10.0,NNE,8.1,-,N/A,,Clear,METAR KJFK 020451Z 02007KT 10SM CLR 06/01 A3035 RMK AO2 SLP277 T00610011 401330056,20,2011-11-02 04:51:00<br />
1:51 AM,42.1,35.1,76,30.35,10.0,North,4.6,-,N/A,,Clear,METAR KJFK 020551Z 01004KT 10SM CLR 06/02 A3035 RMK AO2 SLP277 T00560017 10100 20050 58001,10,2011-11-02 05:51:00<br />
2:51 AM,41.0,35.1,79,30.35,10.0,North,5.8,-,N/A,,Clear,METAR KJFK 020651Z 01005KT 10SM CLR 05/02 A3035 RMK AO2 SLP278 T00500017,10,2011-11-02 06:51:00<br />
3:51 AM,41.0,35.1,79,30.36,10.0,North,3.5,-,N/A,,Clear,METAR KJFK 020751Z 36003KT 10SM CLR 05/02 A3036 RMK AO2 SLP280 T00500017,360,2011-11-02 07:51:00<br />
4:51 AM,39.0,34.0,82,30.38,10.0,North,3.5,-,N/A,,Clear,METAR KJFK 020851Z 01003KT 10SM CLR 04/01 A3038 RMK AO2 SLP287 T00390011 53010,10,2011-11-02 08:51:00<br />
5:51 AM,39.9,35.1,83,30.40,10.0,North,3.5,-,N/A,,Clear,METAR KJFK 020951Z 36003KT 10SM CLR 04/02 A3040 RMK AO2 SLP293 T00440017,360,2011-11-02 09:51:00<br />
6:51 AM,41.0,35.1,79,30.41,10.0,North,4.6,-,N/A,,Clear,METAR KJFK 021051Z 36004KT 10SM CLR 05/02 A3041 RMK AO2 SLP297 T00500017,360,2011-11-02 10:51:00<br />
7:51 AM,41.0,36.0,82,30.43,10.0,North,3.5,-,N/A,,Clear,METAR KJFK 021151Z 35003KT 10SM CLR 05/02 A3042 RMK AO2 SLP302 T00500022 10061 20033 51014,350,2011-11-02 11:51:00<br />
8:51 AM,46.0,39.0,76,30.43,10.0,Calm,Calm,-,N/A,,Clear,METAR KJFK 021251Z 00000KT 10SM CLR 08/04 A3043 RMK AO2 SLP305 T00780039,0,2011-11-02 12:51:00<br />
9:51 AM,48.9,37.9,66,30.43,10.0,ENE,4.6,-,N/A,,Clear,METAR KJFK 021351Z 06004KT 10SM CLR 09/03 A3043 RMK AO2 SLP302 T00940033,60,2011-11-02 13:51:00<br />
10:51 AM,52.0,36.0,54,30.42,10.0,Calm,Calm,-,N/A,,Scattered Clouds,METAR KJFK 021451Z 00000KT 10SM FEW040 SCT120 11/02 A3042 RMK AO2 SLP301 T01110022 58001,0,2011-11-02 14:51:00<br />
11:51 AM,54.0,35.1,49,30.41,10.0,West,4.6,-,N/A,,Partly Cloudy,METAR KJFK 021551Z 28004KT 10SM FEW250 12/02 A3041 RMK AO2 SLP296 T01220017,280,2011-11-02 15:51:00<br />
12:51 PM,55.9,35.1,45,30.38,10.0,West,3.5,-,N/A,,Partly Cloudy,METAR KJFK 021651Z 26003KT 10SM FEW250 13/02 A3038 RMK AO2 SLP286 T01330017,260,2011-11-02 16:51:00<br />
1:51 PM,55.0,37.0,51,30.36,10.0,SW,9.2,-,N/A,,Partly Cloudy,METAR KJFK 021751Z 22008KT 10SM FEW250 13/03 A3036 RMK AO2 SLP280 T01280028 10133 20050 58021,220,2011-11-02 17:51:00<br />
2:51 PM,55.0,37.0,51,30.34,10.0,SSW,8.1,-,N/A,,Partly Cloudy,METAR KJFK 021851Z 21007KT 10SM FEW250 13/03 A3034 RMK AO2 SLP274 T01280028,210,2011-11-02 18:51:00<br />
3:51 PM,55.0,37.0,51,30.33,10.0,SSW,9.2,-,N/A,,Partly Cloudy,METAR KJFK 021951Z 21008KT 10SM FEW250 13/03 A3033 RMK AO2 SLP269 T01280028,210,2011-11-02 19:51:00<br />
4:51 PM,53.1,37.0,55,30.32,10.0,South,8.1,-,N/A,,Partly Cloudy,METAR KJFK 022051Z 19007KT 10SM FEW250 12/03 A3031 RMK AO2 SLP265 T01170028 56015,190,2011-11-02 20:51:00<br />
5:51 PM,51.1,37.0,59,30.30,10.0,SSE,5.8,-,N/A,,Scattered Clouds,METAR KJFK 022151Z 16005KT 10SM SCT250 11/03 A3030 RMK AO2 SLP261 T01060028,160,2011-11-02 21:51:00<br />
6:51 PM,48.9,37.9,66,30.32,10.0,SSW,5.8,-,N/A,,Scattered Clouds,METAR KJFK 022251Z 20005KT 10SM SCT250 09/03 A3032 RMK AO2 SLP266 T00940033,200,2011-11-02 22:51:00<br />
7:51 PM,48.0,39.0,71,30.32,10.0,South,5.8,-,N/A,,Scattered Clouds,METAR KJFK 022351Z 19005KT 10SM SCT250 09/04 A3031 RMK AO2 SLP265 T00890039 10128 20083 55000,190,2011-11-02 23:51:00<br />
8:51 PM,48.0,39.9,74,30.31,10.0,SSW,5.8,-,N/A,,Scattered Clouds,METAR KJFK 030051Z 20005KT 10SM SCT250 09/04 A3031 RMK AO2 SLP262 T00890044,200,2011-11-03 00:51:00<br />
9:51 PM,46.9,39.9,77,30.30,10.0,SW,6.9,-,N/A,,Scattered Clouds,METAR KJFK 030151Z 23006KT 10SM SCT250 08/04 A3030 RMK AO2 SLP260 T00830044,230,2011-11-03 01:51:00<br />
10:51 PM,48.0,42.1,80,30.30,10.0,WSW,5.8,-,N/A,,Partly Cloudy,METAR KJFK 030251Z 25005KT 10SM FEW250 09/06 A3030 RMK AO2 SLP258 T00890056 56006,250,2011-11-03 02:51:00<br />
11:51 PM,46.9,41.0,80,30.28,10.0,WSW,5.8,-,N/A,,Scattered Clouds,METAR KJFK 030351Z 25005KT 10SM SCT250 08/05 A3028 RMK AO2 SLP252 T00830050,250,2011-11-03 03:51:00<br />
