
TimeEST,TemperatureF,Dew PointF,Humidity,Sea Level PressureIn,VisibilityMPH,Wind Direction,Wind SpeedMPH,Gust SpeedMPH,PrecipitationIn,Events,Conditions,FullMetar,WindDirDegrees,DateUTC<br />
12:51 AM,30.9,28.0,89,29.55,0.1,North,21.9,-,0.17,Fog-Snow,Heavy Snow,METAR KJFK 270551Z 36019KT 1/8SM R04R/1000V1200FT +SN FZFG VV004 M01/M02 A2955 RMK AO2 PK WND 36026/0512 SFC VIS 1/4 SLP004 SNINCR 2/9 PRESENT WX DRSN 4/009 P0017 60046 T10061022 10011 21006 53012 $,360,2011-01-27 05:51:00<br />
1:42 AM,30.2,28.4,93,29.56,0.1,North,19.6,-,0.15,Fog-Snow,Snow,SPECI KJFK 270642Z COR 35017KT 1/8SM R04R/2000V2800FT SN FZFG VV004 M01/M02 A2956 RMK AO2 SFC VIS 1/2 P0015 $,350,2011-01-27 06:42:00<br />
1:46 AM,30.2,28.4,93,29.56,0.1,North,19.6,-,0.15,Fog-Snow,Snow,SPECI KJFK 270646Z 35017KT 1/8SM R04R/2200V3000FT SN FZFG VV005 M01/M02 A2956 RMK AO2 SFC VIS 1/2 P0015 $,350,2011-01-27 06:46:00<br />
1:51 AM,30.9,28.0,89,29.57,0.1,North,18.4,-,0.16,Fog-Snow,Snow,METAR KJFK 270651Z 35016KT 1/8SM R04R/2800V4000FT SN FZFG VV006 M01/M02 A2957 RMK AO2 SFC VIS 1/2 SLP011 SNINCR 2/11 PRESENT WX DRSN P0016 T10061022 $,350,2011-01-27 06:51:00<br />
2:51 AM,30.0,28.0,92,29.60,0.5,NNW,18.4,-,0.03,Fog-Snow,Light Snow,METAR KJFK 270751Z 34016KT 1/2SM R04R/5000V6000FT -SN FZFG BLSN OVC007 M01/M02 A2960 RMK AO2 PK WND 35027/0733 SFC VIS 3/4 SLP022 P0003 T10111022 $,340,2011-01-27 07:51:00<br />
3:51 AM,30.0,28.0,92,29.66,0.5,NNW,18.4,-,0.02,Snow,Light Snow,METAR KJFK 270851Z 33016KT 1/2SM R04R/P6000FT -SN BR BLSN OVC008 M01/M02 A2966 RMK AO2 SFC VIS 1 SLP042 P0002 60021 T10111022 53031 $,330,2011-01-27 08:51:00<br />
4:13 AM,30.2,28.4,93,29.67,1.5,NW,17.3,-,0.01,Snow,Light Snow,SPECI KJFK 270913Z 32015KT 1 1/2SM -SN BR OVC011 M01/M02 A2967 RMK AO2 PRESENT WX DRSN P0001 $,320,2011-01-27 09:13:00<br />
4:45 AM,30.2,28.4,93,29.69,4.0,NNW,16.1,-,0.01,Snow,Light Snow,SPECI KJFK 270945Z 33014KT 4SM -SN BR FEW011 OVC024 M01/M02 A2969 RMK AO2 P0001 $,330,2011-01-27 09:45:00<br />
4:51 AM,30.9,28.0,89,29.69,5.0,NNW,12.7,-,0.01,Snow,Light Snow,METAR KJFK 270951Z 33011KT 5SM -SN BR FEW013 OVC026 M01/M02 A2969 RMK AO2 SLP053 P0001 T10061022 $,330,2011-01-27 09:51:00<br />
5:13 AM,30.2,28.4,93,29.70,10.0,NNW,10.4,-,0.00,,Overcast,SPECI KJFK 271013Z 33009KT 10SM FEW014 BKN036 OVC095 M01/M02 A2970 RMK AO2 SNE0958 P0000 $,330,2011-01-27 10:13:00<br />
5:51 AM,30.9,27.0,85,29.72,10.0,NW,11.5,-,0.00,,Overcast,METAR KJFK 271051Z 31010KT 10SM FEW014 OVC040 M01/M03 A2972 RMK AO2 SNE0958 SLP062 P0000 T10061028 $,310,2011-01-27 10:51:00<br />
6:51 AM,32.0,23.0,69,29.73,10.0,NW,11.5,-,N/A,,Overcast,METAR KJFK 271151Z 32010KT 10SM OVC042 00/M05 A2973 RMK AO2 SLP068 4/012 60022 70092 T00001050 10000 21011 53016 $,320,2011-01-27 11:51:00<br />
7:51 AM,32.0,21.0,64,29.78,10.0,West,9.2,-,N/A,,Scattered Clouds,METAR KJFK 271251Z 28008KT 10SM SCT044 00/M06 A2978 RMK AO2 SLP084 T00001061 $,280,2011-01-27 12:51:00<br />
8:51 AM,34.0,23.0,64,29.80,10.0,WNW,12.7,-,N/A,,Mostly Cloudy,METAR KJFK 271351Z 29011KT 10SM BKN039 01/M05 A2980 RMK AO2 SLP090 T00111050 $,290,2011-01-27 13:51:00<br />
9:51 AM,34.0,21.9,61,29.79,10.0,NW,18.4,-,N/A,,Mostly Cloudy,METAR KJFK 271451Z 32016KT 10SM SCT037 BKN046 01/M06 A2979 RMK AO2 SLP087 T00111056 50019 $,320,2011-01-27 14:51:00<br />
10:51 AM,35.1,21.9,59,29.81,10.0,WNW,17.3,23.0,N/A,,Mostly Cloudy,METAR KJFK 271551Z 29015G20KT 10SM FEW040 BKN047 BKN250 02/M06 A2981 RMK AO2 SLP094 T00171056 $,290,2011-01-27 15:51:00<br />
11:51 AM,35.1,21.0,57,29.81,10.0,WNW,12.7,20.7,N/A,,Mostly Cloudy,METAR KJFK 271651Z 30011G18KT 10SM BKN042 BKN055 BKN250 02/M06 A2980 RMK AO2 SLP092 T00171061 $,300,2011-01-27 16:51:00<br />
12:51 PM,35.1,19.9,54,29.79,10.0,NW,21.9,28.8,N/A,,Mostly Cloudy,METAR KJFK 271751Z 31019G25KT 10SM BKN046 BKN250 02/M07 A2979 RMK AO2 SLP086 VCSH NE 4/012 933018 T00171067 10022 21006 58001,310,2011-01-27 17:51:00<br />
1:51 PM,36.0,21.0,55,29.79,10.0,NW,11.5,-,N/A,,Mostly Cloudy,METAR KJFK 271851Z 31010KT 10SM BKN044 BKN080 BKN250 02/M06 A2979 RMK AO2 SLP088 T00221061,310,2011-01-27 18:51:00<br />
2:51 PM,36.0,19.9,52,29.80,10.0,WNW,15.0,-,N/A,,Mostly Cloudy,METAR KJFK 271951Z 30013KT 10SM BKN050 BKN080 02/M07 A2980 RMK AO2 SLP090 T00221067,300,2011-01-27 19:51:00<br />
3:51 PM,36.0,19.0,50,29.81,10.0,WNW,12.7,-,N/A,,Mostly Cloudy,METAR KJFK 272051Z 30011KT 10SM BKN050 02/M07 A2981 RMK AO2 SLP093 T00221072 53006,300,2011-01-27 20:51:00<br />
4:51 PM,36.0,18.0,48,29.82,10.0,WNW,13.8,19.6,N/A,,Mostly Cloudy,METAR KJFK 272151Z 30012G17KT 10SM BKN050 BKN250 02/M08 A2982 RMK AO2 SLP097 T00221078,300,2011-01-27 21:51:00<br />
5:51 PM,34.0,16.0,48,29.84,10.0,NW,10.4,-,N/A,,Mostly Cloudy,METAR KJFK 272251Z 31009KT 10SM BKN055 01/M09 A2984 RMK AO2 SLP103 T00111089,310,2011-01-27 22:51:00<br />
6:51 PM,34.0,17.1,50,29.86,10.0,West,5.8,-,N/A,,Mostly Cloudy,METAR KJFK 272351Z 27005KT 10SM BKN055 01/M08 A2986 RMK AO2 SLP109 4/011 T00111083 10028 21006 53017,270,2011-01-27 23:51:00<br />
7:51 PM,30.0,21.0,69,29.87,10.0,WSW,8.1,-,N/A,,Mostly Cloudy,METAR KJFK 280051Z 25007KT 10SM BKN055 M01/M06 A2987 RMK AO2 SLP113 T10111061,250,2011-01-28 00:51:00<br />
8:51 PM,30.0,21.0,69,29.88,10.0,WSW,9.2,-,N/A,,Scattered Clouds,METAR KJFK 280151Z 25008KT 10SM SCT055 SCT250 M01/M06 A2988 RMK AO2 SLP117 T10111061,250,2011-01-28 01:51:00<br />
9:51 PM,28.0,21.0,75,29.88,10.0,WSW,8.1,-,N/A,,Mostly Cloudy,METAR KJFK 280251Z 25007KT 10SM FEW055 BKN250 M02/M06 A2988 RMK AO2 SLP118 T10221061 51009,250,2011-01-28 02:51:00<br />
10:51 PM,27.0,19.9,75,29.89,10.0,WSW,9.2,-,N/A,,Mostly Cloudy,METAR KJFK 280351Z 25008KT 10SM FEW055 BKN250 M03/M07 A2989 RMK AO2 SLP120 T10281067 $,250,2011-01-28 03:51:00<br />
11:51 PM,28.9,21.9,75,29.88,10.0,West,5.8,-,N/A,,Mostly Cloudy,METAR KJFK 280451Z 26005KT 10SM FEW055 BKN250 M02/M06 A2988 RMK AO2 SLP117 T10171056 400281033 $,260,2011-01-28 04:51:00<br />
