
TimeEST,TemperatureF,Dew PointF,Humidity,Sea Level PressureIn,VisibilityMPH,Wind Direction,Wind SpeedMPH,Gust SpeedMPH,PrecipitationIn,Events,Conditions,FullMetar,WindDirDegrees,DateUTC<br />
12:51 AM,37.9,19.0,47,29.87,10.0,NW,27.6,39.1,N/A,,Mostly Cloudy,METAR KJFK 150551Z 32024G34KT 10SM BKN048 03/M07 A2987 RMK AO2 PK WND 32041/0458 SLP114 60000 T00331072 10094 20033 51045,320,2011-02-15 05:51:00<br />
1:51 AM,36.0,18.0,48,29.92,10.0,NW,20.7,36.8,N/A,,Overcast,METAR KJFK 150651Z 31018G32KT 10SM OVC046 02/M08 A2992 RMK AO2 PK WND 32032/0643 SLP131 T00221078,310,2011-02-15 06:51:00<br />
2:51 AM,34.0,12.9,42,29.96,10.0,NNW,25.3,40.3,N/A,,Partly Cloudy,METAR KJFK 150751Z 33022G35KT 10SM FEW048 01/M11 A2995 RMK AO2 PK WND 32038/0738 SLP143 T00111106,330,2011-02-15 07:51:00<br />
3:51 AM,32.0,10.0,40,30.01,10.0,NNW,35.7,42.6,N/A,,Partly Cloudy,METAR KJFK 150851Z 33031G37KT 10SM FEW048 00/M12 A3000 RMK AO2 PK WND 34037/0851 SLP160 T00001122 52045,330,2011-02-15 08:51:00<br />
4:51 AM,30.0,8.1,40,30.04,10.0,NW,32.2,43.7,N/A,,Partly Cloudy,METAR KJFK 150951Z 32028G38KT 10SM FEW050 M01/M13 A3004 RMK AO2 PK WND 32041/0852 SLP173 T10111133,320,2011-02-15 09:51:00<br />
5:51 AM,28.9,6.1,38,30.10,10.0,NW,28.8,39.1,N/A,,Clear,METAR KJFK 151051Z 32025G34KT 10SM CLR M02/M14 A3010 RMK AO2 PK WND 32039/1039 SLP191 T10171144,320,2011-02-15 10:51:00<br />
6:51 AM,28.0,5.0,38,30.14,10.0,NNW,26.5,41.4,N/A,,Partly Cloudy,METAR KJFK 151151Z 33023G36KT 10SM FEW250 M02/M15 A3014 RMK AO2 PK WND 33038/1106 SLP205 T10221150 10033 21022 51045,330,2011-02-15 11:51:00<br />
7:51 AM,28.0,3.9,36,30.19,10.0,NNW,31.1,38.0,N/A,,Partly Cloudy,METAR KJFK 151251Z 34027G33KT 10SM FEW250 M02/M16 A3019 RMK AO2 PK WND 33035/1225 SLP223 T10221156,340,2011-02-15 12:51:00<br />
8:51 AM,28.9,3.0,33,30.22,10.0,NNW,20.7,28.8,N/A,,Clear,METAR KJFK 151351Z 34018G25KT 10SM CLR M02/M16 A3022 RMK AO2 PK WND 36030/1340 SLP234 T10171161,340,2011-02-15 13:51:00<br />
9:51 AM,30.9,-0.0,27,30.26,10.0,North,19.6,31.1,N/A,,Partly Cloudy,METAR KJFK 151451Z 35017G27KT 10SM FEW250 M01/M18 A3026 RMK AO2 PK WND 33028/1424 SLP245 T10061178 51040,350,2011-02-15 14:51:00<br />
10:51 AM,32.0,-0.9,24,30.30,10.0,NW,17.3,-,N/A,,Clear,METAR KJFK 151551Z 32015KT 10SM CLR 00/M18 A3030 RMK AO2 PK WND 33027/1505 SLP259 T00001183,320,2011-02-15 15:51:00<br />
11:51 AM,33.1,-4.0,20,30.31,10.0,NNW,19.6,29.9,N/A,,Partly Cloudy,METAR KJFK 151651Z 34017G26KT 10SM FEW250 01/M20 A3031 RMK AO2 PK WND 34026/1646 SLP264 T00061200,340,2011-02-15 16:51:00<br />
12:51 PM,35.1,-2.9,20,30.31,10.0,NW,17.3,23.0,N/A,,Partly Cloudy,METAR KJFK 151751Z 31015G20KT 10SM FEW250 02/M19 A3031 RMK AO2 PK WND 34027/1659 SLP264 T00171194 10017 21028 51020,310,2011-02-15 17:51:00<br />
1:51 PM,35.1,-4.0,19,30.32,10.0,WNW,11.5,25.3,N/A,,Partly Cloudy,METAR KJFK 151851Z 30010G22KT 10SM FEW250 02/M20 A3032 RMK AO2 SLP266 T00171200,300,2011-02-15 18:51:00<br />
2:51 PM,37.0,-6.0,16,30.34,10.0,NW,19.6,26.5,N/A,,Partly Cloudy,METAR KJFK 151951Z 32017G23KT 10SM FEW250 03/M21 A3034 RMK AO2 SLP272 T00281211,320,2011-02-15 19:51:00<br />
3:51 PM,37.0,-6.0,16,30.35,10.0,NNW,16.1,-,N/A,,Partly Cloudy,METAR KJFK 152051Z 34014KT 10SM FEW250 03/M21 A3035 RMK AO2 SLP278 T00281211 53014,340,2011-02-15 20:51:00<br />
4:51 PM,35.1,-4.0,19,30.37,10.0,NW,15.0,23.0,N/A,,Partly Cloudy,METAR KJFK 152151Z 31013G20KT 10SM FEW250 02/M20 A3037 RMK AO2 SLP284 T00171200,310,2011-02-15 21:51:00<br />
5:51 PM,33.1,-4.0,20,30.40,10.0,NW,10.4,-,N/A,,Partly Cloudy,METAR KJFK 152251Z 31009KT 10SM FEW250 01/M20 A3040 RMK AO2 SLP292 T00061200,310,2011-02-15 22:51:00<br />
6:51 PM,33.1,-4.0,20,30.41,10.0,NW,16.1,25.3,N/A,,Partly Cloudy,METAR KJFK 152351Z 32014G22KT 10SM FEW250 01/M20 A3041 RMK AO2 SLP297 T00061200 10028 20000 51019,320,2011-02-15 23:51:00<br />
7:51 PM,30.9,-4.0,22,30.42,10.0,NW,11.5,-,N/A,,Partly Cloudy,METAR KJFK 160051Z 32010KT 10SM FEW250 M01/M20 A3042 RMK AO2 SLP301 T10061200,320,2011-02-16 00:51:00<br />
8:51 PM,30.9,-2.9,23,30.42,10.0,NNW,12.7,-,N/A,,Partly Cloudy,METAR KJFK 160151Z 33011KT 10SM FEW250 M01/M19 A3042 RMK AO2 SLP301 T10061194,330,2011-02-16 01:51:00<br />
9:51 PM,28.9,-2.0,26,30.41,10.0,NNW,9.2,-,N/A,,Partly Cloudy,METAR KJFK 160251Z 34008KT 10SM FEW250 M02/M19 A3041 RMK AO2 SLP297 T10171189 58000,340,2011-02-16 02:51:00<br />
10:51 PM,28.0,-0.9,29,30.42,10.0,NNW,9.2,-,N/A,,Partly Cloudy,METAR KJFK 160351Z 33008KT 10SM FEW250 M02/M18 A3042 RMK AO2 SLP301 T10221183,330,2011-02-16 03:51:00<br />
11:51 PM,28.0,-0.9,29,30.43,10.0,WNW,5.8,-,N/A,,Scattered Clouds,METAR KJFK 160451Z 29005KT 10SM SCT250 M02/M18 A3043 RMK AO2 SLP302 T10221183 400331028,290,2011-02-16 04:51:00<br />
