
TimeEDT,TemperatureF,Dew PointF,Humidity,Sea Level PressureIn,VisibilityMPH,Wind Direction,Wind SpeedMPH,Gust SpeedMPH,PrecipitationIn,Events,Conditions,FullMetar,WindDirDegrees,DateUTC<br />
12:51 AM,75.2,64.4,69,30.06,10.0,SW,10.4,-,N/A,,Clear,METAR KJFK 180451Z 23009KT 10SM CLR 24/18 A3006,230,2011-07-18 04:51:00<br />
1:51 AM,73.0,64.9,76,30.04,10.0,SW,8.1,-,N/A,,Clear,METAR KJFK 180551Z 22007KT 10SM CLR 23/18 A3004 RMK AO2 SLP173 T02280183 10250 20228 58013,220,2011-07-18 05:51:00<br />
2:51 AM,72.0,64.9,78,30.02,10.0,SSW,8.1,-,N/A,,Clear,METAR KJFK 180651Z 21007KT 10SM CLR 22/18 A3002 RMK AO2 SLP166 T02220183,210,2011-07-18 06:51:00<br />
3:51 AM,72.0,66.0,81,30.01,10.0,SW,8.1,-,N/A,,Clear,METAR KJFK 180751Z 22007KT 10SM CLR 22/19 A3001 RMK AO2 SLP162 T02220189,220,2011-07-18 07:51:00<br />
4:51 AM,73.9,66.9,79,30.03,10.0,WSW,12.7,-,N/A,,Clear,METAR KJFK 180851Z 25011KT 10SM CLR 23/19 A3003 RMK AO2 SLP167 T02330194 55006,250,2011-07-18 08:51:00<br />
5:51 AM,73.9,66.9,79,30.02,10.0,WSW,12.7,-,N/A,,Scattered Clouds,METAR KJFK 180951Z 24011KT 10SM FEW140 SCT250 23/19 A3002 RMK AO2 SLP165 T02330194,240,2011-07-18 09:51:00<br />
6:51 AM,75.0,68.0,79,30.02,10.0,WSW,11.5,-,N/A,,Scattered Clouds,METAR KJFK 181051Z 24010KT 10SM FEW140 SCT250 24/20 A3002 RMK AO2 SLP166 T02390200,240,2011-07-18 10:51:00<br />
7:51 AM,77.0,68.0,74,30.02,10.0,SW,15.0,-,N/A,,Scattered Clouds,METAR KJFK 181151Z 23013KT 10SM FEW140 SCT250 25/20 A3002 RMK AO2 SLP164 T02500200 10250 20222 58003,230,2011-07-18 11:51:00<br />
8:51 AM,79.0,69.1,72,30.01,10.0,WSW,17.3,-,N/A,,Partly Cloudy,METAR KJFK 181251Z 24015KT 10SM FEW250 26/21 A3000 RMK AO2 SLP160 T02610206,240,2011-07-18 12:51:00<br />
9:51 AM,82.9,68.0,60,29.99,10.0,SW,16.1,-,N/A,,Partly Cloudy,METAR KJFK 181351Z 23014KT 10SM FEW250 28/20 A2998 RMK AO2 SLP153 T02830200,230,2011-07-18 13:51:00<br />
10:51 AM,87.1,68.0,53,29.98,10.0,SW,15.0,-,N/A,,Scattered Clouds,METAR KJFK 181451Z 23013KT 10SM FEW140 SCT250 31/20 A2998 RMK AO2 SLP152 T03060200 56012,230,2011-07-18 14:51:00<br />
11:51 AM,89.1,68.0,50,29.97,10.0,WSW,16.1,-,N/A,,Scattered Clouds,METAR KJFK 181551Z 24014KT 10SM FEW055 SCT140 SCT250 32/20 A2997 RMK AO2 SLP147 T03170200,240,2011-07-18 15:51:00<br />
12:51 PM,91.9,66.9,44,29.94,10.0,SW,20.7,24.2,N/A,,Scattered Clouds,METAR KJFK 181651Z 23018G21KT 10SM FEW060 SCT140 SCT250 33/19 A2994 RMK AO2 SLP138 T03330194,230,2011-07-18 16:51:00<br />
1:51 PM,90.0,68.0,48,29.92,10.0,SSW,15.0,-,N/A,,Mostly Cloudy,METAR KJFK 181751Z 20013KT 10SM FEW060 SCT140 BKN250 32/20 A2992 RMK AO2 SLP130 T03220200 10344 20250 58022,200,2011-07-18 17:51:00<br />
2:51 PM,90.0,68.0,48,29.88,10.0,South,16.1,-,N/A,,Mostly Cloudy,METAR KJFK 181851Z 19014KT 10SM FEW065 SCT140 BKN250 32/20 A2988 RMK AO2 SLP119 T03220200,190,2011-07-18 18:51:00<br />
3:51 PM,84.0,68.0,58,29.87,10.0,South,16.1,-,N/A,,Overcast,METAR KJFK 181951Z 19014KT 10SM SCT070 BKN140 OVC250 29/20 A2987 RMK AO2 SLP114 T02890200,190,2011-07-18 19:51:00<br />
4:51 PM,82.0,68.0,62,29.85,10.0,South,13.8,-,N/A,,Overcast,METAR KJFK 182051Z 19012KT 10SM SCT070 BKN140 OVC250 28/20 A2985 RMK AO2 SLP108 T02780200 56023,190,2011-07-18 20:51:00<br />
5:51 PM,84.9,69.1,59,29.83,10.0,SSW,11.5,-,N/A,,Mostly Cloudy,METAR KJFK 182151Z 20010KT 10SM FEW065 BKN140 BKN250 29/21 A2983 RMK AO2 SLP100 TCU DSNT NE T02940206,200,2011-07-18 21:51:00<br />
6:51 PM,84.9,69.1,59,29.83,10.0,SW,12.7,-,N/A,,Mostly Cloudy,METAR KJFK 182251Z 22011KT 10SM FEW065 SCT095 BKN140 BKN250 29/21 A2983 RMK AO2 SLP100 T02940206,220,2011-07-18 22:51:00<br />
7:51 PM,84.9,69.1,59,29.84,10.0,ENE,4.6,-,N/A,,Mostly Cloudy,METAR KJFK 182351Z 07004KT 10SM BKN070 BKN140 BKN250 29/21 A2984 RMK AO2 SLP105 T02940206 10328 20272 55003,70,2011-07-18 23:51:00<br />
8:51 PM,80.1,71.1,74,29.84,10.0,East,8.1,-,N/A,,Mostly Cloudy,METAR KJFK 190051Z 09007KT 10SM SCT050 SCT075 BKN120 BKN250 27/22 A2984 RMK AO2 SLP104 OCNL LTGIC DSNT W CB DSNT W T02670217,90,2011-07-19 00:51:00<br />
9:22 PM,78.8,71.6,78,29.86,10.0,East,4.6,-,N/A,Thunderstorm,Thunderstorm,SPECI KJFK 190122Z 09004KT 10SM TS SCT050CB SCT080 BKN140 BKN250 26/22 A2986 RMK AO2 TSB22 PRESRR OCNL LTGICCG S-W TS S-W MOV SE,90,2011-07-19 01:22:00<br />
9:47 PM,78.8,71.6,78,29.85,9.0,Calm,Calm,-,0.00,Rain,Light Rain,SPECI KJFK 190147Z 00000KT 9SM -RA BKN048 OVC080 26/22 A2985 RMK AO2 TSB22E47RAB31 P0000,0,2011-07-19 01:47:00<br />
9:51 PM,79.0,72.0,79,29.86,9.0,East,3.5,-,0.00,Rain,Light Rain,METAR KJFK 190151Z 10003KT 9SM -RA BKN048 OVC080 26/22 A2985 RMK AO2 TSB22E47RAB31 SLP109 P0000 T02610222,100,2011-07-19 01:51:00<br />
10:51 PM,80.1,71.1,74,29.85,10.0,ENE,3.5,-,0.00,,Overcast,METAR KJFK 190251Z 06003KT 10SM FEW050 OVC130 27/22 A2985 RMK AO2 RAE09B29E47 SLP107 P0000 60000 T02670217 50002,60,2011-07-19 02:51:00<br />
11:51 PM,78.1,73.0,84,29.85,10.0,East,6.9,-,0.00,,Overcast,METAR KJFK 190351Z 08006KT 10SM FEW050 BKN080 OVC130 26/23 A2985 RMK AO2 RAB05E50 SLP107 P0000 T02560228,80,2011-07-19 03:51:00<br />
