
TimeEST,TemperatureF,Dew PointF,Humidity,Sea Level PressureIn,VisibilityMPH,Wind Direction,Wind SpeedMPH,Gust SpeedMPH,PrecipitationIn,Events,Conditions,FullMetar,WindDirDegrees,DateUTC<br />
12:51 AM,37.0,28.9,73,30.12,9.0,Calm,Calm,-,N/A,,Mostly Cloudy,METAR KEWR 170551Z 00000KT 9SM SCT150 BKN250 03/M02 A3012 RMK AO2 SLP199 T00281017 10078 20022 56011,0,2010-01-17 05:51:00<br />
1:51 AM,36.0,28.0,73,30.11,9.0,Calm,Calm,-,N/A,,Overcast,METAR KEWR 170651Z 00000KT 9SM SCT140 OVC250 02/M02 A3011 RMK AO2 SLP196 T00221022,0,2010-01-17 06:51:00<br />
2:51 AM,36.0,28.9,76,30.12,8.0,Calm,Calm,-,N/A,,Mostly Cloudy,METAR KEWR 170751Z 00000KT 8SM SCT140 BKN250 02/M02 A3012 RMK AO2 SLP197 T00221017,0,2010-01-17 07:51:00<br />
3:51 AM,34.0,27.0,75,30.12,9.0,Calm,Calm,-,N/A,,Mostly Cloudy,METAR KEWR 170851Z 00000KT 9SM SCT140 BKN250 01/M03 A3012 RMK AO2 SLP200 T00111028 53000,0,2010-01-17 08:51:00<br />
4:51 AM,32.0,26.1,79,30.10,8.0,North,4.6,-,N/A,,Overcast,METAR KEWR 170951Z 01004KT 8SM SCT140 OVC250 00/M03 A3010 RMK AO2 SLP192 T00001033,10,2010-01-17 09:51:00<br />
5:51 AM,34.0,28.0,79,30.10,8.0,NNE,6.9,-,N/A,,Overcast,METAR KEWR 171051Z 03006KT 8SM SCT140 OVC250 01/M02 A3010 RMK AO2 SLP191 T00111022,30,2010-01-17 10:51:00<br />
6:51 AM,34.0,27.0,75,30.10,8.0,NNE,6.9,-,N/A,,Overcast,METAR KEWR 171151Z 03006KT 8SM FEW090 SCT140 OVC250 01/M03 A3010 RMK AO2 SLP191 T00111028 10028 21006 55008,30,2010-01-17 11:51:00<br />
7:51 AM,35.1,27.0,72,30.11,9.0,NE,6.9,-,N/A,,Overcast,METAR KEWR 171251Z 04006KT 9SM BKN150 OVC250 02/M03 A3011 RMK AO2 SLP196 T00171028,40,2010-01-17 12:51:00<br />
8:51 AM,36.0,27.0,70,30.11,8.0,NNE,8.1,-,N/A,,Overcast,METAR KEWR 171351Z 02007KT 8SM BKN150 OVC250 02/M03 A3011 RMK AO2 SLP196 T00221028,20,2010-01-17 13:51:00<br />
9:51 AM,37.0,28.0,70,30.10,8.0,NNE,8.1,-,N/A,,Overcast,METAR KEWR 171451Z 02007KT 8SM FEW090 OVC150 03/M02 A3010 RMK AO2 SLP192 T00281022 50001,20,2010-01-17 14:51:00<br />
10:51 AM,39.9,28.0,63,30.07,8.0,NE,8.1,-,N/A,,Overcast,METAR KEWR 171551Z 05007KT 8SM SCT090 BKN110 OVC150 04/M02 A3007 RMK AO2 SLP181 T00441022,50,2010-01-17 15:51:00<br />
11:51 AM,41.0,28.9,62,30.03,8.0,NE,6.9,-,N/A,,Overcast,METAR KEWR 171651Z 05006KT 8SM BKN080 OVC130 05/M02 A3003 RMK AO2 SLP168 T00501017,50,2010-01-17 16:51:00<br />
12:31 PM,39.2,30.2,70,30.00,2.5,NE,8.1,-,0.02,Rain,Light Rain,SPECI KEWR 171731Z 05007KT 2 1/2SM -RA OVC040 04/M01 A3000 RMK AO2 RAB01 P0002,50,2010-01-17 17:31:00<br />
12:51 PM,39.0,30.9,73,29.99,2.0,NE,9.2,-,0.05,Rain,Light Rain,METAR KEWR 171751Z 04008KT 2SM -RA OVC035 04/M01 A2999 RMK AO2 RAB01 SLP153 P0005 60005 T00391006 10050 20011 58039,40,2010-01-17 17:51:00<br />
1:24 PM,39.2,32.0,75,29.96,2.0,NE,11.5,-,0.07,Rain,Light Rain,SPECI KEWR 171824Z 05010KT 2SM -RA OVC029 04/00 A2996 RMK AO2 P0007,50,2010-01-17 18:24:00<br />
1:51 PM,39.0,32.0,76,29.94,2.0,NE,11.5,-,0.12,Rain,Light Rain,METAR KEWR 171851Z 05010KT 2SM -RA BKN017 OVC029 04/00 A2994 RMK AO2 SLP137 P0012 T00390000,50,2010-01-17 18:51:00<br />
2:08 PM,39.2,33.8,81,29.94,3.0,ENE,9.2,-,0.01,Rain,Light Rain,SPECI KEWR 171908Z 06008KT 3SM -RA BKN014 OVC029 04/01 A2994 RMK AO2 P0001,60,2010-01-17 19:08:00<br />
2:38 PM,37.4,33.8,87,29.94,2.0,NE,8.1,-,0.05,Rain,Light Rain,SPECI KEWR 171938Z 05007KT 2SM -RA OVC014 03/01 A2994 RMK AO2 P0005,50,2010-01-17 19:38:00<br />
2:51 PM,37.9,33.1,83,29.92,2.0,NNE,10.4,-,0.06,Rain,Light Rain,METAR KEWR 171951Z 03009KT 2SM -RA OVC014 03/01 A2992 RMK AO2 PRESFR SLP131 P0006 T00330006,30,2010-01-17 19:51:00<br />
3:06 PM,37.4,33.8,87,29.91,2.0,NE,11.5,-,0.02,Rain,Light Rain,SPECI KEWR 172006Z 05010KT 2SM -RA BKN009 OVC012 03/01 A2991 RMK AO2 P0002,50,2010-01-17 20:06:00<br />
3:37 PM,37.4,32.0,81,29.87,3.0,NE,11.5,-,0.04,Rain,Light Rain,SPECI KEWR 172037Z 04010KT 3SM -RA FEW005 BKN009 OVC012 03/00 A2987 RMK AO2 P0004 $,40,2010-01-17 20:37:00<br />
3:51 PM,37.9,33.1,83,29.86,4.0,NE,15.0,-,0.04,Rain,Light Rain,METAR KEWR 172051Z 04013KT 4SM -RA SCT005 BKN009 OVC012 03/01 A2986 RMK AO2 SLP111 P0004 60022 T00330006 58042 $,40,2010-01-17 20:51:00<br />
4:16 PM,37.4,32.0,81,29.85,2.5,NE,12.7,-,0.01,Rain,Light Rain,SPECI KEWR 172116Z 05011KT 2 1/2SM -RA SCT005 OVC009 03/00 A2985 RMK AO2 P0001,50,2010-01-17 21:16:00<br />
4:40 PM,37.4,33.8,87,29.84,1.8,NE,15.0,-,0.03,Rain,Light Rain,SPECI KEWR 172140Z 05013KT 1 3/4SM -RA SCT005 OVC009 03/01 A2984 RMK AO2 P0003,50,2010-01-17 21:40:00<br />
4:51 PM,37.9,33.1,83,29.83,1.8,NE,13.8,-,0.04,Rain,Light Rain,METAR KEWR 172151Z 04012KT 1 3/4SM -RA SCT005 BKN009 OVC012 03/01 A2982 RMK AO2 SLP099 P0004 T00330006,40,2010-01-17 21:51:00<br />
5:10 PM,37.4,33.8,87,29.80,2.0,NE,15.0,-,0.01,Rain,Light Rain,SPECI KEWR 172210Z 04013KT 2SM -RA BR SCT005 BKN007 OVC009 03/01 A2980 RMK AO2 PRESFR P0001,40,2010-01-17 22:10:00<br />
5:15 PM,37.4,33.8,87,29.80,2.0,NE,16.1,-,0.02,Rain,Rain,SPECI KEWR 172215Z 04014KT 2SM RA BR SCT005 BKN007 OVC009 03/01 A2980 RMK AO2 PRESFR P0002,40,2010-01-17 22:15:00<br />
5:51 PM,37.9,34.0,86,29.81,2.0,NE,10.4,-,0.06,Rain,Light Rain,METAR KEWR 172251Z 04009KT 2SM -RA BR SCT005 BKN007 OVC009 03/01 A2981 RMK AO2 SLP094 P0006 T00330011,40,2010-01-17 22:51:00<br />
6:51 PM,37.9,34.0,86,29.77,2.5,NE,12.7,-,0.07,Rain,Light Rain,METAR KEWR 172351Z 04011KT 2 1/2SM -RA BR BKN005 OVC009 03/01 A2977 RMK AO2 SLP081 P0007 60039 T00330011 10039 20028 58029,40,2010-01-17 23:51:00<br />
7:09 PM,37.4,33.8,87,29.77,4.0,NE,10.4,-,0.01,Rain,Light Rain,SPECI KEWR 180009Z 04009KT 4SM -RA BR SCT005 BKN009 OVC013 03/01 A2977 RMK AO2 P0001,40,2010-01-18 00:09:00<br />
7:32 PM,39.2,35.6,87,29.74,2.0,NE,13.8,-,0.02,Rain,Light Rain,SPECI KEWR 180032Z 04012KT 2SM -RA BR SCT005 BKN009 OVC011 04/02 A2974 RMK AO2 P0002,40,2010-01-18 00:32:00<br />
7:51 PM,39.0,35.1,86,29.74,2.0,NE,15.0,-,0.03,Rain,Light Rain,METAR KEWR 180051Z 04013KT 2SM -RA BR SCT005 BKN007 OVC011 04/02 A2974 RMK AO2 SLP069 P0003 T00390017,40,2010-01-18 00:51:00<br />
8:09 PM,39.2,35.6,87,29.72,3.0,NE,15.0,-,0.01,Rain,Light Rain,SPECI KEWR 180109Z 04013KT 3SM -RA BR BKN006 BKN009 OVC015 04/02 A2972 RMK AO2 CIG 005V007 P0001,40,2010-01-18 01:09:00<br />
8:51 PM,39.0,35.1,86,29.66,3.0,NNE,18.4,-,0.02,Rain,Light Rain,METAR KEWR 180151Z 03016KT 3SM -RA BR BKN006 BKN009 OVC014 04/02 A2966 RMK AO2 PRESFR SLP044 CIG 005V007 P0002 T00390017,30,2010-01-18 01:51:00<br />
9:51 PM,39.0,35.1,86,29.61,3.0,NE,20.7,31.1,0.00,Rain,Light Rain,METAR KEWR 180251Z 04018G27KT 3SM -RA BR BKN006 BKN009 OVC015 04/02 A2961 RMK AO2 PK WND 04028/0238 SLP026 CIG 005V007 P0000 60005 T00390017 58055,40,2010-01-18 02:51:00<br />
10:51 PM,41.0,36.0,82,29.56,3.0,NE,25.3,34.5,0.01,Rain,Light Rain,METAR KEWR 180351Z 04022G30KT 3SM -RA BKN006 BKN009 OVC013 05/02 A2956 RMK AO2 PK WND 04032/0325 SFC VIS 4 SLP008 CIG 005V007 P0001 T00500022,40,2010-01-18 03:51:00<br />
11:51 PM,41.0,37.0,86,29.53,3.0,NNE,17.3,28.8,0.00,Rain,Light Rain,METAR KEWR 180451Z 03015G25KT 3SM -RA BR BKN007 BKN010 OVC015 05/03 A2953 RMK AO2 PK WND 04031/0423 SFC VIS 4 SLP999 CIG 006V008 P0000 T00500028 400501006,30,2010-01-18 04:51:00<br />
