
TimeEDT,TemperatureF,Dew PointF,Humidity,Sea Level PressureIn,VisibilityMPH,Wind Direction,Wind SpeedMPH,Gust SpeedMPH,PrecipitationIn,Events,Conditions,FullMetar,WindDirDegrees,DateUTC<br />
12:51 AM,55.0,23.0,29,30.39,10.0,NNE,6.9,-,N/A,,Overcast,METAR KEWR 130451Z 03006KT 10SM BKN150 OVC250 13/M05 A3039 RMK AO2 SLP291 T01281050 402000094,30,2010-04-13 04:51:00<br />
1:51 AM,55.0,19.9,25,30.40,10.0,NNE,8.1,-,N/A,,Overcast,METAR KEWR 130551Z 03007KT 10SM BKN150 OVC250 13/M07 A3040 RMK AO2 SLP293 T01281067 10167 20122 51009,30,2010-04-13 05:51:00<br />
2:51 AM,55.0,19.0,24,30.39,10.0,NE,10.4,-,N/A,,Overcast,METAR KEWR 130651Z 04009KT 10SM BKN150 OVC250 13/M07 A3039 RMK AO2 SLP291 T01281072,40,2010-04-13 06:51:00<br />
3:51 AM,53.1,23.0,31,30.39,10.0,NNE,8.1,-,N/A,,Overcast,METAR KEWR 130751Z 03007KT 10SM BKN150 OVC250 12/M05 A3039 RMK AO2 SLP291 T01171050,30,2010-04-13 07:51:00<br />
4:51 AM,52.0,23.0,32,30.41,10.0,North,10.4,-,N/A,,Overcast,METAR KEWR 130851Z 01009KT 10SM OVC150 11/M05 A3041 RMK AO2 SLP296 T01111050 53003,10,2010-04-13 08:51:00<br />
5:51 AM,52.0,23.0,32,30.42,10.0,NNE,10.4,-,N/A,,Overcast,METAR KEWR 130951Z 02009KT 10SM SCT100 OVC150 11/M05 A3042 RMK AO2 SLP301 T01111050,20,2010-04-13 09:51:00<br />
6:51 AM,52.0,25.0,35,30.44,10.0,North,6.9,-,N/A,,Overcast,METAR KEWR 131051Z 01006KT 10SM FEW090 BKN110 OVC150 11/M04 A3044 RMK AO2 SLP307 T01111039,10,2010-04-13 10:51:00<br />
7:51 AM,52.0,26.1,37,30.45,10.0,North,8.1,-,N/A,,Overcast,METAR KEWR 131151Z 01007KT 10SM SCT070 OVC130 11/M03 A3045 RMK AO2 SLP309 T01111033 10133 20106 51013,10,2010-04-13 11:51:00<br />
8:51 AM,52.0,27.0,38,30.45,10.0,NNE,8.1,-,N/A,,Overcast,METAR KEWR 131251Z 03007KT 10SM SCT070 OVC130 11/M03 A3045 RMK AO2 SLP311 T01111028,30,2010-04-13 12:51:00<br />
9:51 AM,54.0,25.0,33,30.47,10.0,NNE,9.2,-,N/A,,Overcast,METAR KEWR 131351Z 03008KT 10SM FEW050 SCT110 OVC140 12/M04 A3047 RMK AO2 SLP317 T01221039,30,2010-04-13 13:51:00<br />
10:51 AM,54.0,28.0,37,30.48,10.0,West,8.1,-,N/A,,Overcast,METAR KEWR 131451Z 27007KT 230V300 10SM BKN055 OVC130 12/M02 A3048 RMK AO2 SLP322 VIRGA SE-OHD-SW-NW T01221022 53013,270,2010-04-13 14:51:00<br />
11:51 AM,53.1,30.9,43,30.51,10.0,WSW,8.1,-,0.00,Rain,Light Rain,METAR KEWR 131551Z 25007KT 10SM -RA SCT048 BKN060 OVC130 12/M01 A3051 RMK AO2 RAB34 SLP329 P0000 T01171006,250,2010-04-13 15:51:00<br />
12:51 PM,52.0,35.1,53,30.50,10.0,SSW,8.1,-,0.00,,Overcast,METAR KEWR 131651Z 20007KT 10SM FEW028 BKN036 BKN047 OVC130 11/02 A3050 RMK AO2 RAE42 SLP328 P0000 T01110017,200,2010-04-13 16:51:00<br />
1:51 PM,53.1,35.1,50,30.49,10.0,Variable,4.6,-,0.00,Rain,Light Rain,METAR KEWR 131751Z VRB04KT 10SM -RA FEW030 BKN060 OVC130 12/02 A3049 RMK AO2 RAB45 SLP325 P0000 60000 T01170017 10128 20106 50003,0,2010-04-13 17:51:00<br />
2:51 PM,53.1,33.1,47,30.48,10.0,South,3.5,-,0.00,Rain,Light Rain,METAR KEWR 131851Z 19003KT 10SM -RA SCT035 BKN060 OVC130 12/01 A3048 RMK AO2 RAE1755B26 SLP322 P0000 T01170006,190,2010-04-13 18:51:00<br />
3:51 PM,53.1,36.0,52,30.47,10.0,South,8.1,-,0.00,,Overcast,METAR KEWR 131951Z 18007KT 10SM FEW040 BKN060 OVC180 12/02 A3047 RMK AO2 RAE42 SLP318 P0000 T01170022,180,2010-04-13 19:51:00<br />
4:51 PM,53.1,36.0,52,30.48,10.0,South,9.2,-,N/A,,Overcast,METAR KEWR 132051Z 19008KT 10SM BKN065 OVC250 12/02 A3048 RMK AO2 SLP319 60000 T01170022 55006,190,2010-04-13 20:51:00<br />
5:51 PM,52.0,33.1,49,30.49,10.0,South,6.9,-,N/A,,Overcast,METAR KEWR 132151Z 18006KT 10SM BKN055 OVC250 11/01 A3049 RMK AO2 SLP324 T01110006,180,2010-04-13 21:51:00<br />
6:51 PM,51.1,35.1,54,30.49,10.0,SSW,5.8,-,N/A,,Mostly Cloudy,METAR KEWR 132251Z 21005KT 10SM FEW030 BKN075 11/02 A3049 RMK AO2 SLP324 T01060017,210,2010-04-13 22:51:00<br />
7:51 PM,50.0,35.1,57,30.50,10.0,SSW,3.5,-,N/A,,Partly Cloudy,METAR KEWR 132351Z 20003KT 10SM FEW090 10/02 A3050 RMK AO2 SLP327 60000 T01000017 10128 20100 51007,200,2010-04-13 23:51:00<br />
8:51 PM,50.0,36.0,59,30.51,10.0,West,6.9,-,N/A,,Clear,METAR KEWR 140051Z 27006KT 10SM CLR 10/02 A3051 RMK AO2 SLP332 T01000022,270,2010-04-14 00:51:00<br />
9:51 PM,48.9,36.0,61,30.52,10.0,West,5.8,-,N/A,,Clear,METAR KEWR 140151Z 27005KT 10SM CLR 09/02 A3052 RMK AO2 SLP333 T00940022,270,2010-04-14 01:51:00<br />
10:51 PM,46.9,37.9,71,30.52,10.0,West,5.8,-,N/A,,Clear,METAR KEWR 140251Z 27005KT 10SM CLR 08/03 A3052 RMK AO2 SLP335 T00830033 51008,270,2010-04-14 02:51:00<br />
11:51 PM,46.0,37.0,71,30.52,10.0,WSW,3.5,-,N/A,,Clear,METAR KEWR 140351Z 25003KT 10SM CLR 08/03 A3052 RMK AO2 SLP335 T00780028,250,2010-04-14 03:51:00<br />
