
TimeEST,TemperatureF,Dew PointF,Humidity,Sea Level PressureIn,VisibilityMPH,Wind Direction,Wind SpeedMPH,Gust SpeedMPH,PrecipitationIn,Events,Conditions,FullMetar,WindDirDegrees,DateUTC<br />
12:03 AM,33.8,28.4,81,29.64,1.5,NNE,4.6,-,0.00,Snow,Light Snow,SPECI KEWR 160503Z 03004KT 1 1/2SM -SN BR BKN005 OVC018 01/M02 A2964 RMK AO2 P0000 $,30,2010-02-16 05:03:00<br />
12:51 AM,32.0,28.0,85,29.61,1.5,NNE,9.2,-,0.01,Snow,Light Snow,METAR KEWR 160551Z 02008KT 1 1/2SM -SN BR BKN005 BKN010 OVC015 00/M02 A2961 RMK AO2 SLP026 931006 4/005 P0001 60004 T00001022 10028 20000 58017 $,20,2010-02-16 05:51:00<br />
1:51 AM,32.0,28.9,88,29.58,1.0,North,10.4,-,0.00,Snow,Light Snow,METAR KEWR 160651Z 01009KT 1SM R04R/P6000FT -SN BR BKN005 OVC008 00/M02 A2958 RMK AO2 SLP016 P0000 T00001017 $,10,2010-02-16 06:51:00<br />
2:04 AM,32.0,28.4,87,29.57,1.2,NNE,10.4,-,0.01,Snow,Light Snow,SPECI KEWR 160704Z 02009KT 1 1/4SM -SN BR BKN004 OVC008 00/M02 A2957 RMK AO2 P0001 $,20,2010-02-16 07:04:00<br />
2:26 AM,32.0,28.4,87,29.56,2.0,North,10.4,-,0.01,Snow,Light Snow,SPECI KEWR 160726Z 01009KT 2SM -SN BR BKN004 OVC008 00/M02 A2956 RMK AO2 P0001 $,10,2010-02-16 07:26:00<br />
2:51 AM,32.0,28.9,88,29.56,2.0,North,10.4,-,0.01,Snow,Light Snow,METAR KEWR 160751Z 01009KT 2SM -SN BR BKN003 OVC006 00/M02 A2956 RMK AO2 SLP008 P0001 T00001017 $,10,2010-02-16 07:51:00<br />
3:13 AM,32.0,28.4,87,29.55,3.0,NNE,11.5,-,0.00,Snow,Light Snow,SPECI KEWR 160813Z 02010KT 3SM -SN BR BKN003 OVC006 00/M02 A2955 RMK AO2 P0000 $,20,2010-02-16 08:13:00<br />
3:51 AM,32.0,28.0,85,29.54,3.0,NNE,10.4,-,0.00,Snow,Light Snow,METAR KEWR 160851Z 02009KT 3SM -SN BR BKN004 OVC008 00/M02 A2954 RMK AO2 SLP002 P0000 60001 T00001022 56024 $,20,2010-02-16 08:51:00<br />
4:00 AM,32.0,28.4,87,29.53,2.0,North,9.2,-,0.00,Snow,Light Snow,SPECI KEWR 160900Z 01008KT 2SM -SN BR BKN004 OVC008 00/M02 A2953 RMK AO2 P0000 $,10,2010-02-16 09:00:00<br />
4:18 AM,32.0,28.4,87,29.53,1.8,North,6.9,-,0.00,Snow,Light Snow,SPECI KEWR 160918Z 01006KT 1 3/4SM -SN BR BKN004 OVC008 00/M02 A2953 RMK AO2 P0000 $,10,2010-02-16 09:18:00<br />
4:51 AM,32.0,28.0,85,29.53,1.8,North,8.1,-,0.00,Snow,Light Snow,METAR KEWR 160951Z 36007KT 1 3/4SM -SN BR BKN004 OVC008 00/M02 A2953 RMK AO2 SLP000 P0000 T00001022 $,360,2010-02-16 09:51:00<br />
4:58 AM,32.0,28.4,87,29.53,1.8,North,8.1,-,0.00,Snow,Light Snow,SPECI KEWR 160958Z 35007KT 1 3/4SM -SN BR BKN005 OVC010 00/M02 A2953 RMK AO2 P0000 $,350,2010-02-16 09:58:00<br />
5:16 AM,32.0,28.4,87,29.52,2.0,North,10.4,-,0.00,Snow,Light Snow,SPECI KEWR 161016Z 36009KT 2SM -SN BR BKN005 OVC008 00/M02 A2952 RMK AO2 P0000 $,360,2010-02-16 10:16:00<br />
5:51 AM,32.0,28.0,85,29.52,3.0,North,9.2,-,0.00,Snow,Light Snow,METAR KEWR 161051Z 36008KT 3SM -SN BR BKN007 OVC010 00/M02 A2951 RMK AO2 SLP994 P0000 T00001022 $,360,2010-02-16 10:51:00<br />
6:38 AM,32.0,28.4,87,29.50,1.5,North,9.2,-,0.01,Snow,Light Snow,SPECI KEWR 161138Z 35008KT 1 1/2SM -SN BR FEW006 BKN009 OVC016 00/M02 A2950 RMK AO2 SFC VIS 1 3/4 P0001 $,350,2010-02-16 11:38:00<br />
6:51 AM,32.0,28.0,85,29.50,1.5,North,6.9,-,N/A,Snow,Light Snow,METAR KEWR 161151Z 36006KT 1 1/2SM -SN BR FEW006 BKN008 OVC016 00/M02 A2950 RMK AO2 SLP988 60005 70009 931006 4/006 T00001022 10006 20000 58014 $,360,2010-02-16 11:51:00<br />
7:51 AM,32.0,28.9,88,29.49,1.5,NNW,6.9,-,0.02,Snow,Light Snow,METAR KEWR 161251Z 34006KT 1 1/2SM -SN BR BKN006 OVC017 00/M02 A2948 RMK AO2 SFC VIS 1 3/4 SLP984 P0002 T00001017 $,340,2010-02-16 12:51:00<br />
8:51 AM,33.1,28.0,82,29.47,1.5,NNW,6.9,-,0.00,Snow,Light Snow,METAR KEWR 161351Z 33006KT 1 1/2SM -SN BKN008 BKN014 OVC025 01/M02 A2947 RMK AO2 SLP978 CIG 006V010 P0000 T00061022 $,330,2010-02-16 13:51:00<br />
8:54 AM,33.8,28.4,81,29.47,1.5,NNW,9.2,-,0.00,,Light Drizzle,SPECI KEWR 161354Z COR 33008KT 1 1/2SM -DZ BR BKN008 BKN020 OVC025 01/M02 A2947 RMK AO2 SFC VIS 1 3/4 DZB54SNE54 CIG 006V010 P0000 $,330,2010-02-16 13:54:00<br />
9:06 AM,33.8,28.4,81,29.46,1.5,NW,8.1,-,0.00,Snow,Light Snow,SPECI KEWR 161406Z COR 31007KT 1 1/2SM -SN BR SCT007 BKN012 OVC025 01/M02 A2946 RMK AO2 SFC VIS 2 SCT V BKN DZE05SNB05 P0000 $,310,2010-02-16 14:06:00<br />
9:31 AM,33.8,28.4,81,29.45,1.0,NW,6.9,-,0.00,Snow,Light Snow,SPECI KEWR 161431Z 32006KT 1SM R04R/5500VP6000FT -SN FEW005 BKN008 OVC017 01/M02 A2945 RMK AO2 TWR VIS 1 1/2 CIG 007V011 DZB1354E05SNE1354B05 P0000 $,320,2010-02-16 14:31:00<br />
9:41 AM,33.8,28.4,81,29.45,0.8,NNW,6.9,-,0.00,Snow,Light Snow,SPECI KEWR 161441Z 33006KT 3/4SM R04R/3500VP6000FT -SN FEW005 BKN008 OVC015 01/M02 A2945 RMK AO2 CIG 007V011 DZB1354E05SNE1354B05 P0000 $,330,2010-02-16 14:41:00<br />
9:51 AM,33.1,28.9,85,29.45,0.8,NNW,5.8,-,0.01,Snow,Light Snow,METAR KEWR 161451Z 33005KT 3/4SM R04R/3500V5000FT -SN BR BKN005 OVC012 01/M02 A2945 RMK AO2 SLP971 DZB1354E05SNE1354B05 P0001 60003 T00061017 58017 $,330,2010-02-16 14:51:00<br />
10:30 AM,33.8,28.4,81,29.44,1.5,NNW,8.1,-,0.00,Snow,Light Snow,SPECI KEWR 161530Z 33007KT 1 1/2SM R04R/5000VP6000FT -SN BR SCT005 BKN008 OVC013 01/M02 A2944 RMK AO2 CIG 007V010 P0000,330,2010-02-16 15:30:00<br />
10:45 AM,33.8,28.4,81,29.44,0.5,NW,9.2,-,0.01,Snow,Light Snow,SPECI KEWR 161545Z 32008KT 1/2SM R04R/3500V4000FT -SN BKN006 OVC012 01/M02 A2944 RMK AO2 SFC VIS 3/4 P0001,320,2010-02-16 15:45:00<br />
10:51 AM,33.1,28.9,85,29.44,0.5,NW,6.9,-,0.01,Snow,Light Snow,METAR KEWR 161551Z 32006KT 1/2SM R04R/3500V4500FT -SN BR BKN006 OVC015 01/M02 A2944 RMK AO2 SFC VIS 3/4 SLP967 P0001 T00061017,320,2010-02-16 15:51:00<br />
11:51 AM,33.1,28.9,85,29.42,0.5,NW,8.1,-,0.03,Snow,Light Snow,METAR KEWR 161651Z 32007KT 1/2SM R04R/3000V4000FT -SN BKN006 OVC015 01/M02 A2942 RMK AO2 SFC VIS 3/4 SLP961 CIG 005V008 P0003 T00061017,320,2010-02-16 16:51:00<br />
12:01 PM,33.8,28.4,81,29.41,0.5,NW,8.1,-,0.01,Snow,Snow,SPECI KEWR 161701Z 31007KT 1/2SM R04R/3000V3500FT SN BKN005 OVC012 01/M02 A2941 RMK AO2 CIG 004V007 P0001,310,2010-02-16 17:01:00<br />
12:47 PM,33.8,28.4,81,29.40,1.0,WNW,4.6,-,0.04,Snow,Light Snow,SPECI KEWR 161747Z 29004KT 1SM R04R/4000V6000FT -SN BKN007 OVC015 01/M02 A2940 RMK AO2 931011 4/007 933012 CIG 005V008 P0004,290,2010-02-16 17:47:00<br />
12:51 PM,33.1,28.9,85,29.40,1.0,West,6.9,-,0.04,Snow,Light Snow,METAR KEWR 161751Z 27006KT 1SM R04R/4500V6000FT -SN BKN007 OVC015 01/M02 A2940 RMK AO2 SLP955 931011 4/007 933012 CIG 005V008 P0004 60011 T00061017 10006 20000 58013,270,2010-02-16 17:51:00<br />
1:51 PM,33.1,28.9,85,29.38,1.0,WNW,12.7,-,0.02,Snow,Light Snow,METAR KEWR 161851Z 29011KT 1SM R04R/4500VP6000FT -SN BKN007 OVC010 01/M02 A2938 RMK AO2 SLP949 P0002 T00061017,290,2010-02-16 18:51:00<br />
1:56 PM,33.8,28.4,81,29.38,1.5,West,13.8,-,0.00,Snow,Light Snow,SPECI KEWR 161856Z 28012KT 1 1/2SM R04R/4500VP6000FT -SN BKN009 OVC014 01/M02 A2938 RMK AO2 P0000,280,2010-02-16 18:56:00<br />
2:30 PM,33.8,28.4,81,29.38,0.8,West,13.8,21.9,0.00,Snow,Light Snow,SPECI KEWR 161930Z 27012G19KT 3/4SM R04R/4000V5500FT -SN BR BKN007 OVC014 01/M02 A2938 RMK AO2 P0000,270,2010-02-16 19:30:00<br />
2:51 PM,33.1,28.9,85,29.39,1.0,West,16.1,-,0.01,Snow,Light Snow,METAR KEWR 161951Z 27014KT 1SM R04R/6000VP6000FT -SN BR BKN011 OVC015 01/M02 A2939 RMK AO2 SFC VIS 1 1/2 SLP951 P0001 T00061017,270,2010-02-16 19:51:00<br />
3:01 PM,33.8,28.4,81,29.39,3.0,West,15.0,-,0.00,Snow,Light Snow,SPECI KEWR 162001Z 27013KT 3SM -SN BKN011 OVC016 01/M02 A2939 RMK AO2 SFC VIS 4 P0000,270,2010-02-16 20:01:00<br />
3:51 PM,35.1,28.0,76,29.40,3.0,WNW,15.0,23.0,0.00,Snow,Light Snow,METAR KEWR 162051Z 29013G20KT 3SM -SN BKN020 OVC027 02/M02 A2940 RMK AO2 SFC VIS 4 SLP956 P0000 60003 T00171022 53001,290,2010-02-16 20:51:00<br />
4:36 PM,33.8,24.8,70,29.43,9.0,WNW,25.3,32.2,0.00,,Overcast,SPECI KEWR 162136Z 29022G28KT 9SM FEW025 BKN046 OVC055 01/M04 A2943 RMK AO2 PK WND 28028/2132 SNE35 P0000,290,2010-02-16 21:36:00<br />
4:51 PM,34.0,25.0,70,29.44,10.0,West,21.9,29.9,0.00,,Mostly Cloudy,METAR KEWR 162151Z 28019G26KT 10SM SCT024 BKN042 BKN080 BKN250 01/M04 A2944 RMK AO2 PK WND 29028/2138 SNE35 SLP967 P0000 T00111039,280,2010-02-16 21:51:00<br />
5:51 PM,34.0,24.1,67,29.47,10.0,WNW,21.9,29.9,N/A,,Overcast,METAR KEWR 162251Z 29019G26KT 10SM SCT025 BKN040 OVC150 01/M04 A2947 RMK AO2 PK WND 29026/2248 SLP980 T00111044,290,2010-02-16 22:51:00<br />
6:51 PM,33.1,21.9,64,29.51,10.0,West,17.3,-,N/A,,Scattered Clouds,METAR KEWR 162351Z 28015KT 10SM FEW050 SCT090 SCT250 01/M06 A2951 RMK AO2 PK WND 30026/2320 SLP993 931003 4/007 60003 T00061056 10017 20006 53037,280,2010-02-16 23:51:00<br />
7:51 PM,32.0,19.9,61,29.53,10.0,WNW,16.1,26.5,N/A,,Mostly Cloudy,METAR KEWR 170051Z 29014G23KT 10SM SCT028 SCT130 BKN250 00/M07 A2953 RMK AO2 SLP000 T00001067,290,2010-02-17 00:51:00<br />
8:51 PM,30.9,18.0,59,29.56,10.0,WNW,19.6,26.5,N/A,,Scattered Clouds,METAR KEWR 170151Z 29017G23KT 10SM FEW038 SCT080 M01/M08 A2956 RMK AO2 PK WND 28032/0113 SLP008 T10061078,290,2010-02-17 01:51:00<br />
9:51 PM,30.9,16.0,54,29.57,10.0,WNW,15.0,28.8,N/A,,Mostly Cloudy,METAR KEWR 170251Z 29013G25KT 10SM FEW040 SCT080 BKN250 M01/M09 A2957 RMK AO2 PK WND 29028/0152 SLP013 T10061089 51019,290,2010-02-17 02:51:00<br />
10:51 PM,30.0,16.0,56,29.58,10.0,WNW,13.8,20.7,N/A,,Scattered Clouds,METAR KEWR 170351Z 29012G18KT 10SM FEW080 SCT250 M01/M09 A2958 RMK AO2 SLP016 T10111089,290,2010-02-17 03:51:00<br />
11:51 PM,28.9,16.0,58,29.58,10.0,West,12.7,-,N/A,,Partly Cloudy,METAR KEWR 170451Z 28011KT 10SM FEW250 M02/M09 A2958 RMK AO2 SLP016 T10171089 400171017,280,2010-02-17 04:51:00<br />
