
TimeEDT,TemperatureF,Dew PointF,Humidity,Sea Level PressureIn,VisibilityMPH,Wind Direction,Wind SpeedMPH,Gust SpeedMPH,PrecipitationIn,Events,Conditions,FullMetar,WindDirDegrees,DateUTC<br />
12:51 AM,57.9,54.0,87,29.72,9.0,NNW,16.1,-,0.08,Rain,Light Rain,METAR KJFK 220451Z 34014KT 9SM -RA FEW009 BKN055 OVC090 14/12 A2972 RMK AO2 SLP064 P0008 T01440122 401890122,340,2012-04-22 04:51:00<br />
1:51 AM,54.0,50.0,86,29.70,10.0,North,15.0,27.6,0.03,,Overcast,METAR KJFK 220551Z 36013G24KT 10SM FEW009 SCT055 BKN100 OVC160 12/10 A2970 RMK AO2 RAE46 SLP056 P0003 60011 T01220100 10156 20122 58001 $,360,2012-04-22 05:51:00<br />
2:51 AM,53.1,48.0,83,29.70,10.0,North,19.6,-,N/A,,Overcast,METAR KJFK 220651Z 35017KT 10SM FEW013 SCT090 BKN140 OVC260 12/09 A2970 RMK AO2 SLP056 T01170089 $,350,2012-04-22 06:51:00<br />
3:51 AM,52.0,46.0,80,29.70,10.0,North,15.0,-,N/A,,Mostly Cloudy,METAR KJFK 220751Z 36013KT 10SM FEW013 SCT100 BKN160 BKN280 11/08 A2970 RMK AO2 SLP058 T01110078 $,360,2012-04-22 07:51:00<br />
4:51 AM,50.0,44.1,80,29.72,10.0,North,12.7,-,N/A,,Mostly Cloudy,METAR KJFK 220851Z 35011KT 10SM FEW013 SCT100 SCT160 BKN270 10/07 A2971 RMK AO2 SLP062 T01000067 53006 $,350,2012-04-22 08:51:00<br />
5:51 AM,50.0,43.0,77,29.73,10.0,North,12.7,-,N/A,,Mostly Cloudy,METAR KJFK 220951Z 35011KT 10SM FEW014 SCT100 SCT180 BKN220 10/06 A2973 RMK AO2 SLP067 T01000061 $,350,2012-04-22 09:51:00<br />
6:51 AM,50.0,43.0,77,29.75,10.0,North,17.3,24.2,N/A,,Overcast,METAR KJFK 221051Z 36015G21KT 10SM FEW014 BKN160 BKN220 OVC250 10/06 A2975 RMK AO2 SLP073 T01000061 $,360,2012-04-22 10:51:00<br />
7:51 AM,50.0,42.1,74,29.75,10.0,North,13.8,-,N/A,,Overcast,METAR KJFK 221151Z 01012KT 10SM FEW015 BKN110 BKN160 OVC250 10/06 A2975 RMK AO2 SLP072 70011 T01000056 10122 20100 50010 $,10,2012-04-22 11:51:00<br />
8:51 AM,51.1,41.0,68,29.78,10.0,North,17.3,24.2,0.00,,Overcast,METAR KJFK 221251Z 36015G21KT 10SM FEW015 SCT085 BKN110 OVC250 11/05 A2978 RMK AO2 RAB12E22 SLP085 P0000 T01060050 $,360,2012-04-22 12:51:00<br />
9:51 AM,51.1,42.1,71,29.79,10.0,North,12.7,-,0.00,Rain,Light Rain,METAR KJFK 221351Z 36011KT 10SM -RA FEW015 BKN085 BKN110 OVC200 11/06 A2979 RMK AO2 RAB1258E07B41 SLP087 P0000 T01060056 $,360,2012-04-22 13:51:00<br />
10:51 AM,51.1,43.0,74,29.79,10.0,North,11.5,-,0.00,Rain,Light Rain,METAR KJFK 221451Z 36010KT 10SM -RA FEW017 SCT055 BKN090 OVC140 11/06 A2979 RMK AO2 SLP088 P0000 60000 T01060061 51016 $,360,2012-04-22 14:51:00<br />
11:51 AM,50.0,43.0,77,29.76,8.0,North,17.3,-,0.00,Rain,Light Rain,METAR KJFK 221551Z 35015KT 8SM -RA FEW020 BKN044 OVC080 10/06 A2976 RMK AO2 SLP078 P0000 T01000061 $,350,2012-04-22 15:51:00<br />
12:51 PM,50.0,44.1,80,29.74,7.0,North,16.1,23.0,0.02,Rain,Light Rain,METAR KJFK 221651Z 01014G20KT 7SM -RA FEW020 BKN046 OVC065 10/07 A2973 RMK AO2 SLP069 P0002 T01000067 $,10,2012-04-22 16:51:00<br />
1:51 PM,48.9,45.0,86,29.73,5.0,North,15.0,20.7,0.08,Rain,Rain,METAR KJFK 221751Z 01013G18KT 5SM RA BR SCT011 BKN044 OVC065 09/07 A2972 RMK AO2 SLP065 P0008 60010 T00940072 10106 20094 56023 $,10,2012-04-22 17:51:00<br />
2:02 PM,48.2,44.6,87,29.73,5.0,North,12.7,-,0.03,Rain,Rain,SPECI KJFK 221802Z 01011KT 5SM RA BR BKN011 BKN044 OVC055 09/07 A2973 RMK AO2 P0003 $,10,2012-04-22 18:02:00<br />
2:51 PM,48.9,45.0,86,29.73,5.0,NNE,10.4,19.6,0.12,Rain,Heavy Rain,METAR KJFK 221851Z 03009G17KT 5SM R04R/4000VP6000FT +RA BR BKN010 BKN023 OVC080 09/07 A2973 RMK AO2 SLP067 P0012 T00940072 $,30,2012-04-22 18:51:00<br />
3:51 PM,48.9,46.0,90,29.69,7.0,NNE,16.1,-,0.15,Rain,Light Rain,METAR KJFK 221951Z 03014KT 7SM -RA SCT010 BKN030 OVC085 09/08 A2969 RMK AO2 SLP052 P0015 T00940078 $,30,2012-04-22 19:51:00<br />
4:39 PM,50.0,46.4,87,29.65,6.0,NNE,12.7,-,0.04,Rain,Rain,SPECI KJFK 222039Z 02011KT 6SM RA BR BKN010 BKN023 OVC070 10/08 A2965 RMK AO2 P0004 $,20,2012-04-22 20:39:00<br />
4:51 PM,50.0,46.0,86,29.65,6.0,NNE,16.1,-,0.04,Rain,Light Rain,METAR KJFK 222051Z 03014KT 6SM -RA BR FEW007 BKN010 OVC023 10/08 A2965 RMK AO2 SLP039 P0004 60031 T01000078 58026 $,30,2012-04-22 20:51:00<br />
5:51 PM,50.0,46.9,89,29.62,6.0,NNE,15.0,-,0.08,Rain,Rain,METAR KJFK 222151Z 03013KT 6SM RA BR SCT006 OVC010 10/08 A2962 RMK AO2 SLP029 P0008 T01000083 $,30,2012-04-22 21:51:00<br />
6:39 PM,50.0,46.4,87,29.59,2.5,NNE,17.3,24.2,0.09,Rain,Heavy Rain,SPECI KJFK 222239Z 03015G21KT 2 1/2SM +RA BR BKN008 OVC015 10/08 A2959 RMK AO2 P0009 $,30,2012-04-22 22:39:00<br />
6:51 PM,50.0,46.9,89,29.58,2.5,NE,17.3,26.5,0.14,Rain,Rain,METAR KJFK 222251Z 04015G23KT 2 1/2SM RA BR BKN007 OVC012 10/08 A2958 RMK AO2 SLP017 P0014 T01000083 $,40,2012-04-22 22:51:00<br />
7:26 PM,50.0,46.4,87,29.57,5.0,NNE,19.6,-,0.10,Rain,Light Rain,SPECI KJFK 222326Z 03017KT 5SM -RA BR SCT007 OVC014 10/08 A2957 RMK AO2 P0010 $,30,2012-04-22 23:26:00<br />
7:43 PM,50.0,46.4,87,29.56,5.0,NNE,17.3,-,0.14,Rain,Rain,SPECI KJFK 222343Z 03015KT 5SM RA BR BKN009 OVC015 10/08 A2956 RMK AO2 PK WND 05026/2329 P0014 $,30,2012-04-22 23:43:00<br />
7:51 PM,50.0,46.9,89,29.55,5.0,NE,20.7,27.6,0.16,Rain,Light Rain,METAR KJFK 222351Z 04018G24KT 5SM -RA BR BKN009 OVC015 10/08 A2955 RMK AO2 PK WND 05026/2329 PRESFR SLP006 P0016 60069 T01000083 10106 20094 58033 $,40,2012-04-22 23:51:00<br />
8:51 PM,51.1,46.9,86,29.47,4.0,NE,24.2,33.4,0.24,Rain,Heavy Rain,METAR KJFK 230051Z 04021G29KT 4SM +RA BR BKN009 OVC032 11/08 A2947 RMK AO2 PK WND 03032/0029 PRESFR SLP978 P0024 T01060083 $,40,2012-04-23 00:51:00<br />
9:51 PM,50.0,46.9,89,29.43,3.0,NE,25.3,34.5,0.30,Rain,Heavy Rain,METAR KJFK 230151Z 05022G30KT 3SM +RA BR BKN009 OVC019 10/08 A2943 RMK AO2 PK WND 06034/0130 PRESFR SLP965 P0030 T01000083 $,50,2012-04-23 01:51:00<br />
10:51 PM,50.0,46.9,89,29.35,4.0,NE,25.3,31.1,0.26,Rain,Heavy Rain,METAR KJFK 230251Z 05022G27KT 4SM +RA BR OVC009 10/08 A2935 RMK AO2 PK WND 05032/0233 SLP939 P0026 60080 T01000083 56066 $,50,2012-04-23 02:51:00<br />
11:51 PM,50.0,46.9,89,29.30,5.0,ENE,19.6,29.9,0.41,Rain,Rain,METAR KJFK 230351Z 06017G26KT 5SM RA BR BKN009 OVC025 10/08 A2930 RMK AO2 PK WND 05034/0328 SLP920 P0041 T01000083 $,60,2012-04-23 03:51:00<br />
