
TimeEDT,TemperatureF,Dew PointF,Humidity,Sea Level PressureIn,VisibilityMPH,Wind Direction,Wind SpeedMPH,Gust SpeedMPH,PrecipitationIn,Events,Conditions,FullMetar,WindDirDegrees,DateUTC<br />
12:51 AM,44.1,24.1,45,30.44,10.0,North,12.7,-,N/A,,Clear,METAR KJFK 130451Z 01011KT 10SM CLR 07/M04 A3044 RMK AO2 SLP308 T00671044 401560061 $,10,2012-10-13 04:51:00<br />
1:51 AM,43.0,19.9,40,30.45,10.0,North,15.0,-,N/A,,Clear,METAR KJFK 130551Z 01013KT 10SM CLR 06/M07 A3045 RMK AO2 SLP310 T00611067 10106 20061 51014 $,10,2012-10-13 05:51:00<br />
2:51 AM,42.1,21.0,43,30.45,10.0,NNE,9.2,-,N/A,,Clear,METAR KJFK 130651Z 02008KT 10SM CLR 06/M06 A3045 RMK AO2 SLP309 T00561061 $,20,2012-10-13 06:51:00<br />
3:51 AM,39.9,21.9,49,30.45,10.0,North,8.1,-,N/A,,Clear,METAR KJFK 130751Z 01007KT 10SM CLR 04/M06 A3045 RMK AO2 SLP312 T00441056 $,10,2012-10-13 07:51:00<br />
4:51 AM,39.0,24.1,55,30.48,10.0,North,5.8,-,N/A,,Clear,METAR KJFK 130851Z 01005KT 10SM CLR 04/M04 A3048 RMK AO2 SLP321 T00391044 53012 $,10,2012-10-13 08:51:00<br />
5:51 AM,37.0,24.1,59,30.49,10.0,North,5.8,-,N/A,,Clear,METAR KJFK 130951Z 36005KT 10SM CLR 03/M04 A3049 RMK AO2 SLP323 T00281044 $,360,2012-10-13 09:51:00<br />
6:51 AM,39.0,24.1,55,30.51,10.0,North,4.6,-,N/A,,Partly Cloudy,METAR KJFK 131051Z 01004KT 10SM FEW035 04/M04 A3051 RMK AO2 SLP330 T00391044 $,10,2012-10-13 10:51:00<br />
7:51 AM,41.0,26.1,55,30.53,10.0,North,3.5,-,N/A,,Partly Cloudy,METAR KJFK 131151Z 36003KT 10SM FEW035 05/M03 A3052 RMK AO2 SLP336 T00501033 10067 20028 53014 $,360,2012-10-13 11:51:00<br />
8:51 AM,46.0,23.0,40,30.53,10.0,NNE,3.5,-,N/A,,Scattered Clouds,METAR KJFK 131251Z 03003KT 10SM FEW043 SCT250 08/M05 A3053 RMK AO2 SLP339 T00781050 $,30,2012-10-13 12:51:00<br />
9:51 AM,46.0,21.0,37,30.53,10.0,Calm,Calm,-,N/A,,Scattered Clouds,METAR KJFK 131351Z 00000KT 10SM FEW050 SCT250 08/M06 A3053 RMK AO2 SLP338 T00781061 $,0,2012-10-13 13:51:00<br />
10:51 AM,48.0,19.0,32,30.53,10.0,East,5.8,-,N/A,,Partly Cloudy,METAR KJFK 131451Z 08005KT 10SM FEW250 09/M07 A3053 RMK AO2 SLP336 T00891072 50001 $,80,2012-10-13 14:51:00<br />
11:51 AM,51.1,18.0,27,30.53,10.0,Variable,3.5,-,N/A,,Partly Cloudy,METAR KJFK 131551Z VRB03KT 10SM FEW250 11/M08 A3053 RMK AO2 SLP336 T01061078 $,0,2012-10-13 15:51:00<br />
12:51 PM,50.0,25.0,38,30.50,10.0,SSW,9.2,-,N/A,,Partly Cloudy,METAR KJFK 131651Z 20008KT 10SM FEW250 10/M04 A3050 RMK AO2 SLP328 T01001039,200,2012-10-13 16:51:00<br />
1:51 PM,50.0,21.0,32,30.46,10.0,South,8.1,-,N/A,,Partly Cloudy,METAR KJFK 131751Z 19007KT 10SM FEW250 10/M06 A3046 RMK AO2 SLP314 T01001061 10106 20050 58023 $,190,2012-10-13 17:51:00<br />
2:51 PM,51.1,19.9,29,30.44,10.0,South,6.9,-,N/A,,Partly Cloudy,METAR KJFK 131851Z 18006KT 10SM R04R/1600VP6000FT FEW250 11/M07 A3044 RMK AO2 SLP306 T01061067,180,2012-10-13 18:51:00<br />
3:51 PM,51.1,26.1,38,30.42,10.0,SSW,9.2,-,N/A,,Scattered Clouds,METAR KJFK 131951Z 21008KT 10SM FEW020 SCT270 11/M03 A3042 RMK AO2 SLP301 T01061033,210,2012-10-13 19:51:00<br />
4:51 PM,50.0,28.9,44,30.41,10.0,SSE,6.9,-,N/A,,Scattered Clouds,METAR KJFK 132051Z 16006KT 10SM FEW020 SCT240 SCT300 10/M02 A3041 RMK AO2 SLP297 T01001017 56017,160,2012-10-13 20:51:00<br />
5:51 PM,50.0,33.1,52,30.41,10.0,South,8.1,-,N/A,,Scattered Clouds,METAR KJFK 132151Z 19007KT 10SM FEW240 SCT300 10/01 A3041 RMK AO2 SLP296 T01000006,190,2012-10-13 21:51:00<br />
6:51 PM,50.0,35.1,57,30.40,10.0,South,9.2,-,N/A,,Mostly Cloudy,METAR KJFK 132251Z 18008KT 10SM FEW020 SCT210 BKN300 10/02 A3040 RMK AO2 SLP293 T01000017,180,2012-10-13 22:51:00<br />
7:51 PM,53.6,37.4,54,30.39,10.0,South,13.8,-,N/A,,Mostly Cloudy,METAR KJFK 132351Z 19012KT 10SM FEW035 BKN160 BKN210 BKN300 12/03 A3039,190,2012-10-13 23:51:00<br />
8:51 PM,54.0,39.0,57,30.38,10.0,SW,12.7,-,N/A,,Mostly Cloudy,METAR KJFK 140051Z 22011KT 10SM FEW035 BKN160 BKN210 BKN300 12/04 A3038 RMK AO2 SLP287 T01220039,220,2012-10-14 00:51:00<br />
9:51 PM,54.0,39.0,57,30.37,10.0,SW,16.1,-,N/A,,Mostly Cloudy,METAR KJFK 140151Z 22014KT 10SM FEW035 BKN190 BKN300 12/04 A3037 RMK AO2 SLP282 T01220039,220,2012-10-14 01:51:00<br />
10:51 PM,53.1,39.9,61,30.36,10.0,SW,18.4,-,N/A,,Mostly Cloudy,METAR KJFK 140251Z 22016KT 10SM FEW035 SCT180 BKN250 12/04 A3036 RMK AO2 SLP279 T01170044 58010,220,2012-10-14 02:51:00<br />
11:51 PM,55.0,43.0,64,30.32,10.0,SSW,17.3,23.0,N/A,,Mostly Cloudy,METAR KJFK 140351Z 21015G20KT 10SM FEW033 BKN180 13/06 A3032 RMK AO2 SLP268 T01280061,210,2012-10-14 03:51:00<br />
