
TimeEDT,TemperatureF,Dew PointF,Humidity,Sea Level PressureIn,VisibilityMPH,Wind Direction,Wind SpeedMPH,Gust SpeedMPH,PrecipitationIn,Events,Conditions,FullMetar,WindDirDegrees,DateUTC<br />
12:51 AM,53.1,44.1,71,30.21,10.0,SSE,12.7,-,N/A,,Overcast,METAR KJFK 010451Z 16011KT 10SM OVC055 12/07 A3021 RMK AO2 SLP229 T01170067 401390061 $,160,2012-05-01 04:51:00<br />
1:51 AM,53.6,44.6,72,30.17,10.0,SSE,16.1,-,N/A,,Overcast,METAR KJFK 010551Z 16014KT 10SM OVC050 12/07 A3017,160,2012-05-01 05:51:00<br />
2:51 AM,53.1,45.0,74,30.14,10.0,SSE,18.4,-,N/A,,Overcast,METAR KJFK 010651Z 16016KT 10SM OVC042 12/07 A3014 RMK AO2 SLP204 T01170072 $,160,2012-05-01 06:51:00<br />
3:36 AM,53.6,44.6,72,30.13,10.0,SSE,17.3,-,N/A,,Overcast,SPECI KJFK 010736Z 15015KT 10SM OVC029 12/07 A3013 RMK AO2 $,150,2012-05-01 07:36:00<br />
3:51 AM,54.0,45.0,72,30.12,10.0,SSE,16.1,-,N/A,,Overcast,METAR KJFK 010751Z 15014KT 10SM OVC029 12/07 A3012 RMK AO2 SLP200 T01220072 $,150,2012-05-01 07:51:00<br />
4:51 AM,53.1,46.0,77,30.10,10.0,SE,11.5,-,0.00,,Overcast,METAR KJFK 010851Z 14010KT 10SM OVC032 12/08 A3010 RMK AO2 RAB05E45 SLP191 P0000 60000 T01170078 56024 $,140,2012-05-01 08:51:00<br />
5:51 AM,54.0,46.9,77,30.06,4.0,SSE,13.8,19.6,0.02,Rain,Heavy Rain,METAR KJFK 010951Z 15012G17KT 4SM +RA OVC022 12/08 A3006 RMK AO2 RAB0855E30B46 SLP179 P0002 T01220083 $,150,2012-05-01 09:51:00<br />
6:09 AM,53.6,48.2,82,30.08,9.0,Calm,Calm,-,0.06,Rain-Thunderstorm,Light Thunderstorms and Rain,SPECI KJFK 011009Z 00000KT 9SM -TSRA FEW013 OVC022CB 12/09 A3008 RMK AO2 TSB09 OCNL LTGIC OHD-SW TS OHD-SW MOV E P0006 $,0,2012-05-01 10:09:00<br />
6:22 AM,53.6,48.2,82,30.07,2.0,East,3.5,-,0.11,Rain-Thunderstorm,Heavy Thunderstorms and Rain,SPECI KJFK 011022Z 09003KT 2SM R04R/4000VP6000FT +TSRA SCT011 OVC020CB 12/09 A3007 RMK AO2 SFC VIS 2 1/2 TSB09 OCNL LTGICCC OHD AND S-SW TS OHD AND S-SW MOV E P0011 $,90,2012-05-01 10:22:00<br />
6:35 AM,51.8,48.2,88,30.06,2.0,ESE,5.8,-,0.21,Rain-Thunderstorm,Thunderstorms and Rain,SPECI KJFK 011035Z 11005KT 2SM R04R/4000VP6000FT TSRA BR BKN014 OVC020CB 11/09 A3006 RMK AO2 SFC VIS 3 TSB09 FRQ LTGICCC OHD AND SE-W TS OHD AND SE-W MOV E P0021 $,110,2012-05-01 10:35:00<br />
6:51 AM,52.0,48.9,89,30.06,2.0,SE,9.2,-,0.45,Rain-Thunderstorm,Heavy Thunderstorms and Rain,METAR KJFK 011051Z 13008KT 2SM R04R/4500VP6000FT +TSRA BR FEW006 BKN010 OVC017CB 11/09 A3006 RMK AO2 TSB09 SLP179 OCNL LTGICCC NE-SW TS NE-SW MOV E P0045 T01110094 $,130,2012-05-01 10:51:00<br />
7:08 AM,53.6,50.0,88,30.06,2.0,ESE,8.1,-,0.20,Rain-Thunderstorm,Heavy Thunderstorms and Rain,SPECI KJFK 011108Z 12007KT 2SM R04R/3000VP6000FT +TSRA BR FEW006 SCT012 OVC017CB 12/10 A3006 RMK AO2 OCNL LTGIC NE-S TS NE-S MOV E P0020 $,120,2012-05-01 11:08:00<br />
7:22 AM,53.6,50.0,88,30.05,2.0,SE,9.2,-,0.30,Rain,Rain,SPECI KJFK 011122Z 13008KT 2SM RA BR SCT009 BKN021 OVC029 12/10 A3005 RMK AO2 SFC VIS 2 1/2 TSE22 VIS SE-SW 1 1/2 P0030 $,130,2012-05-01 11:22:00<br />
7:38 AM,53.6,51.8,94,30.04,4.0,SE,11.5,-,0.43,Rain,Light Rain,SPECI KJFK 011138Z 13010KT 4SM -RA BR FEW009 BKN021 OVC032 12/11 A3004 RMK AO2 TSE22 BKN V SCT P0043 $,130,2012-05-01 11:38:00<br />
7:51 AM,54.0,51.1,90,30.04,6.0,SE,10.4,-,0.43,Rain,Light Rain,METAR KJFK 011151Z 13009KT 6SM -RA BR FEW009 BKN027 OVC035 12/11 A3003 RMK AO2 TSE22 SLP170 P0043 60090 70090 T01220106 10122 20111 56021 $,130,2012-05-01 11:51:00<br />
8:51 AM,55.0,52.0,89,30.01,6.0,SE,10.4,-,0.04,Rain,Light Rain,METAR KJFK 011251Z 14009KT 6SM -RA BR SCT007 OVC021 13/11 A3001 RMK AO2 SLP163 P0004 T01280111 $,140,2012-05-01 12:51:00<br />
9:10 AM,55.4,51.8,88,30.01,7.0,ESE,9.2,-,N/A,,Overcast,SPECI KJFK 011310Z 12008KT 7SM BKN007 OVC021 13/11 A3001,120,2012-05-01 13:10:00<br />
9:46 AM,55.4,53.6,94,30.01,5.0,SSE,8.1,-,0.00,,Light Drizzle,SPECI KJFK 011346Z 16007KT 5SM -DZ BR BKN007 OVC015 13/12 A3001 RMK AO2 RAE09DZB46 BKN V SCT P0000,160,2012-05-01 13:46:00<br />
9:51 AM,55.0,53.1,93,30.01,4.0,SSE,9.2,-,0.00,,Light Drizzle,METAR KJFK 011351Z 16008KT 4SM -DZ BR BKN007 OVC015 13/12 A3000 RMK AO2 RAE09DZB46 SLP160 VIS SE-SW 2 1/2 BKN V SCT P0000 T01280117,160,2012-05-01 13:51:00<br />
9:59 AM,55.4,53.6,94,30.00,2.5,South,8.1,-,0.00,,Light Drizzle,SPECI KJFK 011359Z 17007KT 2 1/2SM -DZ BR BKN005 OVC013 13/12 A3000 RMK AO2 P0000,170,2012-05-01 13:59:00<br />
10:51 AM,57.0,55.0,93,29.99,5.0,SSW,6.9,-,0.00,,Overcast,METAR KJFK 011451Z 20006KT 5SM BR BKN007 OVC011 14/13 A2999 RMK AO2 DZE29 SLP156 P0000 60004 T01390128 56014,200,2012-05-01 14:51:00<br />
11:51 AM,59.0,55.0,87,29.99,5.0,WSW,8.1,-,N/A,,Overcast,METAR KJFK 011551Z 24007KT 5SM BR OVC007 15/13 A2999 RMK AO2 SLP154 T01500128,240,2012-05-01 15:51:00<br />
12:32 PM,60.8,55.4,82,29.98,7.0,WSW,8.1,-,N/A,,Overcast,SPECI KJFK 011632Z 24007KT 7SM FEW007 OVC011 16/13 A2998 RMK AO2,240,2012-05-01 16:32:00<br />
12:51 PM,62.1,57.0,84,29.97,8.0,WSW,9.2,-,N/A,,Mostly Cloudy,METAR KJFK 011651Z 24008KT 8SM FEW007 BKN012 17/14 A2997 RMK AO2 SLP149 T01670139,240,2012-05-01 16:51:00<br />
1:18 PM,62.6,55.4,77,29.98,8.0,West,8.1,-,N/A,,Mostly Cloudy,SPECI KJFK 011718Z 27007KT 8SM FEW009 BKN016 17/13 A2998 RMK AO2 $,270,2012-05-01 17:18:00<br />
1:51 PM,66.0,55.9,70,29.98,9.0,WNW,11.5,17.3,N/A,,Mostly Cloudy,METAR KJFK 011751Z 29010G15KT 9SM BKN018 19/13 A2998 RMK AO2 SLP152 60004 T01890133 10189 20122 55004 $,290,2012-05-01 17:51:00<br />
2:51 PM,66.9,54.0,63,29.98,10.0,NW,11.5,-,N/A,,Mostly Cloudy,METAR KJFK 011851Z 32010KT 10SM BKN026 BKN046 19/12 A2998 RMK AO2 SLP151 BKN026 V SCT T01940122 $,320,2012-05-01 18:51:00<br />
3:06 PM,69.8,55.4,60,29.98,10.0,WNW,15.0,-,N/A,,Scattered Clouds,SPECI KJFK 011906Z 30013KT 10SM FEW026 SCT046 SCT250 21/13 A2998 RMK AO2 $,300,2012-05-01 19:06:00<br />
3:51 PM,68.0,54.0,61,29.99,10.0,North,13.8,-,N/A,,Scattered Clouds,METAR KJFK 011951Z 35012KT 10SM SCT026 SCT250 20/12 A2999 RMK AO2 SLP154 T02000122 $,350,2012-05-01 19:51:00<br />
4:51 PM,69.1,54.0,58,29.99,10.0,North,13.8,19.6,N/A,,Scattered Clouds,METAR KJFK 012051Z 35012G17KT 10SM FEW032 SCT060 SCT250 21/12 A2999 RMK AO2 SLP156 T02060122 53004,350,2012-05-01 20:51:00<br />
5:51 PM,66.0,52.0,60,30.01,10.0,NNE,10.4,-,N/A,,Scattered Clouds,METAR KJFK 012151Z 02009KT 10SM FEW035 SCT060 SCT250 19/11 A3001 RMK AO2 SLP161 T01890111,20,2012-05-01 21:51:00<br />
6:51 PM,66.9,52.0,59,30.02,10.0,NNE,5.8,-,N/A,,Scattered Clouds,METAR KJFK 012251Z 03005KT 10SM FEW035 SCT060 SCT250 19/11 A3002 RMK AO2 SLP165 T01940111 $,30,2012-05-01 22:51:00<br />
7:51 PM,63.0,52.0,67,30.02,10.0,ENE,6.9,-,N/A,,Scattered Clouds,METAR KJFK 012351Z 06006KT 10SM FEW060 SCT250 17/11 A3002 RMK AO2 SLP164 T01720111 10211 20172 50008 $,60,2012-05-01 23:51:00<br />
8:51 PM,62.1,52.0,70,30.03,10.0,NE,8.1,-,N/A,,Mostly Cloudy,METAR KJFK 020051Z 05007KT 10SM BKN250 17/11 A3003 RMK AO2 SLP168 T01670111 $,50,2012-05-02 00:51:00<br />
9:51 PM,60.1,52.0,75,30.06,10.0,East,5.8,-,N/A,,Mostly Cloudy,METAR KJFK 020151Z 09005KT 10SM FEW090 BKN250 16/11 A3005 RMK AO2 SLP177 T01560111 $,90,2012-05-02 01:51:00<br />
10:51 PM,57.0,51.1,81,30.08,10.0,ENE,10.4,-,N/A,,Mostly Cloudy,METAR KJFK 020251Z 06009KT 10SM FEW090 BKN250 14/11 A3008 RMK AO2 SLP184 T01390106 53020 $,60,2012-05-02 02:51:00<br />
11:51 PM,55.0,48.9,80,30.10,10.0,ENE,10.4,-,N/A,,Scattered Clouds,METAR KJFK 020351Z 06009KT 10SM FEW090 SCT250 13/09 A3010 RMK AO2 SLP191 T01280094 $,60,2012-05-02 03:51:00<br />
