
TimeEDT,TemperatureF,Dew PointF,Humidity,Sea Level PressureIn,VisibilityMPH,Wind Direction,Wind SpeedMPH,Gust SpeedMPH,PrecipitationIn,Events,Conditions,FullMetar,WindDirDegrees,DateUTC<br />
12:51 AM,43.0,39.9,89,30.30,6.0,East,10.4,-,0.00,,Light Drizzle,METAR KJFK 160451Z 10009KT 6SM -DZ BR OVC006 06/04 A3030 RMK AO2 SLP260 P0000 T00610044 400830061,100,2012-03-16 04:51:00<br />
1:51 AM,43.0,39.9,89,30.28,7.0,East,12.7,-,0.00,,Light Drizzle,METAR KJFK 160551Z 10011KT 7SM -DZ OVC006 06/04 A3028 RMK AO2 SLP254 P0000 60000 T00610044 10067 20061 58009,100,2012-03-16 05:51:00<br />
2:51 AM,43.0,39.9,89,30.27,7.0,East,15.0,19.6,0.00,,Light Drizzle,METAR KJFK 160651Z 10013G17KT 7SM -DZ OVC006 06/04 A3027 RMK AO2 SLP249 P0000 T00610044,100,2012-03-16 06:51:00<br />
3:51 AM,43.0,39.9,89,30.25,6.0,East,13.8,-,0.00,,Light Drizzle,METAR KJFK 160751Z 10012KT 6SM -DZ BR OVC006 06/04 A3025 RMK AO2 SLP242 P0000 T00610044,100,2012-03-16 07:51:00<br />
4:51 AM,43.0,39.9,89,30.25,6.0,ESE,11.5,-,0.00,,Light Drizzle,METAR KJFK 160851Z 11010KT 6SM -DZ BR OVC006 06/04 A3025 RMK AO2 SLP243 P0000 60000 T00610044 55011,110,2012-03-16 08:51:00<br />
5:51 AM,43.0,39.9,89,30.24,6.0,East,9.2,-,0.00,Rain,Light Rain,METAR KJFK 160951Z 08008KT 6SM -RA BR OVC006 06/04 A3024 RMK AO2 DZE47RAB47 SLP239 P0000 T00610044,80,2012-03-16 09:51:00<br />
6:51 AM,43.0,39.9,89,30.24,10.0,East,6.9,-,0.01,,Overcast,METAR KJFK 161051Z 08006KT 10SM OVC006 06/04 A3024 RMK AO2 RAE03B31E44 SLP240 P0001 T00610044,80,2012-03-16 10:51:00<br />
7:40 AM,42.8,39.2,87,30.25,2.0,East,5.8,-,0.00,,Light Drizzle,SPECI KJFK 161140Z 08005KT 2SM -DZ BR OVC006 06/04 A3025 RMK AO2 DZB00 P0000,80,2012-03-16 11:40:00<br />
7:51 AM,43.0,39.9,89,30.25,2.0,ENE,8.1,-,0.00,,Light Drizzle,METAR KJFK 161151Z 07007KT 2SM -DZ BR OVC006 06/04 A3025 RMK AO2 DZB00 SLP243 P0000 60001 70001 T00610044 10061 20061 55000,70,2012-03-16 11:51:00<br />
8:12 AM,42.8,41.0,93,30.24,1.5,ENE,5.8,-,0.00,,Light Drizzle,SPECI KJFK 161212Z 06005KT 1 1/2SM R04R/5500V6000FT -DZ BR OVC006 06/05 A3024 RMK AO2 P0000,60,2012-03-16 12:12:00<br />
8:28 AM,42.8,41.0,93,30.24,1.5,ENE,5.8,-,0.00,,Light Drizzle,SPECI KJFK 161228Z 06005KT 1 1/2SM R04R/5500V6000FT -DZ BR OVC004 06/05 A3024 RMK AO2 P0000,60,2012-03-16 12:28:00<br />
8:51 AM,43.0,41.0,93,30.24,1.5,NE,5.8,-,0.00,,Light Drizzle,METAR KJFK 161251Z 05005KT 1 1/2SM R04R/4500V5000FT -DZ BR OVC004 06/05 A3024 RMK AO2 SLP239 P0000 T00610050,50,2012-03-16 12:51:00<br />
9:51 AM,44.1,42.1,93,30.24,1.5,ENE,6.9,-,0.00,,Light Drizzle,METAR KJFK 161351Z 06006KT 1 1/2SM R04R/5500VP6000FT -DZ BR OVC004 07/06 A3024 RMK AO2 SFC VIS 2 SLP238 P0000 T00670056,60,2012-03-16 13:51:00<br />
10:51 AM,44.1,42.1,93,30.23,2.0,NNE,5.8,-,0.01,,Light Drizzle,METAR KJFK 161451Z 02005KT 2SM R04R/5000VP6000FT -DZ BR OVC004 07/06 A3023 RMK AO2 SFC VIS 2 1/2 RAB32E47 SLP236 P0001 60001 T00670056 56007,20,2012-03-16 14:51:00<br />
11:51 AM,45.0,42.1,90,30.22,2.0,NE,5.8,-,0.00,,Light Drizzle,METAR KJFK 161551Z 05005KT 2SM R04R/5500VP6000FT -DZ BR OVC004 07/06 A3022 RMK AO2 SFC VIS 2 1/2 SLP232 P0000 T00720056,50,2012-03-16 15:51:00<br />
12:33 PM,46.4,42.8,87,30.21,2.0,NNE,4.6,-,0.00,Rain,Light Rain,SPECI KJFK 161633Z 03004KT 2SM -RA BR OVC006 08/06 A3021 RMK AO2 SFC VIS 4 DZE18RAB31 P0000,30,2012-03-16 16:33:00<br />
12:51 PM,46.0,43.0,89,30.20,2.0,Variable,3.5,-,0.00,Rain,Light Rain,METAR KJFK 161651Z VRB03KT 2SM -RA BR OVC006 08/06 A3020 RMK AO2 SFC VIS 3 DZE18RAB31 SLP227 P0000 T00780061,0,2012-03-16 16:51:00<br />
1:33 PM,46.4,42.8,87,30.18,1.5,North,3.5,-,0.00,,Overcast,SPECI KJFK 161733Z 35003KT 1 1/2SM BR OVC004 08/06 A3018 RMK AO2 SFC VIS 2 1/2 RAE05 P0000,350,2012-03-16 17:33:00<br />
1:51 PM,46.0,43.0,89,30.18,1.5,NNW,5.8,-,0.00,,Overcast,METAR KJFK 161751Z 34005KT 1 1/2SM BR OVC004 08/06 A3018 RMK AO2 SFC VIS 2 RAE05 SLP219 P0000 60001 T00780061 10078 20061 58017,340,2012-03-16 17:51:00<br />
2:51 PM,46.9,43.0,86,30.15,1.5,North,5.8,-,N/A,,Overcast,METAR KJFK 161851Z 36005KT 1 1/2SM BR OVC004 08/06 A3015 RMK AO2 SFC VIS 5 SLP210 T00830061,360,2012-03-16 18:51:00<br />
3:04 PM,46.4,44.6,93,30.15,2.0,NNW,4.6,-,N/A,,Overcast,SPECI KJFK 161904Z 34004KT 2SM BR OVC004 08/07 A3015 RMK AO2 SFC VIS 5,340,2012-03-16 19:04:00<br />
3:21 PM,46.4,44.6,93,30.15,2.0,North,3.5,-,N/A,,Overcast,SPECI KJFK 161921Z 01003KT 2SM BR OVC006 08/07 A3015 RMK AO2 SFC VIS 5,10,2012-03-16 19:21:00<br />
3:51 PM,48.0,43.0,83,30.14,2.0,Calm,Calm,-,N/A,,Haze,METAR KJFK 161951Z 00000KT 2SM HZ OVC006 09/06 A3014 RMK AO2 SFC VIS 6 SLP205 T00890061,0,2012-03-16 19:51:00<br />
4:51 PM,48.0,44.1,86,30.14,2.0,Calm,Calm,-,N/A,,Overcast,METAR KJFK 162051Z 00000KT 2SM BR OVC008 09/07 A3014 RMK AO2 SFC VIS 6 SLP205 T00890067 55014,0,2012-03-16 20:51:00<br />
5:04 PM,48.2,44.6,87,30.13,2.0,Calm,Calm,-,N/A,,Haze,SPECI KJFK 162104Z 00000KT 2SM HZ OVC010 09/07 A3013 RMK AO2 SFC VIS 6,0,2012-03-16 21:04:00<br />
5:22 PM,48.2,44.6,87,30.14,3.0,South,3.5,-,N/A,,Haze,SPECI KJFK 162122Z 17003KT 3SM HZ OVC010 09/07 A3014 RMK AO2 SFC VIS 6,170,2012-03-16 21:22:00<br />
5:51 PM,48.0,44.1,86,30.14,3.0,SW,6.9,-,N/A,,Overcast,METAR KJFK 162151Z 22006KT 3SM BR OVC014 09/07 A3014 RMK AO2 SFC VIS 6 SLP205 T00890067,220,2012-03-16 21:51:00<br />
6:51 PM,48.0,44.1,86,30.15,2.0,SW,5.8,-,N/A,,Overcast,METAR KJFK 162251Z 22005KT 2SM BR OVC012 09/07 A3015 RMK AO2 SFC VIS 4 SLP209 T00890067,220,2012-03-16 22:51:00<br />
7:43 PM,48.2,44.6,87,30.15,6.0,WSW,5.8,-,N/A,,Mostly Cloudy,SPECI KJFK 162343Z 24005KT 6SM BR BKN012 BKN030 09/07 A3015 RMK AO2,240,2012-03-16 23:43:00<br />
7:51 PM,48.0,44.1,86,30.16,6.0,WSW,6.9,-,N/A,,Mostly Cloudy,METAR KJFK 162351Z 24006KT 6SM BR BKN012 BKN030 09/07 A3016 RMK AO2 SLP212 T00890067 10094 20078 53007,240,2012-03-16 23:51:00<br />
8:28 PM,48.2,44.6,87,30.17,6.0,WSW,6.9,-,N/A,,Scattered Clouds,SPECI KJFK 170028Z 24006KT 6SM BR FEW012 SCT030 09/07 A3017 RMK AO2,240,2012-03-17 00:28:00<br />
8:51 PM,46.9,43.0,86,30.18,6.0,WSW,5.8,-,N/A,,Mostly Cloudy,METAR KJFK 170051Z 25005KT 6SM BR FEW012 BKN065 08/06 A3018 RMK AO2 SLP219 T00830061,250,2012-03-17 00:51:00<br />
9:51 PM,46.9,44.1,90,30.18,6.0,WSW,4.6,-,N/A,,Scattered Clouds,METAR KJFK 170151Z 25004KT 6SM BR FEW012 SCT065 08/07 A3018 RMK AO2 SLP220 T00830067,250,2012-03-17 01:51:00<br />
10:51 PM,45.0,43.0,93,30.18,5.0,WSW,5.8,-,N/A,,Clear,METAR KJFK 170251Z 24005KT 5SM BR CLR 07/06 A3018 RMK AO2 SLP220 T00720061 50008,240,2012-03-17 02:51:00<br />
11:51 PM,46.0,43.0,89,30.19,5.0,SW,8.1,-,N/A,,Clear,METAR KJFK 170351Z 22007KT 5SM BR CLR 08/06 A3019 RMK AO2 SLP224 T00780061,220,2012-03-17 03:51:00<br />
