
TimeEDT,TemperatureF,Dew PointF,Humidity,Sea Level PressureIn,VisibilityMPH,Wind Direction,Wind SpeedMPH,Gust SpeedMPH,PrecipitationIn,Events,Conditions,FullMetar,WindDirDegrees,DateUTC<br />
12:51 AM,69.1,64.9,87,30.08,10.0,SW,8.1,-,N/A,,Partly Cloudy,METAR KJFK 200451Z 22007KT 10SM FEW250 21/18 A3008 RMK AO2 SLP186 T02060183 402330167,220,2012-06-20 04:51:00<br />
1:51 AM,69.1,64.9,87,30.09,10.0,WSW,9.2,-,N/A,,Partly Cloudy,METAR KJFK 200551Z 25008KT 10SM FEW250 21/18 A3009 RMK AO2 SLP189 T02060183 10211 20206 55006,250,2012-06-20 05:51:00<br />
2:51 AM,70.0,66.0,87,30.08,10.0,WSW,8.1,-,N/A,,Mostly Cloudy,METAR KJFK 200651Z 24007KT 10SM BKN060 BKN250 21/19 A3008 RMK AO2 SLP186 T02110189,240,2012-06-20 06:51:00<br />
3:51 AM,70.0,66.0,87,30.07,10.0,SW,8.1,-,N/A,,Mostly Cloudy,METAR KJFK 200751Z 23007KT 10SM SCT055 BKN080 BKN250 21/19 A3007 RMK AO2 SLP183 T02110189,230,2012-06-20 07:51:00<br />
4:51 AM,70.0,66.0,87,30.06,10.0,SW,6.9,-,N/A,,Mostly Cloudy,METAR KJFK 200851Z 22006KT 10SM BKN080 21/19 A3006 RMK AO2 SLP180 T02110189 57009,220,2012-06-20 08:51:00<br />
5:51 AM,70.0,66.0,87,30.06,7.0,WSW,6.9,-,N/A,,Partly Cloudy,METAR KJFK 200951Z 24006KT 7SM FEW080 21/19 A3006 RMK AO2 SLP180 T02110189,240,2012-06-20 09:51:00<br />
6:51 AM,72.0,66.9,84,30.07,7.0,SW,5.8,-,N/A,,Scattered Clouds,METAR KJFK 201051Z 23005KT 7SM FEW080 SCT140 22/19 A3007 RMK AO2 SLP183 T02220194,230,2012-06-20 10:51:00<br />
7:51 AM,73.9,68.0,82,30.07,6.0,WSW,6.9,-,N/A,,Haze,METAR KJFK 201151Z 24006KT 6SM HZ FEW080 SCT140 23/20 A3007 RMK AO2 SLP183 T02330200 10233 20206 53003 $,240,2012-06-20 11:51:00<br />
8:51 AM,75.9,69.1,79,30.07,6.0,SW,6.9,-,N/A,,Haze,METAR KJFK 201251Z 22006KT 6SM HZ FEW080 24/21 A3007 RMK AO2 SLP183 T02440206 $,220,2012-06-20 12:51:00<br />
9:51 AM,80.1,70.0,71,30.06,7.0,SW,5.8,-,N/A,,Scattered Clouds,METAR KJFK 201351Z 22005KT 7SM FEW080 SCT250 27/21 A3006 RMK AO2 SLP180 T02670211,220,2012-06-20 13:51:00<br />
10:51 AM,84.9,71.1,63,30.06,8.0,SSW,8.1,-,N/A,,Scattered Clouds,METAR KJFK 201451Z 21007KT 8SM SCT250 29/22 A3005 RMK AO2 SLP177 T02940217 58006,210,2012-06-20 14:51:00<br />
11:51 AM,84.0,71.1,65,30.05,8.0,South,10.4,-,N/A,,Mostly Cloudy,METAR KJFK 201551Z 19009KT 8SM BKN250 29/22 A3005 RMK AO2 SLP176 T02890217,190,2012-06-20 15:51:00<br />
12:51 PM,86.0,71.1,61,30.03,9.0,SSW,12.7,-,N/A,,Mostly Cloudy,METAR KJFK 201651Z 21011KT 9SM BKN250 30/22 A3003 RMK AO2 SLP169 T03000217,210,2012-06-20 16:51:00<br />
1:51 PM,89.1,71.1,55,30.01,9.0,SSW,12.7,-,N/A,,Mostly Cloudy,METAR KJFK 201751Z 21011KT 9SM FEW055 BKN250 32/22 A3001 RMK AO2 SLP161 T03170217 10317 20233 58015,210,2012-06-20 17:51:00<br />
2:51 PM,93.0,69.1,45,29.99,10.0,WSW,17.3,-,N/A,,Mostly Cloudy,METAR KJFK 201851Z 24015KT 10SM FEW055 BKN250 34/21 A2999 RMK AO2 SLP156 T03390206,240,2012-06-20 18:51:00<br />
3:51 PM,91.0,71.1,52,29.97,10.0,SSW,13.8,-,N/A,,Mostly Cloudy,METAR KJFK 201951Z 21012KT 10SM FEW065 BKN250 33/22 A2997 RMK AO2 SLP149 T03280217,210,2012-06-20 19:51:00<br />
4:51 PM,90.0,71.1,54,29.95,10.0,SSW,12.7,-,N/A,,Mostly Cloudy,METAR KJFK 202051Z 20011KT 10SM FEW065 BKN250 32/22 A2995 RMK AO2 SLP142 T03220217 58019,200,2012-06-20 20:51:00<br />
5:51 PM,91.0,72.0,53,29.94,10.0,SSW,10.4,-,N/A,,Scattered Clouds,METAR KJFK 202151Z 20009KT 10SM SCT065 SCT250 33/22 A2994 RMK AO2 SLP139 T03280222,200,2012-06-20 21:51:00<br />
6:51 PM,93.9,69.1,44,29.94,10.0,West,12.7,-,N/A,,Mostly Cloudy,METAR KJFK 202251Z 26011KT 10SM SCT070 BKN250 34/21 A2994 RMK AO2 SLP137 T03440206,260,2012-06-20 22:51:00<br />
7:51 PM,89.1,71.1,55,29.94,10.0,WSW,9.2,-,N/A,,Scattered Clouds,METAR KJFK 202351Z 24008KT 10SM FEW070 SCT250 32/22 A2993 RMK AO2 SLP136 T03170217 10344 20311 56006,240,2012-06-20 23:51:00<br />
8:51 PM,89.1,69.1,52,29.93,10.0,West,10.4,-,N/A,,Scattered Clouds,METAR KJFK 210051Z 26009KT 10SM FEW070 SCT250 32/21 A2993 RMK AO2 SLP135 T03170206,260,2012-06-21 00:51:00<br />
9:51 PM,84.9,70.0,61,29.94,10.0,WSW,10.4,-,N/A,,Partly Cloudy,METAR KJFK 210151Z 25009KT 10SM FEW250 29/21 A2994 RMK AO2 SLP139 T02940211,250,2012-06-21 01:51:00<br />
10:51 PM,84.9,70.0,61,29.94,10.0,WSW,9.2,-,N/A,,Partly Cloudy,METAR KJFK 210251Z 25008KT 10SM FEW250 29/21 A2994 RMK AO2 SLP138 T02940211 53002,250,2012-06-21 02:51:00<br />
11:51 PM,87.1,69.1,55,29.94,10.0,West,10.4,-,N/A,,Partly Cloudy,METAR KJFK 210351Z 28009KT 10SM FEW250 31/21 A2994 RMK AO2 SLP137 T03060206,280,2012-06-21 03:51:00<br />
