
TimeEDT,TemperatureF,Dew PointF,Humidity,Sea Level PressureIn,VisibilityMPH,Wind Direction,Wind SpeedMPH,Gust SpeedMPH,PrecipitationIn,Events,Conditions,FullMetar,WindDirDegrees,DateUTC<br />
12:51 AM,66.9,64.0,90,30.19,10.0,SE,8.1,-,N/A,,Mostly Cloudy,METAR KJFK 110451Z 13007KT 10SM BKN075 19/18 A3019 RMK AO2 SLP222 T01940178 402670183 $,130,2012-06-11 04:51:00<br />
1:51 AM,68.0,63.0,84,30.18,10.0,ESE,5.8,-,N/A,,Mostly Cloudy,METAR KJFK 110551Z 11005KT 10SM BKN080 20/17 A3018 RMK AO2 SLP219 60000 T02000172 10217 20194 58000 $,110,2012-06-11 05:51:00<br />
2:51 AM,66.9,63.0,87,30.18,10.0,ESE,6.9,-,N/A,,Scattered Clouds,METAR KJFK 110651Z 11006KT 10SM FEW060 SCT110 19/17 A3017 RMK AO2 SLP218 T01940172 $,110,2012-06-11 06:51:00<br />
3:51 AM,66.0,63.0,90,30.18,10.0,East,9.2,-,N/A,,Scattered Clouds,METAR KJFK 110751Z 10008KT 10SM FEW060 SCT120 19/17 A3018 RMK AO2 SLP220 T01890172 $,100,2012-06-11 07:51:00<br />
4:51 AM,66.0,63.0,90,30.19,10.0,ESE,8.1,-,N/A,,Scattered Clouds,METAR KJFK 110851Z COR 12007KT 10SM FEW060 SCT130 19/17 A3019 RMK AO2 SLP222 T01890172 53003 $,120,2012-06-11 08:51:00<br />
5:51 AM,66.0,63.0,90,30.21,10.0,ESE,5.8,-,N/A,,Mostly Cloudy,METAR KJFK 110951Z 11005KT 10SM FEW011 BKN070 BKN130 19/17 A3020 RMK AO2 SLP228 T01890172 $,110,2012-06-11 09:51:00<br />
6:51 AM,68.0,64.0,87,30.23,10.0,East,9.2,-,N/A,,Mostly Cloudy,METAR KJFK 111051Z 10008KT 10SM FEW012 BKN080 BKN130 20/18 A3023 RMK AO2 SLP235 T02000178 $,100,2012-06-11 10:51:00<br />
7:51 AM,69.1,64.0,84,30.25,10.0,ESE,11.5,-,N/A,,Mostly Cloudy,METAR KJFK 111151Z 11010KT 10SM FEW012 BKN085 21/18 A3024 RMK AO2 SLP241 T02060178 10206 20189 51020 $,110,2012-06-11 11:51:00<br />
8:51 AM,70.0,62.1,76,30.24,10.0,ESE,13.8,-,N/A,,Mostly Cloudy,METAR KJFK 111251Z 11012KT 10SM FEW014 SCT075 BKN110 21/17 A3024 RMK AO2 SLP240 T02110167,110,2012-06-11 12:51:00<br />
9:51 AM,71.1,60.1,68,30.26,10.0,SE,10.4,-,N/A,,Mostly Cloudy,METAR KJFK 111351Z 13009KT 10SM FEW019 BKN065 BKN110 BKN250 22/16 A3026 RMK AO2 SLP246 T02170156,130,2012-06-11 13:51:00<br />
10:51 AM,71.1,61.0,70,30.27,10.0,ESE,16.1,23.0,N/A,,Mostly Cloudy,METAR KJFK 111451Z 12014G20KT 10SM FEW023 BKN070 BKN130 BKN250 22/16 A3027 RMK AO2 SLP248 T02170161 53007,120,2012-06-11 14:51:00<br />
11:51 AM,72.0,55.0,55,30.27,10.0,SE,16.1,23.0,N/A,,Mostly Cloudy,METAR KJFK 111551Z 13014G20KT 10SM FEW029 BKN065 BKN130 BKN250 22/13 A3027 RMK AO2 SLP249 T02220128,130,2012-06-11 15:51:00<br />
12:51 PM,73.9,55.0,52,30.26,10.0,ESE,16.1,-,N/A,,Scattered Clouds,METAR KJFK 111651Z 12014KT 10SM FEW037 SCT070 SCT130 SCT250 23/13 A3026 RMK AO2 SLP246 T02330128,120,2012-06-11 16:51:00<br />
1:51 PM,73.9,57.0,55,30.25,10.0,SE,16.1,-,N/A,,Mostly Cloudy,METAR KJFK 111751Z 14014KT 10SM FEW040 SCT075 BKN130 BKN250 23/14 A3025 RMK AO2 SLP244 FU PLUME NW DRFTG NW T02330139 10239 20200 58004,140,2012-06-11 17:51:00<br />
2:51 PM,73.0,59.0,61,30.25,10.0,ESE,16.1,23.0,N/A,,Mostly Cloudy,METAR KJFK 111851Z 11014G20KT 10SM SCT032 SCT075 SCT090 BKN130 BKN250 23/15 A3025 RMK AO2 SLP242 T02280150,110,2012-06-11 18:51:00<br />
3:51 PM,70.0,60.1,71,30.24,10.0,ESE,17.3,-,N/A,,Mostly Cloudy,METAR KJFK 111951Z 12015KT 10SM BKN034 BKN047 BKN070 BKN250 21/16 A3024 RMK AO2 SLP240 T02110156,120,2012-06-11 19:51:00<br />
4:51 PM,68.0,59.0,73,30.24,10.0,ESE,15.0,-,N/A,,Mostly Cloudy,METAR KJFK 112051Z 12013KT 10SM FEW015 BKN034 BKN043 BKN250 20/15 A3024 RMK AO2 SLP239 T02000150 57005,120,2012-06-11 20:51:00<br />
5:51 PM,68.0,60.1,76,30.22,10.0,ESE,16.1,-,N/A,,Overcast,METAR KJFK 112151Z 12014KT 10SM FEW012 BKN038 OVC046 20/16 A3022 RMK AO2 SLP233 T02000156,120,2012-06-11 21:51:00<br />
6:51 PM,66.9,61.0,81,30.22,10.0,SE,11.5,-,N/A,,Mostly Cloudy,METAR KJFK 112251Z 13010KT 10SM FEW012 BKN045 BKN250 19/16 A3022 RMK AO2 SLP233 T01940161 $,130,2012-06-11 22:51:00<br />
7:51 PM,66.0,61.0,84,30.22,10.0,SE,11.5,-,N/A,,Overcast,METAR KJFK 112351Z 13010KT 10SM FEW012 OVC047 19/16 A3022 RMK AO2 SLP234 T01890161 10233 20189 55004,130,2012-06-11 23:51:00<br />
8:51 PM,64.9,60.1,84,30.22,10.0,SE,8.1,-,N/A,,Mostly Cloudy,METAR KJFK 120051Z 13007KT 10SM FEW012 BKN049 BKN250 18/16 A3022 RMK AO2 SLP234 T01830156,130,2012-06-12 00:51:00<br />
9:51 PM,64.9,60.1,84,30.23,10.0,SE,8.1,-,N/A,,Mostly Cloudy,METAR KJFK 120151Z 14007KT 10SM FEW015 SCT049 BKN250 18/16 A3023 RMK AO2 SLP235 T01830156,140,2012-06-12 01:51:00<br />
10:51 PM,64.0,61.0,90,30.22,10.0,SE,9.2,-,N/A,,Mostly Cloudy,METAR KJFK 120251Z 13008KT 10SM FEW014 BKN150 BKN250 18/16 A3021 RMK AO2 SLP231 T01780161 58003,130,2012-06-12 02:51:00<br />
11:51 PM,64.0,61.0,90,30.20,10.0,SE,4.6,-,N/A,,Mostly Cloudy,METAR KJFK 120351Z 14004KT 10SM FEW014 SCT049 SCT140 BKN250 18/16 A3020 RMK AO2 SLP227 T01780161,140,2012-06-12 03:51:00<br />
