
TimeEDT,TemperatureF,Dew PointF,Humidity,Sea Level PressureIn,VisibilityMPH,Wind Direction,Wind SpeedMPH,Gust SpeedMPH,PrecipitationIn,Events,Conditions,FullMetar,WindDirDegrees,DateUTC<br />
12:13 AM,48.2,42.8,82,30.24,10.0,NNE,8.1,-,N/A,,Mostly Cloudy,SPECI KLGA 130413Z 02007KT 10SM BKN026 09/06 A3024 RMK AO2,20,2010-05-13 04:13:00<br />
12:37 AM,48.2,42.8,82,30.24,10.0,NNE,6.9,-,N/A,,Scattered Clouds,SPECI KLGA 130437Z 02006KT 10SM SCT023 09/06 A3024 RMK AO2,20,2010-05-13 04:37:00<br />
12:51 AM,48.0,42.1,80,30.24,10.0,North,6.9,-,N/A,,Partly Cloudy,METAR KLGA 130451Z 01006KT 10SM FEW021 09/06 A3024 RMK AO2 SLP239 T00890056 401000078,10,2010-05-13 04:51:00<br />
1:51 AM,46.9,42.1,83,30.24,10.0,North,4.6,-,N/A,,Clear,METAR KLGA 130551Z 01004KT 10SM CLR 08/06 A3024 RMK AO2 SLP239 T00830056 10100 20083 51003,10,2010-05-13 05:51:00<br />
2:51 AM,48.0,42.1,80,30.25,10.0,NNW,5.8,-,N/A,,Clear,METAR KLGA 130651Z 34005KT 10SM CLR 09/06 A3025 RMK AO2 SLP242 T00890056,340,2010-05-13 06:51:00<br />
3:51 AM,48.0,42.1,80,30.25,10.0,NNW,6.9,-,N/A,,Clear,METAR KLGA 130751Z 33006KT 10SM CLR 09/06 A3025 RMK AO2 SLP244 T00890056,330,2010-05-13 07:51:00<br />
4:51 AM,46.9,41.0,80,30.27,10.0,North,8.1,-,N/A,,Clear,METAR KLGA 130851Z 35007KT 10SM CLR 08/05 A3027 RMK AO2 SLP251 T00830050 53012,350,2010-05-13 08:51:00<br />
5:51 AM,46.9,41.0,80,30.30,10.0,North,6.9,-,N/A,,Partly Cloudy,METAR KLGA 130951Z 36006KT 10SM FEW250 08/05 A3029 RMK AO2 SLP258 T00830050,360,2010-05-13 09:51:00<br />
6:51 AM,48.9,37.9,66,30.31,10.0,NNE,5.8,-,N/A,,Partly Cloudy,METAR KLGA 131051Z 03005KT 10SM FEW250 09/03 A3031 RMK AO2 SLP264 T00940033,30,2010-05-13 10:51:00<br />
7:51 AM,51.1,36.0,56,30.31,10.0,NE,9.2,-,N/A,,Partly Cloudy,METAR KLGA 131151Z 04008KT 10SM FEW250 11/02 A3031 RMK AO2 SLP263 70004 T01060022 10106 20083 50012 $,40,2010-05-13 11:51:00<br />
8:51 AM,54.0,35.1,49,30.35,10.0,NE,8.1,-,N/A,,Partly Cloudy,METAR KLGA 131251Z 05007KT 10SM FEW250 12/02 A3034 RMK AO2 SLP275 T01220017 $,50,2010-05-13 12:51:00<br />
9:51 AM,55.0,36.0,49,30.34,10.0,NE,8.1,-,N/A,,Partly Cloudy,METAR KLGA 131351Z 05007KT 10SM FEW250 13/02 A3034 RMK AO2 SLP274 T01280022 $,50,2010-05-13 13:51:00<br />
10:51 AM,57.9,34.0,41,30.34,10.0,ENE,12.7,-,N/A,,Partly Cloudy,METAR KLGA 131451Z 06011KT 10SM FEW250 14/01 A3034 RMK AO2 SLP272 T01440011 50009 $,60,2010-05-13 14:51:00<br />
11:51 AM,59.0,36.0,42,30.34,10.0,ENE,6.9,-,N/A,,Partly Cloudy,METAR KLGA 131551Z 07006KT 10SM FEW250 15/02 A3034 RMK AO2 SLP273 T01500022 $,70,2010-05-13 15:51:00<br />
12:51 PM,61.0,35.1,38,30.32,10.0,Calm,Calm,-,N/A,,Partly Cloudy,METAR KLGA 131651Z 00000KT 10SM FEW250 16/02 A3032 RMK AO2 SLP267 T01610017,0,2010-05-13 16:51:00<br />
1:51 PM,64.9,35.1,33,30.30,10.0,Variable,3.5,-,N/A,,Mostly Cloudy,METAR KLGA 131751Z VRB03KT 10SM BKN250 18/02 A3029 RMK AO2 SLP258 T01830017 10183 20106 58014,0,2010-05-13 17:51:00<br />
2:51 PM,66.9,34.0,30,30.28,10.0,Variable,6.9,-,N/A,,Scattered Clouds,METAR KLGA 131851Z VRB06KT 10SM SCT250 19/01 A3028 RMK AO2 SLP254 T01940011,0,2010-05-13 18:51:00<br />
3:51 PM,69.1,35.1,29,30.26,10.0,Variable,4.6,-,N/A,,Scattered Clouds,METAR KLGA 131951Z VRB04KT 10SM SCT250 21/02 A3026 RMK AO2 SLP246 T02060017,0,2010-05-13 19:51:00<br />
4:51 PM,69.1,35.1,29,30.25,10.0,West,8.1,-,N/A,,Scattered Clouds,METAR KLGA 132051Z 26007KT 10SM SCT250 21/02 A3025 RMK AO2 SLP244 T02060017 56014,260,2010-05-13 20:51:00<br />
5:30 PM,66.2,37.4,35,30.25,10.0,South,15.0,-,N/A,,Scattered Clouds,SPECI KLGA 132130Z 19013KT 10SM FEW130 SCT250 19/03 A3025 RMK AO2 WSHFT 2115,190,2010-05-13 21:30:00<br />
5:51 PM,64.9,35.1,33,30.24,10.0,SSW,13.8,-,N/A,,Scattered Clouds,METAR KLGA 132151Z 20012KT 10SM FEW130 SCT250 18/02 A3024 RMK AO2 WSHFT 2115 SLP239 T01830017,200,2010-05-13 21:51:00<br />
6:51 PM,61.0,35.1,38,30.23,10.0,South,15.0,-,N/A,,Mostly Cloudy,METAR KLGA 132251Z 18013KT 10SM BKN130 BKN250 16/02 A3023 RMK AO2 SLP237 T01610017,180,2010-05-13 22:51:00<br />
7:51 PM,60.8,33.8,36,30.24,10.0,South,13.8,-,N/A,,Mostly Cloudy,METAR KLGA 132351Z 18012KT 10SM BKN130 BKN250 16/01 A3024,180,2010-05-13 23:51:00<br />
8:51 PM,60.1,36.0,41,30.23,10.0,SSW,10.4,-,N/A,,Mostly Cloudy,METAR KLGA 140051Z 20009KT 10SM BKN130 BKN250 16/02 A3023 RMK AO2 SLP236 T01560022 $,200,2010-05-14 00:51:00<br />
9:51 PM,59.0,36.0,42,30.22,10.0,SSW,13.8,21.9,N/A,,Mostly Cloudy,METAR KLGA 140151Z 21012G19KT 10SM SCT080 BKN130 BKN250 15/02 A3022 RMK AO2 SLP231 T01500022 $,210,2010-05-14 01:51:00<br />
10:51 PM,57.9,37.9,47,30.22,10.0,SSW,10.4,-,N/A,,Mostly Cloudy,METAR KLGA 140251Z 21009KT 10SM BKN130 14/03 A3022 RMK AO2 SLP232 T01440033 55006 $,210,2010-05-14 02:51:00<br />
11:51 PM,57.9,37.9,47,30.21,10.0,SSW,10.4,-,N/A,,Overcast,METAR KLGA 140351Z 21009KT 10SM BKN060 OVC130 14/03 A3021 RMK AO2 SLP229 T01440033 $,210,2010-05-14 03:51:00<br />
