
TimeEST,TemperatureF,Dew PointF,Humidity,Sea Level PressureIn,VisibilityMPH,Wind Direction,Wind SpeedMPH,Gust SpeedMPH,PrecipitationIn,Events,Conditions,FullMetar,WindDirDegrees,DateUTC<br />
12:51 AM,39.0,26.1,60,29.94,10.0,NW,11.5,-,N/A,,Partly Cloudy,METAR KLGA 210551Z 31010KT 10SM FEW038 04/M03 A2994 RMK AO2 SLP137 T00391033 10056 20039 57003,310,2010-02-21 05:51:00<br />
1:51 AM,37.9,26.1,62,29.94,10.0,NW,9.2,-,N/A,,Scattered Clouds,METAR KLGA 210651Z 32008KT 10SM SCT038 SCT250 03/M03 A2994 RMK AO2 SLP138 T00331033,320,2010-02-21 06:51:00<br />
2:51 AM,37.0,24.1,59,29.94,10.0,NW,8.1,-,N/A,,Scattered Clouds,METAR KLGA 210751Z 31007KT 10SM SCT039 SCT250 03/M04 A2994 RMK AO2 SLP138 T00281044,310,2010-02-21 07:51:00<br />
3:51 AM,37.0,24.1,59,29.94,10.0,WNW,8.1,-,N/A,,Scattered Clouds,METAR KLGA 210851Z 30007KT 10SM FEW035 SCT250 03/M04 A2994 RMK AO2 SLP137 T00281044 50000,300,2010-02-21 08:51:00<br />
4:51 AM,37.0,21.9,54,29.95,10.0,West,11.5,-,N/A,,Scattered Clouds,METAR KLGA 210951Z 27010KT 10SM FEW035 SCT250 03/M06 A2995 RMK AO2 SLP141 T00281056,270,2010-02-21 09:51:00<br />
5:51 AM,36.0,21.0,55,29.95,10.0,West,12.7,19.6,N/A,,Scattered Clouds,METAR KLGA 211051Z 27011G17KT 10SM FEW033 SCT250 02/M06 A2995 RMK AO2 SLP141 T00221061,270,2010-02-21 10:51:00<br />
6:51 AM,36.0,21.0,55,29.96,10.0,West,11.5,-,N/A,,Scattered Clouds,METAR KLGA 211151Z 26010KT 10SM FEW033 SCT120 SCT250 02/M06 A2996 RMK AO2 SLP143 T00221061 10039 20022 51006,260,2010-02-21 11:51:00<br />
7:51 AM,36.0,21.0,55,29.96,10.0,West,13.8,-,N/A,,Scattered Clouds,METAR KLGA 211251Z 26012KT 10SM FEW033 SCT120 SCT250 02/M06 A2996 RMK AO2 SLP146 T00221061,260,2010-02-21 12:51:00<br />
8:51 AM,36.0,21.0,55,29.96,10.0,West,10.4,20.7,N/A,,Scattered Clouds,METAR KLGA 211351Z 26009G18KT 10SM FEW033 SCT250 02/M06 A2996 RMK AO2 SLP144 T00221061,260,2010-02-21 13:51:00<br />
9:51 AM,39.0,21.0,49,29.94,10.0,West,16.1,24.2,N/A,,Partly Cloudy,METAR KLGA 211451Z 28014G21KT 10SM FEW040 04/M06 A2994 RMK AO2 SLP138 T00391061 58005,280,2010-02-21 14:51:00<br />
10:51 AM,41.0,18.0,40,29.93,10.0,WNW,20.7,25.3,N/A,,Partly Cloudy,METAR KLGA 211551Z 29018G22KT 10SM FEW045 05/M08 A2993 RMK AO2 SLP134 T00501078,290,2010-02-21 15:51:00<br />
11:51 AM,42.1,18.0,38,29.92,10.0,WNW,18.4,-,N/A,,Scattered Clouds,METAR KLGA 211651Z 29016KT 10SM FEW045 SCT250 06/M08 A2992 RMK AO2 SLP130 T00561078,290,2010-02-21 16:51:00<br />
12:51 PM,44.1,17.1,34,29.90,10.0,NW,18.4,26.5,N/A,,Scattered Clouds,METAR KLGA 211751Z 31016G23KT 10SM FEW045 SCT250 07/M08 A2990 RMK AO2 SLP125 T00671083 10067 20022 58013,310,2010-02-21 17:51:00<br />
1:51 PM,44.1,18.0,35,29.89,10.0,NW,20.7,28.8,N/A,,Scattered Clouds,METAR KLGA 211851Z 31018G25KT 10SM FEW045 SCT250 07/M08 A2989 RMK AO2 SLP120 T00671078,310,2010-02-21 18:51:00<br />
2:51 PM,45.0,18.0,34,29.90,10.0,NNW,18.4,27.6,N/A,,Partly Cloudy,METAR KLGA 211951Z 33016G24KT 10SM FEW045 07/M08 A2989 RMK AO2 SLP123 T00721078,330,2010-02-21 19:51:00<br />
3:51 PM,46.0,16.0,30,29.88,10.0,NW,18.4,31.1,N/A,,Scattered Clouds,METAR KLGA 212051Z 31016G27KT 10SM FEW045 SCT250 08/M09 A2988 RMK AO2 PK WND 30027/2043 SLP119 T00781089 56006,310,2010-02-21 20:51:00<br />
4:51 PM,44.1,16.0,32,29.89,10.0,NW,25.3,43.7,N/A,,Partly Cloudy,METAR KLGA 212151Z 31022G38KT 10SM FEW045 07/M09 A2989 RMK AO2 PK WND 30038/2149 SLP120 T00671089,310,2010-02-21 21:51:00<br />
5:51 PM,44.1,16.0,32,29.91,10.0,NW,19.6,-,N/A,,Scattered Clouds,METAR KLGA 212251Z 32017KT 10SM FEW045 SCT250 07/M09 A2991 RMK AO2 PK WND 32032/2202 SLP128 T00671089,320,2010-02-21 22:51:00<br />
6:51 PM,42.1,15.1,34,29.92,10.0,NW,17.3,-,N/A,,Partly Cloudy,METAR KLGA 212351Z 32015KT 10SM FEW250 06/M09 A2992 RMK AO2 SLP132 T00561094 10078 20056 53013,320,2010-02-21 23:51:00<br />
7:51 PM,41.0,14.0,33,29.94,10.0,NW,15.0,24.2,N/A,,Partly Cloudy,METAR KLGA 220051Z 32013G21KT 10SM FEW250 05/M10 A2994 RMK AO2 SLP138 T00501100,320,2010-02-22 00:51:00<br />
8:51 PM,39.0,16.0,39,29.95,10.0,NW,16.1,23.0,N/A,,Clear,METAR KLGA 220151Z 31014G20KT 10SM CLR 04/M09 A2995 RMK AO2 SLP142 T00391089,310,2010-02-22 01:51:00<br />
9:51 PM,37.9,15.1,39,29.97,10.0,WNW,15.0,-,N/A,,Partly Cloudy,METAR KLGA 220251Z 30013KT 10SM FEW250 03/M09 A2997 RMK AO2 SLP147 T00331094 51015,300,2010-02-22 02:51:00<br />
10:51 PM,37.0,17.1,44,29.98,10.0,WNW,12.7,-,N/A,,Scattered Clouds,METAR KLGA 220351Z 30011KT 10SM SCT250 03/M08 A2997 RMK AO2 SLP150 T00281083,300,2010-02-22 03:51:00<br />
11:51 PM,36.0,19.9,52,29.98,10.0,NW,13.8,24.2,N/A,,Scattered Clouds,METAR KLGA 220451Z 31012G21KT 10SM SCT250 02/M07 A2998 RMK AO2 SLP152 T00221067 400780022,310,2010-02-22 04:51:00<br />
