
TimeEST,TemperatureF,Dew PointF,Humidity,Sea Level PressureIn,VisibilityMPH,Wind Direction,Wind SpeedMPH,Gust SpeedMPH,PrecipitationIn,Events,Conditions,FullMetar,WindDirDegrees,DateUTC<br />
12:51 AM,44.1,28.9,55,29.90,10.0,NW,13.8,26.5,N/A,,Mostly Cloudy,METAR KLGA 080551Z 31012G23KT 10SM BKN130 BKN250 07/M02 A2989 RMK AO2 SLP123 T00671017 10083 20061 58026,310,2010-11-08 05:51:00<br />
1:51 AM,43.0,30.0,60,29.87,10.0,WNW,19.6,24.2,N/A,,Mostly Cloudy,METAR KLGA 080651Z 30017G21KT 10SM BKN130 BKN250 06/M01 A2987 RMK AO2 SLP113 T00611011,300,2010-11-08 06:51:00<br />
2:51 AM,43.0,28.9,58,29.83,10.0,WNW,20.7,26.5,N/A,,Overcast,METAR KLGA 080751Z 30018G23KT 10SM BKN130 OVC250 06/M02 A2982 RMK AO2 SLP099 T00611017,300,2010-11-08 07:51:00<br />
3:51 AM,43.0,28.0,56,29.78,10.0,WNW,17.3,29.9,N/A,,Overcast,METAR KLGA 080851Z 30015G26KT 10SM BKN130 OVC250 06/M02 A2978 RMK AO2 PK WND 30026/0844 SLP084 T00611022 58039,300,2010-11-08 08:51:00<br />
4:51 AM,44.1,28.0,53,29.73,10.0,NW,20.7,33.4,N/A,,Overcast,METAR KLGA 080951Z 31018G29KT 10SM BKN120 OVC250 07/M02 A2973 RMK AO2 PK WND 33029/0945 SLP067 T00671022,310,2010-11-08 09:51:00<br />
5:51 AM,44.1,27.0,51,29.68,10.0,WNW,23.0,39.1,N/A,,Overcast,METAR KLGA 081051Z 30020G34KT 10SM BKN075 OVC120 07/M03 A2968 RMK AO2 PK WND 30038/1034 SLP051 T00671028,300,2010-11-08 10:51:00<br />
6:51 AM,45.0,26.1,48,29.66,10.0,WNW,24.2,32.2,N/A,,Mostly Cloudy,METAR KLGA 081151Z 30021G28KT 10SM BKN100 07/M03 A2966 RMK AO2 PK WND 31034/1058 SLP044 T00721033 10072 20056 56040,300,2010-11-08 11:51:00<br />
7:51 AM,45.0,27.0,49,29.63,10.0,WNW,20.7,35.7,N/A,,Overcast,METAR KLGA 081251Z 30018G31KT 10SM BKN080 BKN100 OVC250 07/M03 A2963 RMK AO2 PK WND 29031/1245 SLP033 T00721028,300,2010-11-08 12:51:00<br />
8:51 AM,46.0,26.1,46,29.59,10.0,NW,25.3,34.5,N/A,,Overcast,METAR KLGA 081351Z 31022G30KT 10SM FEW065 BKN085 OVC180 08/M03 A2959 RMK AO2 PK WND 30030/1343 SLP019 T00781033,310,2010-11-08 13:51:00<br />
9:08 AM,46.4,28.4,50,29.58,10.0,NW,25.3,40.3,0.00,Rain,Light Ice Pellets,SPECI KLGA 081408Z 31022G35KT 10SM -PLRA BKN055 OVC080 08/M02 A2958 RMK AO2 PK WND 33035/1359 RAB05PLB07 P0000,310,2010-11-08 14:08:00<br />
9:46 AM,44.6,30.2,57,29.59,10.0,NW,19.6,39.1,0.00,Rain,Light Rain,SPECI KLGA 081446Z 32017G34KT 10SM -RA FEW035 OVC050 07/M01 A2959 RMK AO2 PK WND 32037/1431 RAB05PLB07E45 P0000,320,2010-11-08 14:46:00<br />
9:51 AM,44.1,30.0,58,29.59,10.0,NW,24.2,31.1,0.00,Rain,Light Rain,METAR KLGA 081451Z 31021G27KT 10SM -RA FEW035 OVC050 07/M01 A2959 RMK AO2 PK WND 32037/1431 RAB05PLB07E45 SLP020 P0000 60000 T00671011 55024,310,2010-11-08 14:51:00<br />
10:51 AM,46.0,28.9,51,29.58,10.0,NW,20.7,33.4,0.00,Rain,Light Rain,METAR KLGA 081551Z 31018G29KT 10SM -RA FEW035 BKN060 BKN075 OVC150 08/M02 A2958 RMK AO2 PK WND 33030/1538 RAE24B43 SLP016 P0000 T00781017,310,2010-11-08 15:51:00<br />
11:46 AM,44.6,32.0,61,29.57,10.0,NW,21.9,38.0,0.00,Rain,Light Rain,SPECI KLGA 081646Z 32019G33KT 10SM -RASN SCT017 BKN025 OVC055 07/00 A2957 RMK AO2 PK WND 32036/1625 SNB42 P0000,320,2010-11-08 16:46:00<br />
11:51 AM,45.0,30.9,58,29.57,10.0,NNW,20.7,33.4,0.00,Rain,Light Rain,METAR KLGA 081651Z 33018G29KT 10SM -RASN SCT017 BKN025 OVC055 07/M01 A2956 RMK AO2 PK WND 32036/1625 SNB42 SLP011 P0000 T00721006,330,2010-11-08 16:51:00<br />
12:21 PM,46.4,35.6,66,29.56,10.0,NW,25.3,35.7,0.01,,Overcast,SPECI KLGA 081721Z 32022G31KT 10SM SCT023 BKN044 OVC070 08/02 A2956 RMK AO2 PK WND 32037/1702 RAE16SNE07 P0001,320,2010-11-08 17:21:00<br />
12:51 PM,45.0,35.1,68,29.58,10.0,NW,27.6,40.3,0.01,,Overcast,METAR KLGA 081751Z 31024G35KT 10SM FEW027 SCT040 OVC050 07/02 A2958 RMK AO2 PK WND 31037/1730 RAE16SNE07 SLP015 P0001 60001 931000 T00720017 10078 20067 55001,310,2010-11-08 17:51:00<br />
1:51 PM,45.0,33.1,63,29.58,10.0,NNW,17.3,27.6,N/A,,Overcast,METAR KLGA 081851Z 33015G24KT 10SM FEW027 SCT039 BKN055 OVC150 07/01 A2958 RMK AO2 PK WND 32036/1753 SLP016 T00720006,330,2010-11-08 18:51:00<br />
2:51 PM,46.0,33.1,61,29.60,10.0,NNW,17.3,35.7,N/A,,Overcast,METAR KLGA 081951Z 33015G31KT 10SM FEW035 BKN060 OVC150 08/01 A2960 RMK AO2 PK WND 35031/1947 SLP023 T00780006,330,2010-11-08 19:51:00<br />
3:51 PM,45.0,34.0,65,29.61,10.0,NNW,24.2,31.1,N/A,,Mostly Cloudy,METAR KLGA 082051Z 33021G27KT 10SM FEW030 SCT060 BKN150 07/01 A2961 RMK AO2 PK WND 32029/2006 SLP027 T00720011 53012,330,2010-11-08 20:51:00<br />
4:51 PM,44.1,35.1,71,29.64,10.0,NW,25.3,35.7,N/A,,Mostly Cloudy,METAR KLGA 082151Z 32022G31KT 10SM FEW030 SCT060 BKN150 07/02 A2964 RMK AO2 PK WND 32031/2142 SLP036 T00670017,320,2010-11-08 21:51:00<br />
5:51 PM,44.1,34.0,68,29.66,10.0,NNW,20.7,32.2,N/A,,Mostly Cloudy,METAR KLGA 082251Z 33018G28KT 10SM SCT035 SCT050 BKN150 07/01 A2966 RMK AO2 PK WND 33030/2210 SLP044 T00670011,330,2010-11-08 22:51:00<br />
6:51 PM,44.1,33.1,65,29.68,10.0,NNW,21.9,29.9,N/A,,Mostly Cloudy,METAR KLGA 082351Z 33019G26KT 10SM SCT030 SCT055 BKN150 07/01 A2967 RMK AO2 PK WND 33028/2302 SLP048 T00670006 10078 20067 51021,330,2010-11-08 23:51:00<br />
7:51 PM,44.1,32.0,63,29.69,10.0,NNW,15.0,25.3,N/A,,Scattered Clouds,METAR KLGA 090051Z 34013G22KT 10SM FEW030 SCT060 07/00 A2969 RMK AO2 PK WND 33027/2352 SLP052 T00670000,340,2010-11-09 00:51:00<br />
8:51 PM,43.0,32.0,65,29.70,10.0,NNW,20.7,25.3,N/A,,Scattered Clouds,METAR KLGA 090151Z 34018G22KT 10SM FEW030 SCT060 06/00 A2969 RMK AO2 PK WND 36026/0131 SLP055 T00610000,340,2010-11-09 01:51:00<br />
9:51 PM,43.0,33.1,68,29.71,10.0,NNW,16.1,25.3,N/A,,Scattered Clouds,METAR KLGA 090251Z 34014G22KT 10SM SCT028 SCT060 SCT140 06/01 A2971 RMK AO2 PK WND 33028/0223 SLP061 T00610006 53012,340,2010-11-09 02:51:00<br />
10:51 PM,44.1,33.1,65,29.72,10.0,NNW,20.7,27.6,N/A,,Scattered Clouds,METAR KLGA 090351Z 34018G24KT 10SM SCT024 07/01 A2972 RMK AO2 PK WND 34030/0338 SLP064 T00670006,340,2010-11-09 03:51:00<br />
11:51 PM,43.0,34.0,71,29.73,10.0,NNW,23.0,29.9,N/A,,Scattered Clouds,METAR KLGA 090451Z 34020G26KT 10SM SCT025 06/01 A2973 RMK AO2 PK WND 34028/0437 SLP068 T00610011 400780056,340,2010-11-09 04:51:00<br />
