
TimeEDT,TemperatureF,Dew PointF,Humidity,Sea Level PressureIn,VisibilityMPH,Wind Direction,Wind SpeedMPH,Gust SpeedMPH,PrecipitationIn,Events,Conditions,FullMetar,WindDirDegrees,DateUTC<br />
12:51 AM,82.0,72.0,71,30.01,7.0,SSE,6.9,-,N/A,,Scattered Clouds,METAR KLGA 080451Z 16006KT 7SM SCT250 28/22 A3001 RMK AO2 SLP162 T02780222 403830267,160,2010-07-08 04:51:00<br />
1:51 AM,80.1,73.0,79,30.01,6.0,South,8.1,-,N/A,,Haze,METAR KLGA 080551Z COR 18007KT 6SM HZ SCT110 BKN250 27/23 A3001 RMK AO2 SLP163 T02670228 10306 20267 50000,180,2010-07-08 05:51:00<br />
2:51 AM,80.1,73.0,79,30.01,6.0,SE,5.8,-,N/A,,Haze,METAR KLGA 080651Z 13005KT 6SM HZ FEW110 BKN250 27/23 A3001 RMK AO2 SLP162 T02670228,130,2010-07-08 06:51:00<br />
3:51 AM,80.1,73.0,79,30.01,6.0,Calm,Calm,-,N/A,,Haze,METAR KLGA 080751Z 00000KT 6SM HZ BKN110 BKN250 27/23 A3000 RMK AO2 SLP160 T02670228,0,2010-07-08 07:51:00<br />
4:51 AM,80.1,72.0,76,30.01,6.0,ESE,4.6,-,N/A,,Haze,METAR KLGA 080851Z 12004KT 6SM HZ SCT110 BKN250 27/22 A3001 RMK AO2 SLP161 T02670222 55002,120,2010-07-08 08:51:00<br />
5:51 AM,77.0,72.0,84,30.02,3.0,NE,6.9,-,N/A,,Haze,METAR KLGA 080951Z 04006KT 3SM HZ BKN095 BKN250 25/22 A3002 RMK AO2 SLP164 T02500222,40,2010-07-08 09:51:00<br />
6:42 AM,78.8,73.4,83,30.03,3.0,NE,6.9,-,N/A,,Haze,SPECI KLGA 081042Z 04006KT 3SM HZ BKN015 BKN130 26/23 A3003 RMK AO2 VIS 2 R22 SW,40,2010-07-08 10:42:00<br />
6:51 AM,78.1,73.0,84,30.03,3.0,NE,6.9,-,N/A,,Haze,METAR KLGA 081051Z 05006KT 3SM HZ BKN015 BKN095 BKN130 26/23 A3003 RMK AO2 VIS 2 R22 SW SLP168 T02560228,50,2010-07-08 10:51:00<br />
7:51 AM,80.1,73.0,79,30.04,4.0,ENE,6.9,-,N/A,,Haze,METAR KLGA 081151Z 06006KT 4SM HZ BKN015 BKN095 OVC130 27/23 A3004 RMK AO2 SLP171 T02670228 10267 20250 53009,60,2010-07-08 11:51:00<br />
8:48 AM,80.6,73.4,79,30.05,5.0,ESE,10.4,-,N/A,,Haze,SPECI KLGA 081248Z 11009KT 5SM HZ BKN010 BKN036 OVC130 27/23 A3005 RMK AO2,110,2010-07-08 12:48:00<br />
8:51 AM,82.0,73.9,76,30.05,5.0,ESE,9.2,-,N/A,,Haze,METAR KLGA 081251Z 12008KT 5SM HZ BKN010 BKN036 OVC130 28/23 A3005 RMK AO2 SLP175 T02780233,120,2010-07-08 12:51:00<br />
9:51 AM,81.0,73.0,77,30.05,6.0,South,6.9,-,0.00,Rain,Light Rain,METAR KLGA 081351Z 18006KT 6SM -RA BKN014 BKN032 OVC049 27/23 A3004 RMK AO2 RAB17 SLP174 P0000 T02720228,180,2010-07-08 13:51:00<br />
10:48 AM,80.6,71.6,74,30.04,8.0,South,8.1,-,0.01,,Overcast,SPECI KLGA 081448Z 19007KT 8SM BKN018 OVC024 27/22 A3004 RMK AO2 RAE06 P0001,190,2010-07-08 14:48:00<br />
10:51 AM,81.0,72.0,74,30.04,8.0,South,8.1,-,0.01,,Overcast,METAR KLGA 081451Z 19007KT 8SM BKN018 OVC024 27/22 A3004 RMK AO2 RAE06 SLP173 P0001 60001 T02720222 57001,190,2010-07-08 14:51:00<br />
11:51 AM,81.0,72.0,74,30.04,10.0,South,11.5,-,N/A,,Overcast,METAR KLGA 081551Z 18010KT 10SM FEW015 BKN020 OVC026 27/22 A3004 RMK AO2 SLP173 T02720222,180,2010-07-08 15:51:00<br />
12:19 PM,80.6,73.4,79,30.04,7.0,South,8.1,-,0.00,Rain,Light Rain,SPECI KLGA 081619Z 18007KT 7SM -RA FEW024 BKN032 OVC100 27/23 A3004 RMK AO2 RAB12 P0000,180,2010-07-08 16:19:00<br />
12:51 PM,84.9,70.0,61,30.04,10.0,South,8.1,-,0.00,,Mostly Cloudy,METAR KLGA 081651Z 18007KT 140V210 10SM FEW023 BKN037 BKN075 29/21 A3003 RMK AO2 RAB12E29 SLP170 P0000 T02940211,180,2010-07-08 16:51:00<br />
1:51 PM,86.0,68.0,55,30.03,10.0,South,5.8,-,N/A,,Mostly Cloudy,METAR KLGA 081751Z 19005KT 10SM BKN034 BKN090 30/20 A3003 RMK AO2 SLP167 60001 T03000200 10300 20267 58006,190,2010-07-08 17:51:00<br />
2:51 PM,88.0,66.0,48,30.02,10.0,SSE,10.4,-,N/A,,Mostly Cloudy,METAR KLGA 081851Z 16009KT 130V200 10SM FEW035 SCT060 BKN100 BKN130 31/19 A3002 RMK AO2 SLP165 T03110189,160,2010-07-08 18:51:00<br />
3:51 PM,87.1,66.0,49,30.02,10.0,South,13.8,23.0,N/A,,Mostly Cloudy,METAR KLGA 081951Z 17012G20KT 10SM SCT044 SCT080 BKN130 31/19 A3002 RMK AO2 SLP164 T03060189,170,2010-07-08 19:51:00<br />
4:51 PM,87.1,66.9,51,30.01,10.0,South,13.8,20.7,N/A,,Scattered Clouds,METAR KLGA 082051Z 17012G18KT 10SM FEW044 SCT080 SCT110 31/19 A3000 RMK AO2 SLP160 T03060194 58007,170,2010-07-08 20:51:00<br />
5:51 PM,84.9,66.9,55,29.99,10.0,SSE,11.5,-,N/A,,Scattered Clouds,METAR KLGA 082151Z 16010KT 10SM FEW005 SCT031 SCT130 29/19 A2999 RMK AO2 SLP155 FU FEW005 PLUME W DRFTG N T02940194,160,2010-07-08 21:51:00<br />
6:51 PM,82.9,68.0,60,30.00,10.0,South,11.5,19.6,N/A,,Scattered Clouds,METAR KLGA 082251Z 18010G17KT 10SM FEW032 SCT090 SCT130 28/20 A3000 RMK AO2 SLP157 T02830200,180,2010-07-08 22:51:00<br />
7:51 PM,82.0,69.1,65,30.01,10.0,South,10.4,-,N/A,,Scattered Clouds,METAR KLGA 082351Z 18009KT 10SM FEW025 SCT090 SCT130 28/21 A3000 RMK AO2 SLP160 T02780206 10317 20278 55000,180,2010-07-08 23:51:00<br />
8:46 PM,80.6,69.8,70,30.02,10.0,South,11.5,-,N/A,,Mostly Cloudy,SPECI KLGA 090046Z 17010KT 10SM BKN020 BKN250 27/21 A3002 RMK AO2,170,2010-07-09 00:46:00<br />
8:51 PM,80.1,70.0,71,30.02,10.0,South,10.4,-,N/A,,Mostly Cloudy,METAR KLGA 090051Z 17009KT 10SM BKN020 BKN250 27/21 A3002 RMK AO2 SLP165 T02670211,170,2010-07-09 00:51:00<br />
9:47 PM,80.6,71.6,74,30.03,10.0,SSE,11.5,-,N/A,,Mostly Cloudy,SPECI KLGA 090147Z 16010KT 10SM SCT021 BKN250 27/22 A3003 RMK AO2,160,2010-07-09 01:47:00<br />
9:51 PM,80.1,71.1,74,30.04,10.0,South,10.4,-,N/A,,Mostly Cloudy,METAR KLGA 090151Z 17009KT 10SM SCT021 BKN250 27/22 A3003 RMK AO2 SLP170 T02670217,170,2010-07-09 01:51:00<br />
10:03 PM,80.6,71.6,74,30.03,10.0,South,10.4,-,N/A,,Mostly Cloudy,SPECI KLGA 090203Z 18009KT 10SM FEW010 BKN021 BKN250 27/22 A3003 RMK AO2,180,2010-07-09 02:03:00<br />
10:37 PM,80.6,71.6,74,30.03,10.0,South,12.7,-,N/A,,Scattered Clouds,SPECI KLGA 090237Z 19011KT 10SM FEW017 SCT022 27/22 A3003 RMK AO2,190,2010-07-09 02:37:00<br />
10:51 PM,79.0,71.1,77,30.03,10.0,SSE,10.4,-,N/A,,Scattered Clouds,METAR KLGA 090251Z 16009KT 10SM SCT015 SCT032 26/22 A3003 RMK AO2 SLP169 T02610217 50009,160,2010-07-09 02:51:00<br />
11:51 PM,80.1,71.1,74,30.04,10.0,South,10.4,-,N/A,,Scattered Clouds,METAR KLGA 090351Z 17009KT 10SM SCT015 27/22 A3004 RMK AO2 SLP171 T02670217,170,2010-07-09 03:51:00<br />
