
TimeEDT,TemperatureF,Dew PointF,Humidity,Sea Level PressureIn,VisibilityMPH,Wind Direction,Wind SpeedMPH,Gust SpeedMPH,PrecipitationIn,Events,Conditions,FullMetar,WindDirDegrees,DateUTC<br />
12:51 AM,69.1,66.0,90,29.84,10.0,South,6.9,-,N/A,,Overcast,METAR KJFK 170451Z 18006KT 10SM BKN016 OVC035 21/19 A2984 RMK AO2 SLP104 OCNL LTGICCC DSNT W-NW CB DSNT W-NW T02060189 402330156,180,2010-06-17 04:51:00<br />
1:51 AM,71.1,66.0,84,29.84,9.0,West,17.3,21.9,0.00,Rain,Light Rain,METAR KJFK 170551Z 26015G19KT 9SM -RA BKN016 BKN055 OVC070 22/19 A2984 RMK AO2 RAB34 SLP103 P0000 60000 T02170189 10222 20200 56016,260,2010-06-17 05:51:00<br />
2:08 AM,69.8,64.4,83,29.84,6.0,West,15.0,-,0.03,Rain,Rain,SPECI KJFK 170608Z 27013KT 6SM RA FEW019 SCT033 OVC048 21/18 A2984 RMK AO2 P0003,270,2010-06-17 06:08:00<br />
2:51 AM,70.0,66.0,87,29.82,10.0,West,6.9,-,0.08,,Overcast,METAR KJFK 170651Z 28006KT 10SM BKN047 OVC085 21/19 A2982 RMK AO2 RAE46 SLP097 P0008 T02110189,280,2010-06-17 06:51:00<br />
3:51 AM,70.0,66.0,87,29.80,10.0,WSW,6.9,-,N/A,,Scattered Clouds,METAR KJFK 170751Z 25006KT 10SM SCT110 21/19 A2980 RMK AO2 SLP091 T02110189,250,2010-06-17 07:51:00<br />
4:51 AM,70.0,66.0,87,29.79,10.0,SW,8.1,-,N/A,,Clear,METAR KJFK 170851Z 23007KT 10SM CLR 21/19 A2979 RMK AO2 SLP086 60008 T02110189 56017,230,2010-06-17 08:51:00<br />
5:51 AM,70.0,66.9,90,29.80,9.0,WSW,10.4,-,N/A,,Clear,METAR KJFK 170951Z 25009KT 9SM CLR 21/19 A2979 RMK AO2 SLP089 T02110194,250,2010-06-17 09:51:00<br />
6:51 AM,72.0,66.0,81,29.80,10.0,West,10.4,-,N/A,,Clear,METAR KJFK 171051Z 26009KT 10SM CLR 22/19 A2980 RMK AO2 SLP090 T02220189,260,2010-06-17 10:51:00<br />
7:51 AM,73.9,64.0,71,29.80,10.0,West,12.7,20.7,N/A,,Partly Cloudy,METAR KJFK 171151Z COR 28011G18KT 10SM FEW027 23/18 A2980 RMK AO2 SLP091 60008 70008 T02330178 10233 20206 51004,280,2010-06-17 11:51:00<br />
8:51 AM,73.9,60.1,62,29.80,10.0,NW,17.3,26.5,N/A,,Mostly Cloudy,METAR KJFK 171251Z 31015G23KT 10SM BKN032 23/16 A2980 RMK AO2 SLP090 T02330156,310,2010-06-17 12:51:00<br />
9:51 AM,73.9,59.0,59,29.80,10.0,NNW,21.9,29.9,N/A,,Mostly Cloudy,METAR KJFK 171351Z 33019G26KT 10SM BKN040 23/15 A2980 RMK AO2 PK WND 30029/1303 SLP091 T02330150,330,2010-06-17 13:51:00<br />
10:51 AM,77.0,55.0,47,29.81,10.0,NNW,23.0,35.7,N/A,,Scattered Clouds,METAR KJFK 171451Z 33020G31KT 10SM SCT042 25/13 A2980 RMK AO2 PK WND 32032/1439 SLP092 T02500128 53001,330,2010-06-17 14:51:00<br />
11:51 AM,73.9,55.0,52,29.83,10.0,NW,17.3,26.5,N/A,,Mostly Cloudy,METAR KJFK 171551Z 31015G23KT 10SM BKN042 23/13 A2982 RMK AO2 PK WND 31031/1507 SLP099 T02330128,310,2010-06-17 15:51:00<br />
12:51 PM,75.9,54.0,46,29.84,10.0,NW,18.4,31.1,N/A,,Mostly Cloudy,METAR KJFK 171651Z 32016G27KT 10SM BKN042 24/12 A2984 RMK AO2 PK WND 32028/1612 SLP105 T02440122,320,2010-06-17 16:51:00<br />
1:51 PM,77.0,54.0,45,29.86,10.0,NNW,21.9,31.1,N/A,,Scattered Clouds,METAR KJFK 171751Z 33019G27KT 10SM SCT042 25/12 A2985 RMK AO2 PK WND 34027/1751 SLP109 T02500122 10256 20228 51017,330,2010-06-17 17:51:00<br />
2:51 PM,77.0,54.0,45,29.86,10.0,NW,19.6,31.1,N/A,,Scattered Clouds,METAR KJFK 171851Z 31017G27KT 10SM SCT042 25/12 A2985 RMK AO2 PK WND 31028/1754 SLP109 T02500122,310,2010-06-17 18:51:00<br />
3:51 PM,75.9,54.0,46,29.86,10.0,NW,26.5,32.2,N/A,,Scattered Clouds,METAR KJFK 171951Z 32023G28KT 10SM SCT043 24/12 A2986 RMK AO2 PK WND 33028/1950 SLP110 T02440122,320,2010-06-17 19:51:00<br />
4:51 PM,75.0,54.0,48,29.88,10.0,NW,20.7,27.6,N/A,,Mostly Cloudy,METAR KJFK 172051Z 32018G24KT 10SM BKN043 24/12 A2988 RMK AO2 PK WND 32028/1959 SLP118 T02390122 53008,320,2010-06-17 20:51:00<br />
5:51 PM,73.9,54.0,50,29.90,10.0,NNW,19.6,-,N/A,,Mostly Cloudy,METAR KJFK 172151Z 34017KT 10SM BKN045 23/12 A2990 RMK AO2 SLP124 T02330122,340,2010-06-17 21:51:00<br />
6:51 PM,73.0,54.0,51,29.92,10.0,NW,16.1,-,N/A,,Mostly Cloudy,METAR KJFK 172251Z 31014KT 10SM BKN047 23/12 A2992 RMK AO2 SLP130 T02280122,310,2010-06-17 22:51:00<br />
7:51 PM,73.0,54.0,51,29.93,10.0,NNW,13.8,-,N/A,,Mostly Cloudy,METAR KJFK 172351Z 33012KT 10SM BKN050 23/12 A2993 RMK AO2 SLP134 T02280122 10256 20228 51017,330,2010-06-17 23:51:00<br />
8:51 PM,72.0,54.0,53,29.96,10.0,North,12.7,20.7,N/A,,Mostly Cloudy,METAR KJFK 180051Z 35011G18KT 10SM FEW043 BKN055 22/12 A2995 RMK AO2 SLP143 T02220122,350,2010-06-18 00:51:00<br />
9:51 PM,71.1,54.0,55,29.99,10.0,NNW,15.0,-,N/A,,Mostly Cloudy,METAR KJFK 180151Z 33013KT 10SM BKN047 22/12 A2999 RMK AO2 SLP154 T02170122,330,2010-06-18 01:51:00<br />
10:51 PM,69.1,54.0,58,30.01,10.0,NNW,11.5,-,N/A,,Partly Cloudy,METAR KJFK 180251Z 34010KT 10SM FEW050 21/12 A3001 RMK AO2 SLP161 T02060122 51027,340,2010-06-18 02:51:00<br />
11:51 PM,66.9,54.0,63,30.01,10.0,NW,8.1,-,N/A,,Partly Cloudy,METAR KJFK 180351Z 32007KT 10SM FEW050 19/12 A3001 RMK AO2 SLP162 T01940122,320,2010-06-18 03:51:00<br />
