
TimeEDT,TemperatureF,Dew PointF,Humidity,Sea Level PressureIn,VisibilityMPH,Wind Direction,Wind SpeedMPH,Gust SpeedMPH,PrecipitationIn,Events,Conditions,FullMetar,WindDirDegrees,DateUTC<br />
12:51 AM,64.0,45.0,50,29.87,10.0,West,10.4,-,N/A,,Clear,METAR KJFK 090451Z 28009KT 10SM CLR 18/07 A2986 RMK AO2 SLP113 T01780072 402280122,280,2010-10-09 04:51:00<br />
1:51 AM,62.1,46.9,58,29.86,10.0,West,9.2,-,N/A,,Clear,METAR KJFK 090551Z 27008KT 10SM CLR 17/08 A2986 RMK AO2 SLP111 T01670083 10200 20167 58001,270,2010-10-09 05:51:00<br />
2:51 AM,62.1,46.0,56,29.85,10.0,West,12.7,-,N/A,,Clear,METAR KJFK 090651Z 28011KT 10SM CLR 17/08 A2985 RMK AO2 SLP108 T01670078,280,2010-10-09 06:51:00<br />
3:51 AM,60.1,46.0,60,29.85,10.0,West,9.2,-,N/A,,Clear,METAR KJFK 090751Z 27008KT 10SM CLR 16/08 A2985 RMK AO2 SLP106 T01560078,270,2010-10-09 07:51:00<br />
4:51 AM,59.0,46.0,62,29.85,10.0,West,8.1,-,N/A,,Clear,METAR KJFK 090851Z COR 28007KT 10SM CLR 15/08 A2985 RMK AO2 SLP107 T01500078 55004,280,2010-10-09 08:51:00<br />
5:51 AM,57.9,46.9,67,29.86,10.0,West,8.1,-,N/A,,Clear,METAR KJFK 090951Z 27007KT 10SM CLR 14/08 A2986 RMK AO2 SLP111 T01440083,270,2010-10-09 09:51:00<br />
6:51 AM,59.0,46.9,64,29.87,10.0,West,8.1,-,N/A,,Scattered Clouds,METAR KJFK 091051Z 27007KT 10SM FEW160 SCT250 15/08 A2987 RMK AO2 SLP115 T01500083,270,2010-10-09 10:51:00<br />
7:51 AM,62.1,46.0,56,29.89,10.0,WNW,6.9,-,N/A,,Partly Cloudy,METAR KJFK 091151Z 29006KT 10SM FEW140 17/08 A2989 RMK AO2 SLP122 T01670078 10167 20144 53015,290,2010-10-09 11:51:00<br />
8:51 AM,66.0,46.0,48,29.91,10.0,WNW,4.6,-,N/A,,Scattered Clouds,METAR KJFK 091251Z 30004KT 10SM FEW100 SCT140 19/08 A2991 RMK AO2 SLP129 T01890078,300,2010-10-09 12:51:00<br />
9:51 AM,69.1,46.0,44,29.92,10.0,NW,12.7,-,N/A,,Partly Cloudy,METAR KJFK 091351Z 31011KT 10SM FEW140 21/08 A2992 RMK AO2 SLP131 T02060078,310,2010-10-09 13:51:00<br />
10:51 AM,70.0,46.9,44,29.92,10.0,NW,12.7,-,N/A,,Partly Cloudy,METAR KJFK 091451Z 32011KT 10SM FEW140 21/08 A2992 RMK AO2 SLP131 T02110083 50009,320,2010-10-09 14:51:00<br />
11:51 AM,72.0,48.0,43,29.92,10.0,NNW,8.1,-,N/A,,Scattered Clouds,METAR KJFK 091551Z 33007KT 280V360 10SM FEW050 SCT140 22/09 A2992 RMK AO2 SLP130 T02220089,330,2010-10-09 15:51:00<br />
12:51 PM,73.0,45.0,37,29.91,10.0,NNW,16.1,25.3,N/A,,Partly Cloudy,METAR KJFK 091651Z 33014G22KT 10SM FEW055 23/07 A2990 RMK AO2 SLP126 T02280072,330,2010-10-09 16:51:00<br />
1:51 PM,73.9,42.1,32,29.90,10.0,NNW,13.8,24.2,N/A,,Partly Cloudy,METAR KJFK 091751Z 34012G21KT 10SM FEW060 23/06 A2990 RMK AO2 SLP124 T02330056 10233 20167 58007,340,2010-10-09 17:51:00<br />
2:51 PM,73.0,42.1,33,29.89,10.0,NW,16.1,21.9,N/A,,Partly Cloudy,METAR KJFK 091851Z 32014G19KT 10SM FEW060 23/06 A2989 RMK AO2 SLP122 T02280056,320,2010-10-09 18:51:00<br />
3:51 PM,73.0,39.9,30,29.90,10.0,NW,15.0,23.0,N/A,,Partly Cloudy,METAR KJFK 091951Z 32013G20KT 10SM FEW060 23/04 A2990 RMK AO2 SLP123 T02280044,320,2010-10-09 19:51:00<br />
4:51 PM,72.0,33.1,24,29.90,10.0,North,16.1,-,N/A,,Partly Cloudy,METAR KJFK 092051Z 35014KT 10SM FEW060 22/01 A2990 RMK AO2 SLP124 T02220006 53001,350,2010-10-09 20:51:00<br />
5:51 PM,69.1,32.0,25,29.92,10.0,North,15.0,-,N/A,,Partly Cloudy,METAR KJFK 092151Z 35013KT 10SM FEW250 21/00 A2992 RMK AO2 SLP130 T02060000,350,2010-10-09 21:51:00<br />
6:51 PM,66.0,26.1,22,29.94,10.0,NNW,11.5,-,N/A,,Partly Cloudy,METAR KJFK 092251Z 34010KT 10SM FEW060 19/M03 A2994 RMK AO2 SLP138 T01891033,340,2010-10-09 22:51:00<br />
7:51 PM,64.0,25.0,23,29.96,10.0,NNW,8.1,-,N/A,,Partly Cloudy,METAR KJFK 092351Z 34007KT 10SM FEW250 18/M04 A2995 RMK AO2 SLP143 T01781039 10233 20178 51019 $,340,2010-10-09 23:51:00<br />
8:51 PM,62.1,26.1,25,29.97,10.0,NNW,10.4,-,N/A,,Partly Cloudy,METAR KJFK 100051Z 33009KT 10SM FEW250 17/M03 A2997 RMK AO2 SLP148 T01671033 $,330,2010-10-10 00:51:00<br />
9:51 PM,60.1,25.0,26,29.99,10.0,NNW,10.4,-,N/A,,Clear,METAR KJFK 100151Z 34009KT 10SM CLR 16/M04 A2999 RMK AO2 SLP155 T01561039 $,340,2010-10-10 01:51:00<br />
10:51 PM,57.0,23.0,27,30.00,10.0,NNW,9.2,-,N/A,,Clear,METAR KJFK 100251Z 34008KT 10SM CLR 14/M05 A3000 RMK AO2 SLP159 T01391050 51016 $,340,2010-10-10 02:51:00<br />
11:51 PM,57.0,19.9,24,30.00,10.0,NNW,11.5,-,N/A,,Partly Cloudy,METAR KJFK 100351Z 34010KT 10SM FEW250 14/M07 A3000 RMK AO2 SLP157 T01391067 $,340,2010-10-10 03:51:00<br />
