
TimeEDT,TemperatureF,Dew PointF,Humidity,Sea Level PressureIn,VisibilityMPH,Wind Direction,Wind SpeedMPH,Gust SpeedMPH,PrecipitationIn,Events,Conditions,FullMetar,WindDirDegrees,DateUTC<br />
12:51 AM,57.9,50.0,75,30.11,10.0,Calm,Calm,-,N/A,,Overcast,METAR KLGA 160451Z 00000KT 10SM OVC250 14/10 A3011 RMK AO2 SLP196 T01440100 402110133,0,2013-10-16 04:51:00<br />
1:51 AM,57.9,50.0,75,30.11,10.0,North,3.5,-,N/A,,Overcast,METAR KLGA 160551Z 35003KT 10SM FEW033 OVC250 14/10 A3010 RMK AO2 SLP194 T01440100 10178 20139 56013,350,2013-10-16 05:51:00<br />
2:51 AM,57.9,51.1,78,30.10,10.0,NE,6.9,-,N/A,,Overcast,METAR KLGA 160651Z 04006KT 10SM SCT033 OVC250 14/11 A3010 RMK AO2 SLP192 T01440106,40,2013-10-16 06:51:00<br />
3:51 AM,57.9,48.9,72,30.09,10.0,ENE,9.2,-,N/A,,Mostly Cloudy,METAR KLGA 160751Z 07008KT 10SM SCT031 BKN250 14/09 A3009 RMK AO2 SLP188 T01440094,70,2013-10-16 07:51:00<br />
4:51 AM,57.0,51.1,81,30.09,10.0,North,4.6,-,N/A,,Overcast,METAR KLGA 160851Z 35004KT 10SM FEW020 OVC032 14/11 A3009 RMK AO2 SLP187 T01390106 56006,350,2013-10-16 08:51:00<br />
5:51 AM,57.0,52.0,83,30.09,10.0,NNE,4.6,-,N/A,,Mostly Cloudy,METAR KLGA 160951Z 03004KT 10SM SCT017 BKN030 BKN140 BKN250 14/11 A3009 RMK AO2 SLP187 T01390111,30,2013-10-16 09:51:00<br />
6:44 AM,57.2,51.8,82,30.09,10.0,NNE,4.6,-,N/A,,Mostly Cloudy,SPECI KLGA 161044Z 03004KT 10SM BKN015 14/11 A3009 RMK AO2,30,2013-10-16 10:44:00<br />
6:51 AM,57.0,52.0,83,30.08,10.0,NE,4.6,-,N/A,,Overcast,METAR KLGA 161051Z 04004KT 10SM OVC015 14/11 A3008 RMK AO2 SLP186 T01390111,40,2013-10-16 10:51:00<br />
7:46 AM,57.2,51.8,82,30.08,10.0,NNE,4.6,-,N/A,,Overcast,SPECI KLGA 161146Z 03004KT 10SM BKN010 OVC016 14/11 A3008 RMK AO2,30,2013-10-16 11:46:00<br />
7:51 AM,57.0,51.1,81,30.08,10.0,NE,4.6,-,N/A,,Overcast,METAR KLGA 161151Z 04004KT 10SM BKN010 OVC016 14/11 A3008 RMK AO2 SLP185 T01390106 10144 20139 55003,40,2013-10-16 11:51:00<br />
8:51 AM,57.9,51.1,78,30.07,10.0,NE,6.9,-,N/A,,Overcast,METAR KLGA 161251Z 04006KT 10SM FEW010 BKN013 OVC028 14/11 A3007 RMK AO2 SLP181 T01440106,40,2013-10-16 12:51:00<br />
9:36 AM,60.8,53.6,77,30.08,10.0,NE,6.9,-,N/A,,Overcast,SPECI KLGA 161336Z 04006KT 10SM SCT014 OVC028 16/12 A3008 RMK AO2,40,2013-10-16 13:36:00<br />
9:51 AM,60.1,53.1,78,30.07,10.0,NE,8.1,-,N/A,,Overcast,METAR KLGA 161351Z 05007KT 10SM SCT016 OVC028 16/12 A3007 RMK AO2 SLP183 T01560117,50,2013-10-16 13:51:00<br />
10:51 AM,61.0,52.0,72,30.07,10.0,NE,5.8,-,N/A,,Overcast,METAR KLGA 161451Z 04005KT 10SM BKN014 OVC024 16/11 A3007 RMK AO2 SLP181 T01610111 56003,40,2013-10-16 14:51:00<br />
11:37 AM,60.8,51.8,72,30.05,10.0,ENE,10.4,-,N/A,,Overcast,SPECI KLGA 161537Z 07009KT 10SM OVC016 16/11 A3005 RMK AO2,70,2013-10-16 15:37:00<br />
11:51 AM,61.0,52.0,72,30.05,10.0,ENE,8.1,-,N/A,,Overcast,METAR KLGA 161551Z 06007KT 10SM BKN016 OVC023 16/11 A3005 RMK AO2 SLP175 T01610111,60,2013-10-16 15:51:00<br />
12:51 PM,64.0,52.0,65,30.02,10.0,NE,10.4,-,N/A,,Mostly Cloudy,METAR KLGA 161651Z 05009KT 10SM FEW016 SCT023 BKN200 18/11 A3002 RMK AO2 SLP165 T01780111,50,2013-10-16 16:51:00<br />
1:51 PM,62.1,52.0,70,30.00,10.0,NE,6.9,-,N/A,,Overcast,METAR KLGA 161751Z 04006KT 10SM SCT021 SCT035 OVC210 17/11 A3000 RMK AO2 SLP157 T01670111 10183 20139 56018,40,2013-10-16 17:51:00<br />
2:51 PM,63.0,53.1,70,29.98,10.0,NE,8.1,-,N/A,,Overcast,METAR KLGA 161851Z 05007KT 10SM SCT020 SCT035 OVC250 17/12 A2998 RMK AO2 SLP152 T01720117,50,2013-10-16 18:51:00<br />
3:51 PM,64.0,53.1,67,29.98,10.0,ENE,6.9,-,N/A,,Overcast,METAR KLGA 161951Z 06006KT 10SM SCT020 SCT035 OVC250 18/12 A2998 RMK AO2 SLP150 T01780117,60,2013-10-16 19:51:00<br />
4:51 PM,64.0,54.0,70,29.97,10.0,ENE,8.1,-,N/A,,Overcast,METAR KLGA 162051Z 06007KT 10SM SCT025 OVC150 18/12 A2997 RMK AO2 SLP148 T01780122 56009,60,2013-10-16 20:51:00<br />
5:51 PM,64.0,57.0,78,29.96,10.0,South,5.8,-,N/A,,Overcast,METAR KLGA 162151Z 18005KT 10SM SCT015 BKN035 OVC150 18/14 A2996 RMK AO2 SLP146 T01780139,180,2013-10-16 21:51:00<br />
6:07 PM,64.4,57.2,77,29.96,10.0,Variable,6.9,-,N/A,,Overcast,SPECI KLGA 162207Z VRB06KT 10SM BKN017 OVC150 18/14 A2996 RMK AO2,0,2013-10-16 22:07:00<br />
6:17 PM,62.6,57.2,82,29.96,10.0,SSE,6.9,-,N/A,,Overcast,SPECI KLGA 162217Z 16006KT 10SM SCT017 OVC150 17/14 A2996 RMK AO2,160,2013-10-16 22:17:00<br />
6:24 PM,64.4,57.2,77,29.96,10.0,Variable,4.6,-,N/A,,Overcast,SPECI KLGA 162224Z VRB04KT 10SM BKN019 OVC150 18/14 A2996 RMK AO2,0,2013-10-16 22:24:00<br />
6:51 PM,63.0,57.0,81,29.95,10.0,South,4.6,-,N/A,,Overcast,METAR KLGA 162251Z 18004KT 10SM FEW010 BKN019 OVC150 17/14 A2995 RMK AO2 SLP142 T01720139,180,2013-10-16 22:51:00<br />
7:51 PM,62.1,57.9,86,29.95,10.0,SSE,8.1,-,N/A,,Overcast,METAR KLGA 162351Z 16007KT 10SM FEW010 BKN019 OVC150 17/14 A2995 RMK AO2 SLP141 T01670144 10183 20167 56007,160,2013-10-16 23:51:00<br />
7:58 PM,62.6,57.2,82,29.95,10.0,South,6.9,-,N/A,,Overcast,SPECI KLGA 162358Z 17006KT 10SM OVC007 17/14 A2995 RMK AO2,170,2013-10-16 23:58:00<br />
8:51 PM,62.1,57.0,84,29.96,10.0,South,8.1,-,N/A,,Overcast,METAR KLGA 170051Z 17007KT 10SM OVC007 17/14 A2996 RMK AO2 SLP144 T01670139,170,2013-10-17 00:51:00<br />
9:51 PM,62.1,57.9,86,29.95,10.0,South,9.2,-,N/A,,Overcast,METAR KLGA 170151Z 17008KT 10SM OVC007 17/14 A2995 RMK AO2 SLP141 T01670144,170,2013-10-17 01:51:00<br />
10:01 PM,62.6,57.2,82,29.95,10.0,South,8.1,-,N/A,,Overcast,SPECI KLGA 170201Z 17007KT 10SM OVC006 17/14 A2995 RMK AO2,170,2013-10-17 02:01:00<br />
10:51 PM,61.0,57.9,90,29.94,10.0,South,8.1,-,N/A,,Overcast,METAR KLGA 170251Z 17007KT 10SM OVC006 16/14 A2994 RMK AO2 SLP139 T01610144 58002,170,2013-10-17 02:51:00<br />
11:51 PM,61.0,57.9,90,29.93,10.0,South,6.9,-,N/A,,Overcast,METAR KLGA 170351Z 18006KT 10SM OVC006 16/14 A2993 RMK AO2 SLP133 T01610144,180,2013-10-17 03:51:00<br />
