
TimeEDT,TemperatureF,Dew PointF,Humidity,Sea Level PressureIn,VisibilityMPH,Wind Direction,Wind SpeedMPH,Gust SpeedMPH,PrecipitationIn,Events,Conditions,FullMetar,WindDirDegrees,DateUTC<br />
12:51 AM,52.0,46.0,80,30.21,10.0,SSW,4.6,-,N/A,,Clear,METAR KLGA 190451Z 20004KT 10SM CLR 11/08 A3021 RMK AO2 SLP228 T01110078 401720078,200,2012-03-19 04:51:00<br />
1:51 AM,53.6,46.4,77,30.20,10.0,SSW,5.8,-,N/A,,Clear,METAR KLGA 190551Z 20005KT 10SM CLR 12/08 A3020,200,2012-03-19 05:51:00<br />
2:51 AM,53.6,46.4,77,30.20,10.0,South,5.8,-,N/A,,Clear,METAR KLGA 190651Z 19005KT 10SM CLR 12/08 A3020,190,2012-03-19 06:51:00<br />
3:51 AM,53.1,46.9,80,30.18,9.0,SSW,6.9,-,N/A,,Clear,METAR KLGA 190751Z 20006KT 9SM CLR 12/08 A3018 RMK AO2 SLP220 T01170083,200,2012-03-19 07:51:00<br />
4:51 AM,55.4,48.2,77,30.18,8.0,SSW,4.6,-,N/A,,Clear,METAR KLGA 190851Z 21004KT 8SM CLR 13/09 A3018,210,2012-03-19 08:51:00<br />
5:51 AM,55.0,48.9,80,30.19,8.0,SW,5.8,-,N/A,,Clear,METAR KLGA 190951Z 22005KT 8SM CLR 13/09 A3019 RMK AO2 SLP221 T01280094,220,2012-03-19 09:51:00<br />
6:51 AM,55.0,48.9,80,30.20,7.0,SSW,5.8,-,N/A,,Partly Cloudy,METAR KLGA 191051Z 20005KT 7SM FEW250 13/09 A3020 RMK AO2 SLP225 T01280094,200,2012-03-19 10:51:00<br />
7:51 AM,55.9,50.0,80,30.21,6.0,South,5.8,-,N/A,,Haze,METAR KLGA 191151Z 19005KT 6SM HZ FEW120 BKN250 13/10 A3021 RMK AO2 SLP228 T01330100 10133 20117 53008,190,2012-03-19 11:51:00<br />
8:51 AM,57.9,50.0,75,30.22,6.0,SSW,6.9,-,N/A,,Haze,METAR KLGA 191251Z 20006KT 6SM HZ FEW120 BKN250 14/10 A3022 RMK AO2 SLP232 T01440100,200,2012-03-19 12:51:00<br />
9:51 AM,61.0,51.1,70,30.22,7.0,SW,5.8,-,N/A,,Scattered Clouds,METAR KLGA 191351Z 22005KT 7SM SCT250 16/11 A3021 RMK AO2 SLP231 T01610106,220,2012-03-19 13:51:00<br />
10:51 AM,66.0,53.1,63,30.20,10.0,SW,9.2,-,N/A,,Scattered Clouds,METAR KLGA 191451Z 23008KT 10SM SCT250 19/12 A3020 RMK AO2 SLP227 T01890117 58001,230,2012-03-19 14:51:00<br />
11:51 AM,66.9,52.0,59,30.20,10.0,SSW,11.5,-,N/A,,Partly Cloudy,METAR KLGA 191551Z 21010KT 10SM FEW250 19/11 A3020 RMK AO2 SLP225 T01940111,210,2012-03-19 15:51:00<br />
12:51 PM,69.8,51.8,53,30.19,10.0,SSW,10.4,-,N/A,,Partly Cloudy,METAR KLGA 191651Z 21009KT 10SM FEW250 21/11 A3019,210,2012-03-19 16:51:00<br />
1:51 PM,69.1,50.0,51,30.19,10.0,South,13.8,-,N/A,,Partly Cloudy,METAR KLGA 191751Z 19012KT 10SM FEW050 21/10 A3019 RMK AO2 SLP221 T02060100 10222 20128 56006,190,2012-03-19 17:51:00<br />
2:51 PM,68.0,51.1,55,30.18,10.0,South,13.8,-,N/A,,Partly Cloudy,METAR KLGA 191851Z 17012KT 10SM FEW050 20/11 A3018 RMK AO2 SLP218 T02000106,170,2012-03-19 18:51:00<br />
3:51 PM,69.1,51.1,53,30.16,10.0,South,15.0,19.6,N/A,,Partly Cloudy,METAR KLGA 191951Z 17013G17KT 10SM FEW050 21/11 A3016 RMK AO2 SLP213 T02060106,170,2012-03-19 19:51:00<br />
4:51 PM,68.0,44.1,42,30.16,10.0,SSE,11.5,-,N/A,,Scattered Clouds,METAR KLGA 192051Z 16010KT 10SM FEW050 SCT250 20/07 A3016 RMK AO2 SLP212 T02000067 56009,160,2012-03-19 20:51:00<br />
5:51 PM,66.0,41.0,40,30.16,10.0,SSE,13.8,-,N/A,,Scattered Clouds,METAR KLGA 192151Z 16012KT 10SM FEW050 SCT250 19/05 A3016 RMK AO2 SLP213 T01890050,160,2012-03-19 21:51:00<br />
6:51 PM,64.0,41.0,43,30.17,10.0,SSE,16.1,-,N/A,,Scattered Clouds,METAR KLGA 192251Z 16014KT 10SM FEW050 SCT250 18/05 A3017 RMK AO2 SLP217 T01780050,160,2012-03-19 22:51:00<br />
7:51 PM,62.1,39.0,43,30.19,10.0,South,11.5,-,N/A,,Scattered Clouds,METAR KLGA 192351Z 17010KT 10SM FEW050 SCT250 17/04 A3019 RMK AO2 SLP222 T01670039 10211 20167 53010,170,2012-03-19 23:51:00<br />
8:51 PM,62.1,44.1,52,30.21,10.0,South,5.8,-,N/A,,Clear,METAR KLGA 200051Z 18005KT 10SM CLR 17/07 A3021 RMK AO2 SLP228 T01670067,180,2012-03-20 00:51:00<br />
9:51 PM,60.1,46.9,62,30.22,10.0,South,8.1,-,N/A,,Scattered Clouds,METAR KLGA 200151Z 17007KT 10SM SCT250 16/08 A3022 RMK AO2 SLP233 T01560083,170,2012-03-20 01:51:00<br />
10:51 PM,59.0,48.0,67,30.22,10.0,SSE,3.5,-,N/A,,Scattered Clouds,METAR KLGA 200251Z 16003KT 10SM SCT250 15/09 A3022 RMK AO2 SLP234 T01500089 51013,160,2012-03-20 02:51:00<br />
11:51 PM,59.0,50.0,72,30.23,10.0,South,5.8,-,N/A,,Partly Cloudy,METAR KLGA 200351Z 17005KT 10SM FEW250 15/10 A3023 RMK AO2 SLP236 T01500100,170,2012-03-20 03:51:00<br />
