
TimeEDT,TemperatureF,Dew PointF,Humidity,Sea Level PressureIn,VisibilityMPH,Wind Direction,Wind SpeedMPH,Gust SpeedMPH,PrecipitationIn,Events,Conditions,FullMetar,WindDirDegrees,DateUTC<br />
12:37 AM,60.8,57.2,88,29.98,3.0,NE,9.2,-,N/A,,Overcast,SPECI KLGA 220437Z 05008KT 3SM SCT004 OVC008 16/14 A2998 RMK AO2 SFC VIS 10 CIG 003 R22 SW,50,2012-05-22 04:37:00<br />
12:51 AM,60.1,57.0,90,29.98,3.0,NE,11.5,-,N/A,,Overcast,METAR KLGA 220451Z 05010KT 3SM SCT004 OVC008 16/14 A2998 RMK AO2 SFC VIS 10 SLP152 T01560139 401670144,50,2012-05-22 04:51:00<br />
1:04 AM,59.0,57.2,94,29.98,3.0,NE,11.5,-,0.00,Rain,Light Rain,SPECI KLGA 220504Z 05010KT 3SM -RA BKN004 OVC008 15/14 A2998 RMK AO2 SFC VIS 10 RAB0459 P0000,50,2012-05-22 05:04:00<br />
1:48 AM,60.8,57.2,88,29.96,0.5,NE,12.7,-,0.02,Rain,Light Rain,SPECI KLGA 220548Z 05011KT 1/2SM -RA BR OVC004 16/14 A2996 RMK AO2 SFC VIS 2 RAB0459 P0002,50,2012-05-22 05:48:00<br />
1:51 AM,60.1,57.0,90,29.96,0.5,NE,10.4,-,0.02,Rain,Light Rain,METAR KLGA 220551Z 05009KT 1/2SM -RA BR OVC004 16/14 A2996 RMK AO2 SFC VIS 2 RAB0459 SLP145 P0002 60015 T01560139 10161 20150 58020,50,2012-05-22 05:51:00<br />
2:51 AM,60.1,57.0,90,29.94,0.5,NE,13.8,-,0.05,Rain,Light Rain,METAR KLGA 220651Z 05012KT 1/2SM -RA BR OVC004 16/14 A2993 RMK AO2 SFC VIS 3 SLP136 P0005 T01560139,50,2012-05-22 06:51:00<br />
3:51 AM,59.0,57.0,93,29.91,0.5,ENE,12.7,-,0.03,Rain,Light Rain,METAR KLGA 220751Z 06011KT 1/2SM -RA OVC004 15/14 A2991 RMK AO2 SFC VIS 8 SLP129 P0003 T01500139,60,2012-05-22 07:51:00<br />
4:51 AM,59.0,57.0,93,29.90,0.5,NE,13.8,-,0.02,Rain,Light Rain,METAR KLGA 220851Z 05012KT 1/2SM -RA BR OVC004 15/14 A2990 RMK AO2 SFC VIS 5 SLP124 P0002 60010 T01500139 56020,50,2012-05-22 08:51:00<br />
5:33 AM,60.8,57.2,88,29.89,3.0,NE,10.4,-,0.01,Rain,Light Rain,SPECI KLGA 220933Z 05009KT 3SM -RA OVC004 16/14 A2989 RMK AO2 SFC VIS 8 P0001,50,2012-05-22 09:33:00<br />
5:51 AM,60.1,57.9,93,29.89,3.0,NE,11.5,-,0.01,Rain,Light Rain,METAR KLGA 220951Z 05010KT 3SM -RA OVC004 16/14 A2989 RMK AO2 SFC VIS 8 SLP121 P0001 T01560144,50,2012-05-22 09:51:00<br />
6:36 AM,60.8,57.2,88,29.89,2.5,NE,11.5,-,0.01,Rain,Light Rain,SPECI KLGA 221036Z 05010KT 2 1/2SM -RA BR BKN006 OVC017 16/14 A2989 RMK AO2 SFC VIS 5 P0001,50,2012-05-22 10:36:00<br />
6:51 AM,61.0,57.9,90,29.89,2.0,NE,10.4,-,0.02,Rain,Light Rain,METAR KLGA 221051Z 05009KT 2SM -RA BR BKN006 OVC017 16/14 A2989 RMK AO2 SFC VIS 3 SLP122 P0002 T01610144,50,2012-05-22 10:51:00<br />
7:39 AM,60.8,59.0,94,29.89,3.0,NE,11.5,-,0.01,,Overcast,SPECI KLGA 221139Z 05010KT 3SM BR BKN004 OVC008 16/15 A2989 RMK AO2 SFC VIS 4 RAE24 P0001,50,2012-05-22 11:39:00<br />
7:51 AM,61.0,59.0,93,29.89,3.0,NE,12.7,-,0.01,Rain,Light Rain,METAR KLGA 221151Z 05011KT 3SM -RA BR BKN004 OVC007 16/15 A2989 RMK AO2 SFC VIS 4 RAE24B44 SLP120 P0001 60014 70124 T01610150 10161 20150 56004,50,2012-05-22 11:51:00<br />
8:51 AM,61.0,59.0,93,29.88,3.0,NE,13.8,-,0.00,,Overcast,METAR KLGA 221251Z 04012KT 3SM BR BKN004 OVC008 16/15 A2988 RMK AO2 SFC VIS 6 RAE1155 SLP117 P0000 T01610150,40,2012-05-22 12:51:00<br />
9:51 AM,62.1,59.0,90,29.87,3.0,NE,10.4,-,N/A,,Overcast,METAR KLGA 221351Z 05009KT 3SM BR OVC004 17/15 A2987 RMK AO2 SFC VIS 6 SLP115 T01670150 $,50,2012-05-22 13:51:00<br />
10:51 AM,63.0,59.0,87,29.88,3.0,NE,13.8,-,N/A,,Overcast,METAR KLGA 221451Z 05012KT 3SM BR BKN004 OVC006 17/15 A2988 RMK AO2 SFC VIS 5 SLP117 60000 T01720150 55003,50,2012-05-22 14:51:00<br />
11:05 AM,62.6,59.0,88,29.88,6.0,NE,10.4,-,N/A,,Overcast,SPECI KLGA 221505Z 04009KT 6SM BR BKN006 BKN011 OVC021 17/15 A2988 RMK AO2,40,2012-05-22 15:05:00<br />
11:40 AM,64.4,59.0,83,29.86,6.0,NE,10.4,-,N/A,,Haze,SPECI KLGA 221540Z 04009KT 6SM HZ SCT006 BKN010 OVC080 18/15 A2986 RMK AO2,40,2012-05-22 15:40:00<br />
11:51 AM,66.0,59.0,78,29.86,10.0,NE,11.5,-,N/A,,Overcast,METAR KLGA 221551Z 05010KT 10SM FEW006 BKN010 OVC080 19/15 A2986 RMK AO2 SLP112 T01890150,50,2012-05-22 15:51:00<br />
12:09 PM,66.2,59.0,78,29.86,10.0,NE,10.4,-,N/A,,Overcast,SPECI KLGA 221609Z 05009KT 10SM SCT010 BKN050 OVC080 19/15 A2986 RMK AO2,50,2012-05-22 16:09:00<br />
12:45 PM,64.4,59.0,83,29.85,10.0,NE,12.7,-,N/A,,Mostly Cloudy,SPECI KLGA 221645Z 04011KT 10SM FEW007 BKN050 BKN090 18/15 A2985 RMK AO2,40,2012-05-22 16:45:00<br />
12:51 PM,66.0,60.1,81,29.85,10.0,NE,15.0,-,N/A,,Mostly Cloudy,METAR KLGA 221651Z 04013KT 10SM FEW007 BKN050 BKN090 19/16 A2985 RMK AO2 SLP107 T01890156,40,2012-05-22 16:51:00<br />
1:51 PM,66.9,59.0,76,29.84,10.0,NE,15.0,-,N/A,,Mostly Cloudy,METAR KLGA 221751Z 04013KT 10SM FEW009 BKN055 BKN090 19/15 A2984 RMK AO2 SLP104 60000 T01940150 10200 20161 56013,40,2012-05-22 17:51:00<br />
2:51 PM,68.0,60.1,76,29.83,10.0,NE,12.7,-,N/A,,Mostly Cloudy,METAR KLGA 221851Z 04011KT 10SM FEW009 BKN055 BKN090 20/16 A2983 RMK AO2 SLP100 T02000156,40,2012-05-22 18:51:00<br />
3:05 PM,68.0,59.0,73,29.83,10.0,NE,12.7,-,N/A,,Mostly Cloudy,SPECI KLGA 221905Z 05011KT 10SM FEW009 BKN025 BKN055 20/15 A2983 RMK AO2,50,2012-05-22 19:05:00<br />
3:51 PM,68.0,59.0,73,29.82,10.0,NE,11.5,-,N/A,,Overcast,METAR KLGA 221951Z 04010KT 10SM FEW009 BKN022 OVC035 20/15 A2982,40,2012-05-22 19:51:00<br />
4:51 PM,68.0,59.0,73,29.82,10.0,NE,10.4,-,N/A,,Overcast,METAR KLGA 222051Z 05009KT 10SM FEW009 BKN022 OVC035 20/15 A2982 RMK AO2 SLP096 T02000150 56007,50,2012-05-22 20:51:00<br />
5:47 PM,68.0,60.8,78,29.81,10.0,ENE,6.9,-,N/A,,Scattered Clouds,SPECI KLGA 222147Z 06006KT 10SM SCT022 SCT055 20/16 A2981 RMK AO2,60,2012-05-22 21:47:00<br />
5:51 PM,68.0,60.1,76,29.81,10.0,NE,9.2,-,N/A,,Scattered Clouds,METAR KLGA 222151Z 05008KT 10SM SCT022 SCT055 20/16 A2981 RMK AO2 SLP094 T02000156,50,2012-05-22 21:51:00<br />
6:51 PM,68.0,60.1,76,29.82,10.0,ENE,6.9,-,N/A,,Mostly Cloudy,METAR KLGA 222251Z 06006KT 10SM SCT022 BKN055 20/16 A2982 RMK AO2 SLP097 T02000156,60,2012-05-22 22:51:00<br />
7:51 PM,66.9,60.1,79,29.83,10.0,ENE,4.6,-,N/A,,Mostly Cloudy,METAR KLGA 222351Z 06004KT 10SM SCT025 BKN050 19/16 A2983 RMK AO2 SLP101 T01940156 10211 20189 53005,60,2012-05-22 23:51:00<br />
8:40 PM,66.2,60.8,83,29.84,10.0,NE,4.6,-,N/A,,Mostly Cloudy,SPECI KLGA 230040Z 05004KT 10SM BKN024 BKN060 19/16 A2984 RMK AO2,50,2012-05-23 00:40:00<br />
8:51 PM,69.1,60.1,73,29.84,10.0,NE,3.5,-,N/A,,Mostly Cloudy,METAR KLGA 230051Z 05003KT 10SM BKN024 BKN060 21/16 A2984 RMK AO2 SLP103 T02060156,50,2012-05-23 00:51:00<br />
9:51 PM,68.0,60.8,78,29.85,10.0,NE,3.5,-,N/A,,Mostly Cloudy,METAR KLGA 230151Z 05003KT 10SM BKN026 BKN055 20/16 A2985,50,2012-05-23 01:51:00<br />
10:26 PM,68.0,60.8,78,29.85,10.0,ENE,3.5,-,N/A,,Overcast,SPECI KLGA 230226Z 07003KT 10SM SCT026 OVC030 20/16 A2985 RMK AO2,70,2012-05-23 02:26:00<br />
10:51 PM,66.0,59.0,78,29.86,10.0,ENE,5.8,-,N/A,,Overcast,METAR KLGA 230251Z 06005KT 10SM SCT026 OVC030 19/15 A2986 RMK AO2 SLP110 T01890150 53008,60,2012-05-23 02:51:00<br />
11:18 PM,64.4,59.0,83,29.86,10.0,ENE,5.8,-,N/A,,Overcast,SPECI KLGA 230318Z 06005KT 10SM BKN027 OVC036 18/15 A2986 RMK AO2,60,2012-05-23 03:18:00<br />
11:40 PM,64.4,60.8,88,29.86,10.0,East,4.6,-,N/A,,Overcast,SPECI KLGA 230340Z 08004KT 10SM SCT027 OVC036 18/16 A2986 RMK AO2,80,2012-05-23 03:40:00<br />
11:51 PM,64.9,59.0,81,29.86,10.0,NE,3.5,-,N/A,,Overcast,METAR KLGA 230351Z 05003KT 10SM SCT027 BKN036 OVC045 18/15 A2986 RMK AO2 SLP110 T01830150,50,2012-05-23 03:51:00<br />
