
TimeEDT,TemperatureF,Dew PointF,Humidity,Sea Level PressureIn,VisibilityMPH,Wind Direction,Wind SpeedMPH,Gust SpeedMPH,PrecipitationIn,Events,Conditions,FullMetar,WindDirDegrees,DateUTC<br />
12:51 AM,53.1,41.0,64,30.19,10.0,South,11.5,-,N/A,,Overcast,METAR KLGA 010451Z 17010KT 10SM OVC050 12/05 A3019 RMK AO2 SLP222 T01170050 401500083,170,2012-05-01 04:51:00<br />
1:51 AM,54.0,41.0,62,30.15,10.0,South,8.1,-,N/A,,Overcast,METAR KLGA 010551Z 17007KT 10SM FEW036 OVC048 12/05 A3015 RMK AO2 SLP210 T01220050 10122 20111 58020,170,2012-05-01 05:51:00<br />
2:51 AM,54.0,44.1,69,30.13,10.0,South,10.4,-,N/A,,Overcast,METAR KLGA 010651Z 17009KT 10SM OVC042 12/07 A3013 RMK AO2 SLP201 T01220067,170,2012-05-01 06:51:00<br />
3:09 AM,53.6,44.6,72,30.12,10.0,SSE,9.2,19.6,N/A,,Overcast,SPECI KLGA 010709Z 16008G17KT 10SM BKN028 BKN034 OVC042 12/07 A3012 RMK AO2,160,2012-05-01 07:09:00<br />
3:51 AM,55.0,44.1,67,30.11,10.0,SSE,12.7,-,N/A,,Overcast,METAR KLGA 010751Z 16011KT 10SM OVC028 13/07 A3011 RMK AO2 SLP196 T01280067,160,2012-05-01 07:51:00<br />
4:43 AM,53.6,44.6,72,30.09,10.0,SSE,11.5,20.7,0.00,Rain,Light Rain,SPECI KLGA 010843Z 15010G18KT 10SM -RA OVC030 12/07 A3009 RMK AO2 RAB0757 P0000,150,2012-05-01 08:43:00<br />
4:51 AM,54.0,45.0,72,30.08,10.0,SSE,12.7,-,0.00,Rain,Light Rain,METAR KLGA 010851Z 16011KT 10SM -RA OVC030 12/07 A3008 RMK AO2 RAB0757 SLP185 P0000 60000 T01220072 58025,160,2012-05-01 08:51:00<br />
5:08 AM,53.6,46.4,77,30.09,10.0,SE,4.6,-,0.00,Rain,Light Rain,SPECI KLGA 010908Z 14004KT 10SM -RA OVC028 12/08 A3009 RMK AO2 P0000,140,2012-05-01 09:08:00<br />
5:51 AM,53.1,46.9,80,30.08,5.0,East,5.8,-,0.05,Rain,Rain,METAR KLGA 010951Z 10005KT 5SM RA OVC024 12/08 A3008 RMK AO2 SLP184 P0005 T01170083,100,2012-05-01 09:51:00<br />
6:20 AM,51.8,46.4,82,30.05,4.0,East,10.4,-,0.24,Rain-Thunderstorm,Heavy Thunderstorms and Rain,SPECI KLGA 011020Z 10009KT 4SM +TSRA FEW015 BKN021CB OVC030 11/08 A3005 RMK AO2 TSB19 PRESFR OCNL LTGIC OHD TS OHD MOV E P0024,100,2012-05-01 10:20:00<br />
6:36 AM,51.8,48.2,88,30.05,1.5,East,6.9,-,0.39,Rain-Thunderstorm,Heavy Thunderstorms and Rain,SPECI KLGA 011036Z 10006KT 1 1/2SM R04/5000VP6000FT +TSRA BR FEW015 BKN026CB OVC035 11/09 A3005 RMK AO2 SFC VIS 2 TSB19 OCNL LTGIC OHD TS OHD MOV E P0039,100,2012-05-01 10:36:00<br />
6:47 AM,51.8,48.2,88,30.05,1.5,East,9.2,-,0.50,Rain,Heavy Rain,SPECI KLGA 011047Z 09008KT 1 1/2SM R04/6000VP6000FT +RA BR SCT021 BKN028 OVC055 11/09 A3005 RMK AO2 SFC VIS 1 3/4 TSB19E45 P0050,90,2012-05-01 10:47:00<br />
6:51 AM,52.0,48.9,89,30.04,1.5,East,10.4,-,0.53,Rain,Rain,METAR KLGA 011051Z 10009KT 1 1/2SM R04/6000VP6000FT RA BR SCT019 BKN025 OVC033 11/09 A3004 RMK AO2 SFC VIS 2 1/2 TSB19E45 CIG 018 R22 SW SLP172 P0053 T01110094,100,2012-05-01 10:51:00<br />
7:03 AM,51.8,48.2,88,30.04,5.0,ESE,8.1,-,0.02,Rain,Light Rain,SPECI KLGA 011103Z 12007KT 5SM -RA BR FEW016 BKN020 OVC027 11/09 A3004 RMK AO2 P0002,120,2012-05-01 11:03:00<br />
7:32 AM,53.6,48.2,82,30.03,4.0,SE,9.2,-,0.10,Rain,Light Rain,SPECI KLGA 011132Z 13008KT 4SM -RA BR BKN007 BKN027 OVC037 12/09 A3003 RMK AO2 P0010,130,2012-05-01 11:32:00<br />
7:51 AM,54.0,50.0,86,30.02,4.0,SE,4.6,-,0.12,Rain,Rain,METAR KLGA 011151Z 13004KT 4SM RA BR BKN007 BKN018 OVC032 12/10 A3002 RMK AO2 SLP166 P0012 60070 70070 T01220100 10128 20111 56018,130,2012-05-01 11:51:00<br />
8:51 AM,55.0,52.0,89,30.00,6.0,South,5.8,-,0.03,Rain,Light Rain,METAR KLGA 011251Z 17005KT 6SM -RA BR BKN007 OVC010 13/11 A3000 RMK AO2 SLP159 P0003 T01280111,170,2012-05-01 12:51:00<br />
9:51 AM,55.9,53.1,90,29.99,4.0,South,8.1,-,0.00,,Overcast,METAR KLGA 011351Z 18007KT 4SM BR OVC007 13/12 A2999 RMK AO2 RAE07 SLP155 P0000 T01330117,180,2012-05-01 13:51:00<br />
10:17 AM,57.2,53.6,88,29.98,2.5,Variable,3.5,-,0.00,,Light Drizzle,SPECI KLGA 011417Z VRB03KT 2 1/2SM -DZ BR OVC005 14/12 A2998 RMK AO2 DZB16 P0000,0,2012-05-01 14:17:00<br />
10:51 AM,55.9,53.1,90,29.98,2.5,SSW,6.9,-,0.00,,Overcast,METAR KLGA 011451Z 20006KT 2 1/2SM BR OVC005 13/12 A2998 RMK AO2 SFC VIS 3 DZB16E48 SLP152 P0000 60003 T01330117 56014,200,2012-05-01 14:51:00<br />
11:08 AM,57.2,53.6,88,29.98,2.5,South,5.8,-,N/A,,Overcast,SPECI KLGA 011508Z 19005KT 2 1/2SM BR BKN007 OVC011 14/12 A2998 RMK AO2 SFC VIS 4,190,2012-05-01 15:08:00<br />
11:51 AM,57.2,53.6,88,29.97,2.5,Calm,Calm,-,N/A,,Overcast,METAR KLGA 011551Z 00000KT 2 1/2SM BR BKN007 OVC013 14/12 A2997,0,2012-05-01 15:51:00<br />
12:17 PM,59.0,53.6,82,29.97,5.0,West,3.5,-,N/A,,Haze,SPECI KLGA 011617Z 28003KT 5SM HZ SCT007 OVC013 15/12 A2997 RMK AO2,280,2012-05-01 16:17:00<br />
12:51 PM,60.1,54.0,80,29.96,5.0,NW,8.1,-,N/A,,Haze,METAR KLGA 011651Z 32007KT 5SM HZ FEW007 OVC013 16/12 A2996 RMK AO2 SLP145 T01560122,320,2012-05-01 16:51:00<br />
1:46 PM,62.6,53.6,72,29.97,7.0,NW,9.2,-,N/A,,Mostly Cloudy,SPECI KLGA 011746Z 32008KT 7SM BKN016 BKN025 17/12 A2997 RMK AO2,320,2012-05-01 17:46:00<br />
1:51 PM,62.1,54.0,75,29.98,7.0,NNW,8.1,-,N/A,,Overcast,METAR KLGA 011751Z 33007KT 7SM BKN016 OVC025 17/12 A2998 RMK AO2 SLP151 60003 T01670122 10167 20122 55002,330,2012-05-01 17:51:00<br />
2:51 PM,64.0,52.0,65,29.98,10.0,NW,11.5,-,N/A,,Mostly Cloudy,METAR KLGA 011851Z 31010KT 10SM FEW022 BKN030 BKN040 18/11 A2998 RMK AO2 SLP151 T01780111,310,2012-05-01 18:51:00<br />
3:26 PM,66.2,53.6,64,29.98,10.0,NNW,10.4,-,N/A,,Mostly Cloudy,SPECI KLGA 011926Z 34009KT 10SM BKN022 BKN040 19/12 A2998 RMK AO2,340,2012-05-01 19:26:00<br />
3:51 PM,66.9,52.0,59,29.99,10.0,NW,11.5,-,N/A,,Mostly Cloudy,METAR KLGA 011951Z 31010KT 10SM BKN026 BKN040 19/11 A2998 RMK AO2 SLP153 T01940111,310,2012-05-01 19:51:00<br />
4:13 PM,66.2,51.8,60,29.98,10.0,NW,13.8,-,N/A,,Mostly Cloudy,SPECI KLGA 012013Z 32012KT 10SM SCT026 BKN040 19/11 A2998 RMK AO2,320,2012-05-01 20:13:00<br />
4:51 PM,66.9,52.0,59,29.99,10.0,North,11.5,-,N/A,,Scattered Clouds,METAR KLGA 012051Z 35010KT 10SM SCT029 SCT045 19/11 A2999 RMK AO2 SLP154 T01940111 53004,350,2012-05-01 20:51:00<br />
5:51 PM,66.0,52.0,60,30.00,10.0,NE,8.1,-,N/A,,Scattered Clouds,METAR KLGA 012151Z 04007KT 10SM FEW035 SCT065 19/11 A3000 RMK AO2 SLP158 T01890111,40,2012-05-01 21:51:00<br />
6:51 PM,66.9,52.0,59,30.01,10.0,ENE,6.9,-,N/A,,Scattered Clouds,METAR KLGA 012251Z 06006KT 10SM FEW070 SCT250 19/11 A3001 RMK AO2 SLP161 T01940111,60,2012-05-01 22:51:00<br />
7:51 PM,64.9,51.1,61,30.01,10.0,ENE,5.8,-,N/A,,Scattered Clouds,METAR KLGA 012351Z 06005KT 10SM FEW070 SCT250 18/11 A3001 RMK AO2 SLP161 T01830106 10200 20167 50006,60,2012-05-01 23:51:00<br />
8:51 PM,64.9,51.1,61,30.02,10.0,ENE,9.2,-,N/A,,Scattered Clouds,METAR KLGA 020051Z 06008KT 10SM SCT250 18/11 A3002 RMK AO2 SLP165 T01830106,60,2012-05-02 00:51:00<br />
9:51 PM,57.9,51.1,78,30.05,10.0,NNE,6.9,-,N/A,,Scattered Clouds,METAR KLGA 020151Z 03006KT 10SM SCT250 14/11 A3005 RMK AO2 SLP175 T01440106,30,2012-05-02 01:51:00<br />
10:51 PM,57.0,51.1,81,30.07,10.0,ENE,11.5,-,N/A,,Mostly Cloudy,METAR KLGA 020251Z 07010KT 10SM BKN250 14/11 A3007 RMK AO2 SLP181 T01390106 53020,70,2012-05-02 02:51:00<br />
11:51 PM,55.0,48.0,77,30.08,10.0,East,10.4,-,N/A,,Scattered Clouds,METAR KLGA 020351Z 08009KT 10SM SCT070 13/09 A3008 RMK AO2 SLP186 T01280089,80,2012-05-02 03:51:00<br />
