
TimeEST,TemperatureF,Dew PointF,Humidity,Sea Level PressureIn,VisibilityMPH,Wind Direction,Wind SpeedMPH,Gust SpeedMPH,PrecipitationIn,Events,Conditions,FullMetar,WindDirDegrees,DateUTC<br />
12:51 AM,44.1,33.1,65,30.20,10.0,ENE,5.8,-,N/A,,Overcast,METAR KLGA 160551Z 06005KT 10SM BKN027 BKN037 OVC110 07/01 A3020 RMK AO2 SLP227 T00670006 10072 20067 56011,60,2012-12-16 05:51:00<br />
1:51 AM,44.1,35.1,71,30.20,10.0,East,6.9,-,N/A,,Overcast,METAR KLGA 160651Z 08006KT 10SM BKN029 BKN038 OVC065 07/02 A3020 RMK AO2 SLP226 T00670017,80,2012-12-16 06:51:00<br />
2:51 AM,44.1,36.0,73,30.19,10.0,East,6.9,-,N/A,,Overcast,METAR KLGA 160751Z 08006KT 10SM BKN029 BKN065 OVC100 07/02 A3018 RMK AO2 SLP221 T00670022,80,2012-12-16 07:51:00<br />
3:51 AM,45.0,37.0,74,30.14,10.0,East,13.8,-,N/A,,Overcast,METAR KLGA 160851Z 09012KT 10SM BKN029 OVC050 07/03 A3014 RMK AO2 SLP204 T00720028 58023,90,2012-12-16 08:51:00<br />
4:12 AM,44.6,35.6,71,30.14,10.0,ESE,13.8,-,N/A,,Overcast,SPECI KLGA 160912Z 11012KT 10SM SCT029 BKN040 OVC100 07/02 A3014,110,2012-12-16 09:12:00<br />
4:51 AM,45.0,36.0,71,30.15,10.0,ESE,12.7,-,N/A,,Overcast,METAR KLGA 160951Z 11011KT 10SM SCT024 BKN035 OVC050 07/02 A3015 RMK AO2 SLP209 T00720022,110,2012-12-16 09:51:00<br />
5:51 AM,45.0,37.0,74,30.14,10.0,East,10.4,-,N/A,,Overcast,METAR KLGA 161051Z 10009KT 10SM SCT024 BKN035 OVC060 07/03 A3014 RMK AO2 SLP206 T00720028,100,2012-12-16 10:51:00<br />
6:00 AM,44.6,37.4,76,30.13,10.0,East,10.4,-,N/A,,Overcast,SPECI KLGA 161100Z 09009KT 10SM BKN028 BKN035 OVC060 07/03 A3013 RMK AO2,90,2012-12-16 11:00:00<br />
6:51 AM,46.0,37.0,71,30.13,10.0,East,8.1,-,N/A,,Mostly Cloudy,METAR KLGA 161151Z 08007KT 10SM BKN028 BKN035 BKN060 08/03 A3013 RMK AO2 SLP203 T00780028 10078 20067 58001,80,2012-12-16 11:51:00<br />
7:51 AM,45.0,37.9,76,30.13,10.0,NE,9.2,-,N/A,,Mostly Cloudy,METAR KLGA 161251Z 05008KT 10SM BKN016 BKN023 BKN050 BKN130 07/03 A3013 RMK AO2 SLP201 T00720033,50,2012-12-16 12:51:00<br />
8:51 AM,46.0,39.9,79,30.11,8.0,NE,6.9,-,0.00,Rain,Light Rain,METAR KLGA 161351Z 05006KT 8SM -RA BKN015 BKN020 BKN040 OVC130 08/04 A3011 RMK AO2 RAB13 SLP195 P0000 T00780044,50,2012-12-16 13:51:00<br />
9:01 AM,46.4,39.2,76,30.10,9.0,NE,9.2,-,0.00,Rain,Light Rain,SPECI KLGA 161401Z 05008KT 9SM -RA BKN013 BKN019 BKN040 OVC130 08/04 A3010 RMK AO2 P0000,50,2012-12-16 14:01:00<br />
9:51 AM,48.0,42.1,80,30.10,9.0,East,16.1,-,0.00,,Overcast,METAR KLGA 161451Z 10014KT 9SM BKN013 BKN019 BKN040 OVC130 09/06 A3010 RMK AO2 RAE28 SLP191 P0000 60000 T00890056 58012,100,2012-12-16 14:51:00<br />
10:51 AM,46.9,42.1,83,30.09,9.0,ESE,13.8,21.9,0.00,,Overcast,METAR KLGA 161551Z 11012G19KT 9SM BKN013 BKN021 BKN037 OVC130 08/06 A3009 RMK AO2 RAB21E34 SLP187 P0000 T00830056,110,2012-12-16 15:51:00<br />
11:51 AM,48.0,42.1,80,30.05,9.0,East,16.1,-,0.00,,Light Drizzle,METAR KLGA 161651Z 10014KT 9SM -DZ BKN013 BKN018 OVC035 09/06 A3005 RMK AO2 DZB47 SLP174 P0000 T00890056,100,2012-12-16 16:51:00<br />
12:43 PM,48.2,42.8,82,30.03,2.5,East,16.1,-,0.00,Rain,Light Rain,SPECI KLGA 161743Z 09014KT 2 1/2SM -RA BKN011 OVC013 09/06 A3003 RMK AO2 SFC VIS 4 DZE10RAB10 P0000,90,2012-12-16 17:43:00<br />
12:51 PM,46.9,43.0,86,30.03,2.5,East,12.7,-,0.00,Rain,Light Rain,METAR KLGA 161751Z 08011KT 2 1/2SM -RA BR BKN011 OVC013 08/06 A3003 RMK AO2 SFC VIS 4 DZE10RAB10 SLP168 P0000 60000 T00830061 10094 20072 58023,80,2012-12-16 17:51:00<br />
1:12 PM,46.4,42.8,87,30.02,2.0,ENE,13.8,-,0.01,Rain,Light Rain,SPECI KLGA 161812Z 07012KT 2SM -RA BR OVC009 08/06 A3002 RMK AO2 TWR VIS 2 1/2 P0001,70,2012-12-16 18:12:00<br />
1:32 PM,46.4,42.8,87,30.01,2.0,ENE,13.8,-,0.01,Rain,Light Rain,SPECI KLGA 161832Z 06012KT 2SM -RA BR OVC007 08/06 A3001 RMK AO2 P0001,60,2012-12-16 18:32:00<br />
1:44 PM,46.4,42.8,87,30.01,1.8,ENE,9.2,-,0.02,Rain,Light Rain,SPECI KLGA 161844Z 06008KT 1 3/4SM -RA BR OVC006 08/06 A3001 RMK AO2 SFC VIS 2 P0002,60,2012-12-16 18:44:00<br />
1:51 PM,46.0,43.0,89,30.01,1.8,ENE,9.2,-,0.02,Rain,Light Rain,METAR KLGA 161851Z 06008KT 1 3/4SM -RA BR OVC006 08/06 A3001 RMK AO2 SFC VIS 2 SLP162 P0002 T00780061,60,2012-12-16 18:51:00<br />
2:51 PM,45.0,43.0,93,30.01,1.8,NE,10.4,-,0.02,Rain,Light Rain,METAR KLGA 161951Z 05009KT 1 3/4SM -RA BR BKN006 OVC015 07/06 A3000 RMK AO2 SLP160 P0002 T00720061,50,2012-12-16 19:51:00<br />
3:51 PM,45.0,42.1,90,29.98,1.8,ENE,12.7,-,0.03,Rain,Light Rain,METAR KLGA 162051Z 06011KT 1 3/4SM -RA BR OVC006 07/06 A2998 RMK AO2 SLP152 P0003 60007 T00720056 58016,60,2012-12-16 20:51:00<br />
4:51 PM,45.0,42.1,90,29.98,1.8,NE,15.0,-,0.01,,Overcast,METAR KLGA 162151Z 05013KT 1 3/4SM BR OVC006 07/06 A2998 RMK AO2 SFC VIS 3 RAE12 SLP150 P0001 T00720056,50,2012-12-16 21:51:00<br />
5:51 PM,44.1,42.1,93,29.96,1.5,NE,12.7,-,0.02,,Overcast,METAR KLGA 162251Z 05011KT 1 1/2SM BR OVC006 07/06 A2996 RMK AO2 SFC VIS 4 RAB2152E41 SLP145 P0002 T00670056,50,2012-12-16 22:51:00<br />
6:51 PM,45.0,42.1,90,29.97,1.5,NE,13.8,-,0.01,,Overcast,METAR KLGA 162351Z 05012KT 1 1/2SM BR OVC006 07/06 A2997 RMK AO2 SFC VIS 3 RAB2255E11B38E45 SLP148 P0001 60011 T00720056 10089 20067 55004,50,2012-12-16 23:51:00<br />
7:38 PM,44.6,42.8,93,29.94,1.5,ENE,19.6,27.6,0.00,,Overcast,SPECI KLGA 170038Z 06017G24KT 1 1/2SM BR OVC008 07/06 A2994 RMK AO2 SFC VIS 3 RAB02E10B29E35 P0000,60,2012-12-17 00:38:00<br />
7:51 PM,45.0,42.1,90,29.94,1.5,ENE,18.4,24.2,0.01,,Overcast,METAR KLGA 170051Z 06016G21KT 1 1/2SM BR OVC008 07/06 A2994 RMK AO2 SFC VIS 3 RAB02E10B29E35 SLP139 P0001 T00720056,60,2012-12-17 00:51:00<br />
8:17 PM,44.6,41.0,87,29.93,3.0,ENE,19.6,27.6,N/A,,Overcast,SPECI KLGA 170117Z 06017G24KT 3SM BR OVC008 07/05 A2993 RMK AO2 SFC VIS 6,60,2012-12-17 01:17:00<br />
8:40 PM,44.6,41.0,87,29.93,4.0,NE,18.4,-,N/A,,Overcast,SPECI KLGA 170140Z 05016KT 4SM BR OVC006 07/05 A2993 RMK AO2,50,2012-12-17 01:40:00<br />
8:51 PM,44.1,41.0,89,29.93,4.0,NE,18.4,-,N/A,,Overcast,METAR KLGA 170151Z 05016KT 4SM BR OVC006 07/05 A2993 RMK AO2 SLP134 T00670050,50,2012-12-17 01:51:00<br />
9:51 PM,45.0,42.1,90,29.93,7.0,ENE,15.0,-,N/A,,Overcast,METAR KLGA 170251Z 06013KT 7SM OVC006 07/06 A2993 RMK AO2 SLP134 60001 T00720056 55014,60,2012-12-17 02:51:00<br />
10:51 PM,45.0,42.1,90,29.92,5.0,NE,15.0,-,0.05,Rain,Rain,METAR KLGA 170351Z 05013KT 5SM RA BR OVC006 07/06 A2992 RMK AO2 RAB0257 SLP132 P0005 T00720056,50,2012-12-17 03:51:00<br />
11:51 PM,43.0,41.0,93,29.91,5.0,NE,19.6,-,0.14,Rain,Light Rain,METAR KLGA 170451Z 05017KT 5SM -RA BR BKN006 OVC012 06/05 A2991 RMK AO2 SLP129 P0014 T00610050 400940061,50,2012-12-17 04:51:00<br />
