
TimeEDT,TemperatureF,Dew PointF,Humidity,Sea Level PressureIn,VisibilityMPH,Wind Direction,Wind SpeedMPH,Gust SpeedMPH,PrecipitationIn,Events,Conditions,FullMetar,WindDirDegrees,DateUTC<br />
12:51 AM,61.0,55.9,83,30.11,10.0,East,9.2,-,N/A,,Overcast,METAR KJFK 080451Z 09008KT 10SM FEW045 BKN070 OVC250 16/13 A3011 RMK AO2 SLP195 T01610133 402220089,90,2013-05-08 04:51:00<br />
1:51 AM,61.0,55.9,83,30.08,10.0,East,10.4,-,N/A,,Overcast,METAR KJFK 080551Z 09009KT 10SM SCT031 BKN075 OVC120 16/13 A3008 RMK AO2 SLP186 T01610133 10161 20156 58015,90,2013-05-08 05:51:00<br />
2:36 AM,60.8,55.4,82,30.08,10.0,East,10.4,-,0.00,Rain,Light Rain,SPECI KJFK 080636Z 10009KT 10SM -RA BKN026 OVC085 16/13 A3008 RMK AO2 RAB00 P0000,100,2013-05-08 06:36:00<br />
2:51 AM,60.1,57.0,90,30.09,10.0,SE,9.2,-,0.00,Rain,Light Rain,METAR KJFK 080651Z 13008KT 10SM -RA BKN025 OVC050 16/14 A3009 RMK AO2 RAB00 SLP188 P0000 T01560139,130,2013-05-08 06:51:00<br />
3:51 AM,59.0,55.9,90,30.08,9.0,ESE,5.8,-,0.19,Rain,Light Rain,METAR KJFK 080751Z 12005KT 9SM -RA FEW010 BKN025 OVC090 15/13 A3008 RMK AO2 SLP185 P0019 T01500133,120,2013-05-08 07:51:00<br />
4:40 AM,59.0,57.2,94,30.06,8.0,ENE,5.8,-,0.10,Rain,Light Rain,SPECI KJFK 080840Z 06005KT 8SM -RA BKN008 BKN025 OVC070 15/14 A3006 RMK AO2 P0010,60,2013-05-08 08:40:00<br />
4:51 AM,59.0,57.0,93,30.06,9.0,ENE,6.9,-,0.11,Rain,Light Rain,METAR KJFK 080851Z 06006KT 9SM -RA BKN008 BKN025 OVC070 15/14 A3006 RMK AO2 SLP177 P0011 60030 T01500139 58008,60,2013-05-08 08:51:00<br />
5:02 AM,59.0,57.2,94,30.05,7.0,ENE,6.9,-,0.02,Rain,Rain,SPECI KJFK 080902Z 06006KT 7SM RA SCT006 BKN035 OVC090 15/14 A3005 RMK AO2 P0002,60,2013-05-08 09:02:00<br />
5:51 AM,59.0,57.0,93,30.07,5.0,East,8.1,-,0.24,Rain,Rain,METAR KJFK 080951Z 09007KT 5SM RA BR FEW006 BKN034 OVC070 15/14 A3007 RMK AO2 SLP181 P0024 T01500139,90,2013-05-08 09:51:00<br />
6:09 AM,59.0,57.2,94,30.07,4.0,East,8.1,-,0.09,Rain,Heavy Rain,SPECI KJFK 081009Z 08007KT 4SM R04R/4500VP6000FT +RA BR SCT008 BKN015 OVC070 15/14 A3007 RMK AO2 P0009,80,2013-05-08 10:09:00<br />
6:51 AM,60.1,57.9,93,30.07,5.0,ENE,9.2,-,0.28,Rain,Rain,METAR KJFK 081051Z 06008KT 5SM RA BR SCT006 BKN013 OVC070 16/14 A3007 RMK AO2 SLP183 P0028 T01560144,60,2013-05-08 10:51:00<br />
7:29 AM,60.8,57.2,88,30.06,6.0,NE,11.5,-,0.09,Rain-Thunderstorm,Light Thunderstorms and Rain,SPECI KJFK 081129Z 04010KT 6SM -TSRA BR SCT008 BKN021CB OVC070 16/14 A3006 RMK AO2 TSB28 OCNL LTGIC SW-W TS SW-W MOV NW P0009,40,2013-05-08 11:29:00<br />
7:51 AM,59.0,57.0,93,30.07,5.0,ENE,9.2,-,0.11,Rain-Thunderstorm,Heavy Thunderstorms and Rain,METAR KJFK 081151Z 06008KT 5SM R04R/5500VP6000FT +TSRA BR BKN008 BKN021CB OVC065 15/14 A3007 RMK AO2 TSB28 SLP181 OCNL LTGIC SW-NW TS SW-NW MOV NW P0011 60093 70093 T01500139 10161 20144 50004,60,2013-05-08 11:51:00<br />
8:40 AM,60.8,57.2,88,30.08,7.0,NNW,9.2,-,0.02,Rain,Light Rain,SPECI KJFK 081240Z 33008KT 7SM -RA BKN006 BKN011 OVC028 16/14 A3008 RMK AO2 TSE39RAE08B26 P0002,330,2013-05-08 12:40:00<br />
8:51 AM,61.0,57.9,90,30.09,9.0,North,5.8,-,0.02,Rain,Light Rain,METAR KJFK 081251Z 36005KT 9SM -RA SCT006 BKN015 OVC027 16/14 A3009 RMK AO2 TSE39RAE08B26 SLP188 SCT V BKN P0002 T01610144,360,2013-05-08 12:51:00<br />
9:22 AM,60.8,57.2,88,30.07,10.0,NE,8.1,-,0.00,Rain,Light Rain,SPECI KJFK 081322Z 04007KT 10SM -RA FEW006 OVC012 16/14 A3007 RMK AO2 RAE1254B16 P0000,40,2013-05-08 13:22:00<br />
9:51 AM,62.1,59.0,90,30.07,10.0,ENE,12.7,-,0.00,,Overcast,METAR KJFK 081351Z 07011KT 10SM FEW005 OVC010 17/15 A3007 RMK AO2 RAE1254B16E31 SLP181 CIG 008V012 P0000 T01670150,70,2013-05-08 13:51:00<br />
10:51 AM,62.1,57.0,84,30.07,10.0,ESE,8.1,-,N/A,,Mostly Cloudy,METAR KJFK 081451Z 11007KT 10SM SCT010 BKN014 BKN019 BKN140 17/14 A3007 RMK AO2 SLP182 60002 T01670139 51001,110,2013-05-08 14:51:00<br />
11:29 AM,62.6,57.2,82,30.05,10.0,East,11.5,-,N/A,,Overcast,SPECI KJFK 081529Z 08010KT 10SM OVC008 17/14 A3005 RMK AO2,80,2013-05-08 15:29:00<br />
11:51 AM,62.1,59.0,90,30.03,7.0,East,12.7,-,0.01,Rain,Light Rain,METAR KJFK 081551Z 08011KT 7SM R04R/6000VP6000FT -RA BKN008 OVC017 17/15 A3003 RMK AO2 RAB42 SLP169 P0001 T01670150,80,2013-05-08 15:51:00<br />
12:05 PM,62.6,59.0,88,30.02,10.0,ENE,10.4,-,0.00,Thunderstorm,Thunderstorm,SPECI KJFK 081605Z 06009KT 10SM TS BKN008 OVC015CB 17/15 A3002 RMK AO2 TSB05RAE1558 OCNL LTGICCG SE-S TS SE-S MOV NW P0000,60,2013-05-08 16:05:00<br />
12:13 PM,62.6,60.8,94,30.02,1.5,ESE,8.1,-,0.04,Rain-Thunderstorm,Thunderstorms and Rain,SPECI KJFK 081613Z COR 11007KT 1 1/2SM R04R/3500VP6000FT TSRA BR BKN006 OVC017CB 17/16 A3002 RMK AO2 TSB05 FRQ LTGICCG OHD AND E-S TS OHD AND E-S MOV NW P0004,110,2013-05-08 16:13:00<br />
12:51 PM,60.1,57.9,93,30.02,4.0,ESE,21.9,-,0.58,Rain,Light Rain,METAR KJFK 081651Z 11019KT 4SM -RA BR BKN006 BKN012 OVC022CB 16/14 A3002 RMK AO2 TSB05E49 SLP165 VIS NW-N 2 CB NW-NE MOV NW P0058 T01560144 $,110,2013-05-08 16:51:00<br />
1:08 PM,59.0,57.2,94,30.02,1.5,ESE,20.7,-,0.00,,Overcast,SPECI KJFK 081708Z 12018KT 1 1/2SM BR OVC004 15/14 A3002 RMK AO2 SFC VIS 4 RAE1656 P0000 $,120,2013-05-08 17:08:00<br />
1:51 PM,61.0,59.0,93,30.02,1.5,SE,19.6,-,0.00,,Overcast,METAR KJFK 081751Z 14017KT 1 1/2SM BR OVC004 16/15 A3002 RMK AO2 SFC VIS 4 RAE1656 SLP165 P0000 60061 T01610150 10178 20150 56017 $,140,2013-05-08 17:51:00<br />
2:09 PM,60.8,59.0,94,30.02,0.2,SE,15.0,-,N/A,,Overcast,SPECI KJFK 081809Z 13013KT 1/4SM BR OVC003 16/15 A3002 RMK AO2 SFC VIS 4 PNO $,130,2013-05-08 18:09:00<br />
2:51 PM,61.0,60.1,97,30.02,0.2,SSE,13.8,-,N/A,,Overcast,METAR KJFK 081851Z 15012KT 1/4SM BR OVC003 16/16 A3002 RMK AO2 SFC VIS 2 1/2 SLP164 T01610156 PNO $,150,2013-05-08 18:51:00<br />
3:36 PM,60.8,60.8,100,30.01,1.5,SSE,8.1,-,N/A,,Overcast,SPECI KJFK 081936Z 15007KT 1 1/2SM BR OVC003 16/16 A3001 RMK AO2 SFC VIS 5 PNO $,150,2013-05-08 19:36:00<br />
3:45 PM,60.8,60.8,100,30.01,3.0,SSE,9.2,-,N/A,,Overcast,SPECI KJFK 081945Z 15008KT 3SM OVC003 16/16 A3001 RMK AO2 SFC VIS 7 PNO $,150,2013-05-08 19:45:00<br />
3:51 PM,61.0,60.1,97,30.01,3.0,SE,9.2,-,N/A,,Overcast,METAR KJFK 081951Z 13008KT 3SM OVC003 16/16 A3001 RMK AO2 SFC VIS 7 SLP163 T01610156 PNO $,130,2013-05-08 19:51:00<br />
4:31 PM,62.6,60.8,94,30.00,3.0,ESE,11.5,-,N/A,,Mostly Cloudy,SPECI KJFK 082031Z 11010KT 3SM BKN005 BKN030 BKN140 BKN250 17/16 A3000 RMK AO2 SFC VIS 7 PNO $,110,2013-05-08 20:31:00<br />
4:51 PM,62.1,60.1,93,30.00,3.0,ESE,9.2,-,N/A,,Mostly Cloudy,METAR KJFK 082051Z 12008KT 3SM BKN005 BKN030 BKN120 BKN250 17/16 A3000 RMK AO2 SFC VIS 7 SLP159 6//// T01670156 58006 PNO $,120,2013-05-08 20:51:00<br />
5:51 PM,61.0,57.0,87,30.01,9.0,ESE,12.7,-,N/A,,Mostly Cloudy,METAR KJFK 082151Z 12011KT 9SM BKN006 BKN100 BKN250 16/14 A3001 RMK AO2 SLP161 T01610139 PNO $,120,2013-05-08 21:51:00<br />
6:40 PM,59.0,53.6,82,30.01,10.0,SE,8.1,-,N/A,,Mostly Cloudy,SPECI KJFK 082240Z 14007KT 10SM SCT005 SCT030 BKN140 BKN250 15/12 A3001 RMK AO2 PNO $,140,2013-05-08 22:40:00<br />
6:51 PM,59.0,54.0,83,30.01,10.0,ESE,8.1,-,N/A,,Mostly Cloudy,METAR KJFK 082251Z 12007KT 10SM FEW005 SCT030 SCT140 BKN250 15/12 A3001 RMK AO2 SLP160 T01500122 PNO $,120,2013-05-08 22:51:00<br />
7:51 PM,57.9,52.0,81,30.01,10.0,ESE,10.4,-,N/A,,Mostly Cloudy,METAR KJFK 082351Z 12009KT 10SM FEW006 SCT030 SCT140 BKN250 14/11 A3001 RMK AO2 SLP163 6//// T01440111 10167 20144 53004 PNO $,120,2013-05-08 23:51:00<br />
8:51 PM,57.0,51.1,81,30.03,10.0,SSE,8.1,-,N/A,,Mostly Cloudy,METAR KJFK 090051Z 15007KT 10SM FEW030 SCT140 BKN240 14/11 A3003 RMK AO2 SLP167 T01390106 PNO $,150,2013-05-09 00:51:00<br />
9:51 PM,57.0,48.9,74,30.04,10.0,South,11.5,-,N/A,,Mostly Cloudy,METAR KJFK 090151Z 17010KT 10SM FEW030 BKN250 14/09 A3004 RMK AO2 SLP171 OCNL LTGIC DSNT NW CB DSNT NW T01390094 PNO $,170,2013-05-09 01:51:00<br />
10:51 PM,57.2,53.6,88,30.03,10.0,East,8.1,-,N/A,,Scattered Clouds,METAR KJFK 090251Z COR 08007KT 10SM SCT012 SCT140 SCT250 14/12 A3003 RMK AO2 SLP169 6//// T11051111 50006 PNO $,80,2013-05-09 02:51:00<br />
11:25 PM,57.2,53.6,88,30.03,10.0,East,4.6,-,N/A,,Scattered Clouds,SPECI KJFK 090325Z 08004KT 10SM SCT008 SCT250 14/12 A3003 RMK AO2 PNO $,80,2013-05-09 03:25:00<br />
11:51 PM,57.0,53.1,87,30.02,10.0,ESE,4.6,-,N/A,,Scattered Clouds,METAR KJFK 090351Z 12004KT 10SM FEW008 SCT250 14/12 A3002 RMK AO2 SLP166 T01390117 PNO $,120,2013-05-09 03:51:00<br />
