
TimeEDT,TemperatureF,Dew PointF,Humidity,Sea Level PressureIn,VisibilityMPH,Wind Direction,Wind SpeedMPH,Gust SpeedMPH,PrecipitationIn,Events,Conditions,FullMetar,WindDirDegrees,DateUTC<br />
12:51 AM,37.9,27.0,65,29.72,10.0,East,3.5,-,N/A,,Overcast,METAR KJFK 250451Z 10003KT 10SM OVC150 03/M03 A2972 RMK AO2 SLP062 T00331028 400830000 $,100,2013-03-25 04:51:00<br />
1:51 AM,37.9,27.0,65,29.72,10.0,East,3.5,-,N/A,,Overcast,METAR KJFK 250551Z 10003KT 10SM OVC140 03/M03 A2972 RMK AO2 SLP064 T00331028 10039 20028 55015 $,100,2013-03-25 05:51:00<br />
2:51 AM,37.0,27.0,67,29.69,10.0,ENE,4.6,-,N/A,,Overcast,METAR KJFK 250651Z 06004KT 10SM OVC140 03/M03 A2969 RMK AO2 SLP052 T00281028 $,60,2013-03-25 06:51:00<br />
3:51 AM,37.9,27.0,65,29.65,10.0,NE,6.9,-,N/A,,Overcast,METAR KJFK 250751Z 05006KT 10SM OVC110 03/M03 A2965 RMK AO2 SLP041 T00331028 $,50,2013-03-25 07:51:00<br />
4:51 AM,37.9,27.0,65,29.63,10.0,ENE,9.2,-,N/A,,Overcast,METAR KJFK 250851Z 06008KT 10SM OVC100 03/M03 A2963 RMK AO2 SLP033 T00331028 56030 $,60,2013-03-25 08:51:00<br />
5:51 AM,37.9,27.0,65,29.63,10.0,NE,12.7,-,N/A,,Overcast,METAR KJFK 250951Z 05011KT 10SM OVC085 03/M03 A2963 RMK AO2 SLP033 T00331028 $,50,2013-03-25 09:51:00<br />
6:51 AM,37.9,28.0,68,29.62,10.0,NE,13.8,-,N/A,,Overcast,METAR KJFK 251051Z 04012KT 10SM FEW024 OVC080 03/M02 A2962 RMK AO2 SLP028 T00331022 $,40,2013-03-25 10:51:00<br />
7:51 AM,37.9,27.0,65,29.60,10.0,NE,16.1,21.9,N/A,,Overcast,METAR KJFK 251151Z 05014G19KT 10SM FEW025 OVC075 03/M03 A2960 RMK AO2 SLP023 T00331028 10033 20028 58010 $,50,2013-03-25 11:51:00<br />
8:51 AM,39.0,26.1,60,29.62,10.0,ENE,15.0,20.7,N/A,,Overcast,METAR KJFK 251251Z 06013G18KT 10SM FEW025 OVC070 04/M03 A2962 RMK AO2 SLP031 T00391033 $,60,2013-03-25 12:51:00<br />
9:51 AM,39.0,26.1,60,29.60,10.0,NE,18.4,-,N/A,,Overcast,METAR KJFK 251351Z 04016KT 10SM FEW025 OVC060 04/M03 A2960 RMK AO2 SLP023 VCSH S-SW T00391033,40,2013-03-25 13:51:00<br />
10:51 AM,39.0,26.1,60,29.59,10.0,ENE,13.8,23.0,0.00,,Unknown,METAR KJFK 251451Z 07012G20KT 10SM -SN FEW013 BKN034 OVC045 04/M03 A2959 RMK AO2 SNB49 SLP020 VIS LWR SE-SW P0000 60000 T00391033 58004,70,2013-03-25 14:51:00<br />
11:02 AM,39.2,26.6,61,29.59,4.0,East,11.5,21.9,0.00,,Unknown,SPECI KJFK 251502Z 08010G19KT 4SM -SN FEW010 BKN028 OVC034 04/M03 A2959 RMK AO2 P0000,80,2013-03-25 15:02:00<br />
11:28 AM,37.4,26.6,65,29.58,4.0,ENE,16.1,-,0.00,Snow,Light Snow,SPECI KJFK 251528Z 07014KT 4SM -SN BKN007 BKN022 OVC035 03/M03 A2958 RMK AO2 BKN007 V SCT P0000,70,2013-03-25 15:28:00<br />
11:42 AM,35.6,26.6,70,29.58,2.0,ENE,19.6,29.9,0.00,Snow,Light Snow,SPECI KJFK 251542Z 07017G26KT 2SM R04R/4500VP6000FT -SN BKN008 BKN017 OVC028 02/M03 A2958 RMK AO2 PK WND 05026/1536 P0000,70,2013-03-25 15:42:00<br />
11:51 AM,36.0,28.9,76,29.57,2.0,ENE,13.8,25.3,0.01,Snow,Light Snow,METAR KJFK 251551Z 07012G22KT 2SM -SN BKN008 OVC017 02/M02 A2957 RMK AO2 PK WND 05026/1536 SLP014 P0001 T00221017,70,2013-03-25 15:51:00<br />
12:09 PM,35.6,30.2,81,29.57,2.0,ENE,12.7,20.7,0.00,Snow,Light Snow,SPECI KJFK 251609Z 07011G18KT 2SM -SN SCT007 BKN014 OVC022 02/M01 A2957 RMK AO2 SFC VIS 2 1/2 P0000,70,2013-03-25 16:09:00<br />
12:51 PM,34.0,30.9,89,29.54,2.0,East,8.1,-,0.04,Rain-Snow,Light Snow,METAR KJFK 251651Z 09007KT 2SM R04R/4500VP6000FT -SNRA BR SCT007 BKN012 OVC017 01/M01 A2954 RMK AO2 RAB19 SLP003 VIS SE-S 1 1/2 P0004 T00111006,90,2013-03-25 16:51:00<br />
1:33 PM,37.4,33.8,87,29.52,4.0,ENE,17.3,24.2,0.04,Rain-Snow,Light Rain,SPECI KJFK 251733Z 06015G21KT 4SM -RASN BR FEW007 OVC014 03/01 A2952 RMK AO2 P0004,60,2013-03-25 17:33:00<br />
1:51 PM,37.0,33.1,86,29.51,7.0,ENE,20.7,25.3,0.04,Rain-Snow,Light Rain,METAR KJFK 251751Z 06018G22KT 7SM -RASN FEW007 BKN012 OVC017 03/01 A2951 RMK AO2 SLP993 P0004 60009 T00280006 10044 20011 58026,60,2013-03-25 17:51:00<br />
2:51 PM,37.0,33.1,86,29.49,7.0,ENE,12.7,-,0.01,Rain-Snow,Light Rain,METAR KJFK 251851Z 06011KT 7SM -RASN FEW007 BKN012 OVC020 03/01 A2949 RMK AO2 PK WND 06026/1754 UPB13E14SNE1757B24 SLP985 P0001 T00280006,60,2013-03-25 18:51:00<br />
3:34 PM,37.4,33.8,87,29.48,9.0,ENE,6.9,-,0.01,Rain,Light Rain,SPECI KJFK 251934Z 06006KT 9SM -RA FEW009 SCT014 OVC022 03/01 A2948 RMK AO2 SNE32 P0001,60,2013-03-25 19:34:00<br />
3:51 PM,37.0,33.1,86,29.48,8.0,NNE,8.1,-,0.02,Rain,Light Rain,METAR KJFK 251951Z 03007KT 8SM -RA SCT009 BKN014 OVC022 03/01 A2948 RMK AO2 SNE32 SLP982 P0002 T00280006,30,2013-03-25 19:51:00<br />
4:51 PM,37.9,34.0,86,29.47,9.0,NNE,8.1,-,0.01,Rain,Light Rain,METAR KJFK 252051Z 02007KT 9SM -RA FEW009 BKN012 OVC025 03/01 A2947 RMK AO2 SLP980 P0001 60004 T00330011 56014,20,2013-03-25 20:51:00<br />
5:51 PM,37.0,34.0,89,29.48,7.0,NNE,6.9,-,0.03,Rain,Light Rain,METAR KJFK 252151Z 02006KT 7SM -RA BKN012 OVC023 03/01 A2948 RMK AO2 SLP982 P0003 T00280011 $,20,2013-03-25 21:51:00<br />
6:51 PM,37.0,33.1,86,29.51,6.0,North,11.5,-,0.03,Rain,Light Rain,METAR KJFK 252251Z 35010KT 6SM -RA BR FEW008 BKN012 OVC020 03/01 A2950 RMK AO2 SLP991 P0003 T00280006 $,350,2013-03-25 22:51:00<br />
7:51 PM,36.0,33.1,89,29.53,9.0,North,8.1,-,0.02,Rain,Light Rain,METAR KJFK 252351Z 36007KT 9SM -RA BKN010 OVC015 02/01 A2953 RMK AO2 SLP000 P0002 60012 T00220006 10033 20022 53020 $,360,2013-03-25 23:51:00<br />
8:12 PM,35.6,33.8,93,29.54,7.0,North,8.1,-,0.01,Rain,Light Rain,SPECI KJFK 260012Z 36007KT 7SM -RA SCT008 OVC012 02/01 A2954 RMK AO2 P0001 $,360,2013-03-26 00:12:00<br />
8:51 PM,37.0,34.0,89,29.56,9.0,North,8.1,-,0.02,Rain,Light Rain,METAR KJFK 260051Z 36007KT 9SM -RA FEW007 BKN010 OVC030 03/01 A2956 RMK AO2 SLP008 P0002 T00280011 $,360,2013-03-26 00:51:00<br />
9:08 PM,37.4,33.8,87,29.56,9.0,North,10.4,-,0.00,Rain,Light Rain,SPECI KJFK 260108Z 01009KT 9SM -RA SCT010 BKN022 OVC045 03/01 A2956 RMK AO2 P0000 $,10,2013-03-26 01:08:00<br />
9:28 PM,35.6,33.8,93,29.57,6.0,Calm,Calm,-,0.02,Rain,Light Rain,SPECI KJFK 260128Z 00000KT 6SM -RA BR FEW006 BKN012 OVC022 02/01 A2957 RMK AO2 P0002 $,0,2013-03-26 01:28:00<br />
9:51 PM,35.1,33.1,92,29.58,9.0,Calm,Calm,-,0.02,Rain,Light Rain,METAR KJFK 260151Z 00000KT 9SM -RA FEW007 BKN015 OVC035 02/01 A2958 RMK AO2 SLP016 P0002 T00170006 $,0,2013-03-26 01:51:00<br />
10:18 PM,35.6,33.8,93,29.58,10.0,North,3.5,-,0.00,,Overcast,SPECI KJFK 260218Z 01003KT 10SM FEW009 SCT025 OVC070 02/01 A2958 RMK AO2 RAE18 P0000 $,10,2013-03-26 02:18:00<br />
10:51 PM,37.0,33.1,86,29.59,10.0,North,4.6,-,0.00,,Overcast,METAR KJFK 260251Z 01004KT 10SM FEW013 OVC045 03/01 A2959 RMK AO2 RAE50 SLP018 P0000 60004 T00280006 51019 $,10,2013-03-26 02:51:00<br />
11:51 PM,36.0,33.1,89,29.60,10.0,Calm,Calm,-,N/A,,Overcast,METAR KJFK 260351Z 00000KT 10SM FEW015 SCT050 OVC095 02/01 A2959 RMK AO2 SLP021 T00220006 $,0,2013-03-26 03:51:00<br />
