
TimeEST,TemperatureF,Dew PointF,Humidity,Sea Level PressureIn,VisibilityMPH,Wind Direction,Wind SpeedMPH,Gust SpeedMPH,PrecipitationIn,Events,Conditions,FullMetar,WindDirDegrees,DateUTC<br />
12:51 AM,24.1,6.1,46,30.18,10.0,West,18.4,-,N/A,,Mostly Cloudy,METAR KJFK 130551Z 26016KT 10SM BKN060 M04/M14 A3018 RMK AO2 SLP219 T10441144 11033 21044 56019,260,2013-12-13 05:51:00<br />
1:51 AM,24.1,5.0,44,30.17,10.0,West,15.0,-,N/A,,Partly Cloudy,METAR KJFK 130651Z 26013KT 10SM FEW060 M04/M15 A3017 RMK AO2 SLP216 T10441150,260,2013-12-13 06:51:00<br />
2:51 AM,24.1,6.1,46,30.17,10.0,West,16.1,-,N/A,,Partly Cloudy,METAR KJFK 130751Z 27014KT 10SM FEW055 M04/M14 A3017 RMK AO2 SLP214 T10441144 $,270,2013-12-13 07:51:00<br />
3:51 AM,24.1,7.0,48,30.17,10.0,West,19.6,-,N/A,,Clear,METAR KJFK 130851Z 26017KT 10SM CLR M04/M14 A3017 RMK AO2 SLP215 T10441139 55004 $,260,2013-12-13 08:51:00<br />
4:51 AM,25.0,8.1,49,30.18,10.0,West,20.7,25.3,N/A,,Mostly Cloudy,METAR KJFK 130951Z 27018G22KT 10SM BKN100 M04/M13 A3018 RMK AO2 SLP219 T10391133 $,270,2013-12-13 09:51:00<br />
5:51 AM,26.1,9.0,49,30.19,10.0,West,16.1,23.0,N/A,,Overcast,METAR KJFK 131051Z 27014G20KT 10SM OVC095 M03/M13 A3019 RMK AO2 SLP222 T10331128 $,270,2013-12-13 10:51:00<br />
6:51 AM,26.1,10.0,51,30.19,10.0,West,13.8,-,N/A,,Mostly Cloudy,METAR KJFK 131151Z 26012KT 10SM FEW050 BKN095 M03/M12 A3019 RMK AO2 SLP224 T10331122 11033 21044 51008 $,260,2013-12-13 11:51:00<br />
7:51 AM,27.0,10.0,49,30.20,10.0,West,15.0,-,N/A,,Mostly Cloudy,METAR KJFK 131251Z 28013KT 10SM FEW050 BKN095 BKN250 M03/M12 A3020 RMK AO2 SLP227 T10281122 $,280,2013-12-13 12:51:00<br />
8:51 AM,28.0,10.0,47,30.21,10.0,West,16.1,-,N/A,,Mostly Cloudy,METAR KJFK 131351Z 26014KT 10SM BKN090 M02/M12 A3021 RMK AO2 SLP229 T10221122 $,260,2013-12-13 13:51:00<br />
9:51 AM,30.9,12.0,46,30.22,10.0,West,19.6,27.6,N/A,,Mostly Cloudy,METAR KJFK 131451Z 27017G24KT 10SM SCT095 BKN140 BKN210 M01/M11 A3022 RMK AO2 SLP231 T10061111 51008,270,2013-12-13 14:51:00<br />
10:51 AM,32.0,12.0,44,30.19,10.0,West,21.9,29.9,N/A,,Mostly Cloudy,METAR KJFK 131551Z 28019G26KT 10SM FEW090 SCT140 BKN190 00/M11 A3019 RMK AO2 PK WND 27029/1506 SLP223 T00001111,280,2013-12-13 15:51:00<br />
11:51 AM,33.1,12.9,43,30.17,10.0,West,18.4,27.6,N/A,,Scattered Clouds,METAR KJFK 131651Z 28016G24KT 10SM FEW060 SCT140 SCT220 01/M11 A3016 RMK AO2 PK WND 27030/1556 SLP214 T00061106,280,2013-12-13 16:51:00<br />
12:51 PM,35.1,12.9,40,30.16,10.0,West,20.7,25.3,N/A,,Scattered Clouds,METAR KJFK 131751Z 27018G22KT 10SM FEW060 SCT220 02/M11 A3016 RMK AO2 SLP212 T00171106 10017 21033 56020,270,2013-12-13 17:51:00<br />
1:51 PM,35.1,14.0,42,30.16,10.0,West,19.6,25.3,N/A,,Scattered Clouds,METAR KJFK 131851Z 27017G22KT 10SM FEW060 SCT220 02/M10 A3016 RMK AO2 SLP212 T00171100,270,2013-12-13 18:51:00<br />
2:51 PM,35.1,14.0,42,30.17,10.0,West,18.4,-,N/A,,Scattered Clouds,METAR KJFK 131951Z 28016KT 10SM FEW060 SCT220 02/M10 A3017 RMK AO2 SLP217 T00171100,280,2013-12-13 19:51:00<br />
3:51 PM,35.1,14.0,42,30.19,10.0,West,18.4,23.0,N/A,,Scattered Clouds,METAR KJFK 132051Z 26016G20KT 10SM FEW060 SCT250 02/M10 A3019 RMK AO2 SLP223 T00171100 53011,260,2013-12-13 20:51:00<br />
4:51 PM,34.0,15.1,46,30.21,10.0,West,16.1,-,N/A,,Scattered Clouds,METAR KJFK 132151Z 27014KT 10SM FEW150 SCT250 01/M09 A3021 RMK AO2 SLP230 T00111094,270,2013-12-13 21:51:00<br />
5:51 PM,33.1,16.0,50,30.24,10.0,WSW,13.8,-,N/A,,Scattered Clouds,METAR KJFK 132251Z 25012KT 10SM FEW150 SCT250 01/M09 A3024 RMK AO2 SLP240 T00061089,250,2013-12-13 22:51:00<br />
6:51 PM,34.0,16.0,48,30.27,10.0,West,11.5,-,N/A,,Mostly Cloudy,METAR KJFK 132351Z 26010KT 10SM SCT210 BKN250 01/M09 A3027 RMK AO2 SLP249 T00111089 10022 20006 53026,260,2013-12-13 23:51:00<br />
7:51 PM,34.0,17.1,50,30.30,10.0,West,11.5,-,N/A,,Mostly Cloudy,METAR KJFK 140051Z 26010KT 10SM BKN220 01/M08 A3030 RMK AO2 SLP258 T00111083,260,2013-12-14 00:51:00<br />
8:51 PM,32.0,17.1,54,30.30,10.0,WSW,8.1,-,N/A,,Mostly Cloudy,METAR KJFK 140151Z 25007KT 10SM SCT180 BKN250 00/M08 A3030 RMK AO2 SLP261 T00001083,250,2013-12-14 01:51:00<br />
9:51 PM,34.0,17.1,50,30.32,10.0,West,6.9,-,N/A,,Mostly Cloudy,METAR KJFK 140251Z 26006KT 10SM BKN210 01/M08 A3031 RMK AO2 SLP265 T00111083 51015,260,2013-12-14 02:51:00<br />
10:51 PM,33.1,19.0,56,30.34,10.0,WSW,5.8,-,N/A,,Mostly Cloudy,METAR KJFK 140351Z 25005KT 10SM FEW140 BKN210 01/M07 A3033 RMK AO2 SLP272 T00061072,250,2013-12-14 03:51:00<br />
11:51 PM,30.9,19.9,64,30.35,10.0,WSW,6.9,-,N/A,,Mostly Cloudy,METAR KJFK 140451Z 24006KT 10SM FEW140 BKN210 M01/M07 A3034 RMK AO2 SLP275 T10061067 400221044,240,2013-12-14 04:51:00<br />
