
TimeEDT,TemperatureF,Dew PointF,Humidity,Sea Level PressureIn,VisibilityMPH,Wind Direction,Wind SpeedMPH,Gust SpeedMPH,PrecipitationIn,Events,Conditions,FullMetar,WindDirDegrees,DateUTC<br />
12:51 AM,75.0,71.1,87,29.96,10.0,East,3.5,-,N/A,,Mostly Cloudy,METAR KJFK 220451Z 08003KT 10SM FEW012 SCT150 BKN260 24/22 A2996 RMK AO2 SLP146 T02390217 403110239 $,80,2013-07-22 04:51:00<br />
1:51 AM,75.0,71.1,87,29.96,10.0,NE,4.6,-,N/A,,Overcast,METAR KJFK 220551Z 05004KT 10SM FEW011 BKN100 OVC250 24/22 A2996 RMK AO2 SLP144 T02390217 10244 20233 57003 $,50,2013-07-22 05:51:00<br />
2:51 AM,75.0,71.1,87,29.94,10.0,ENE,3.5,-,N/A,,Overcast,METAR KJFK 220651Z 06003KT 10SM FEW012 OVC150 24/22 A2994 RMK AO2 SLP137 T02390217 $,60,2013-07-22 06:51:00<br />
3:51 AM,75.9,72.0,87,29.95,10.0,Calm,Calm,-,N/A,,Overcast,METAR KJFK 220751Z 00000KT 10SM OVC140 24/22 A2995 RMK AO2 SLP140 T02440222 $,0,2013-07-22 07:51:00<br />
4:00 AM,75.2,71.6,89,29.94,10.0,NE,3.5,-,N/A,,Overcast,SPECI KJFK 220800Z COR 05003KT 10SM BKN011 OVC140 24/22 A2994 RMK AO2 $,50,2013-07-22 08:00:00<br />
4:51 AM,75.9,71.1,85,29.94,10.0,NE,3.5,-,N/A,,Overcast,METAR KJFK 220851Z 05003KT 10SM OVC011 24/22 A2994 RMK AO2 SLP139 T02440217 56004 $,50,2013-07-22 08:51:00<br />
5:43 AM,75.2,71.6,89,29.95,10.0,East,5.8,-,N/A,,Overcast,SPECI KJFK 220943Z 10005KT 10SM SCT011 SCT090 OVC120 24/22 A2995 RMK AO2 ACC SE AND NW $,100,2013-07-22 09:43:00<br />
5:51 AM,75.9,71.1,85,29.95,10.0,East,4.6,-,N/A,,Overcast,METAR KJFK 220951Z 09004KT 10SM SCT011 SCT090 OVC110 24/22 A2995 RMK AO2 SLP142 SCT011 V BKN ACC SE T02440217 $,90,2013-07-22 09:51:00<br />
6:51 AM,75.0,72.0,90,29.95,7.0,ENE,5.8,-,0.01,Rain,Light Rain,METAR KJFK 221051Z 07005KT 7SM -RA FEW012 BKN075 OVC110 24/22 A2995 RMK AO2 RAB17 SLP141 P0001 T02390222 $,70,2013-07-22 10:51:00<br />
7:51 AM,75.9,73.0,91,29.95,7.0,NE,6.9,-,0.00,,Mostly Cloudy,METAR KJFK 221151Z 04006KT 7SM SCT010 BKN110 24/23 A2995 RMK AO2 RAE04 SLP141 SCT V BKN P0000 60001 70001 T02440228 10244 20239 51002 $,40,2013-07-22 11:51:00<br />
8:03 AM,77.0,73.4,89,29.95,8.0,ENE,6.9,-,N/A,,Mostly Cloudy,SPECI KJFK 221203Z 06006KT 8SM BKN009 BKN120 25/23 A2995 RMK AO2 $,60,2013-07-22 12:03:00<br />
8:38 AM,78.8,73.4,83,29.95,8.0,ENE,6.9,-,N/A,,Mostly Cloudy,SPECI KJFK 221238Z 07006KT 8SM BKN011 BKN120 26/23 A2995 RMK AO2 $,70,2013-07-22 12:38:00<br />
8:51 AM,78.1,73.0,84,29.96,8.0,ENE,6.9,-,N/A,,Mostly Cloudy,METAR KJFK 221251Z 06006KT 8SM BKN011 BKN120 BKN250 26/23 A2996 RMK AO2 SLP144 T02560228 $,60,2013-07-22 12:51:00<br />
9:51 AM,81.0,73.0,77,29.96,8.0,ESE,5.8,-,N/A,,Mostly Cloudy,METAR KJFK 221351Z 12005KT 8SM BKN013 BKN095 BKN250 27/23 A2995 RMK AO2 SLP143 T02720228,120,2013-07-22 13:51:00<br />
10:14 AM,82.4,73.4,74,29.95,9.0,ESE,9.2,-,N/A,,Mostly Cloudy,SPECI KJFK 221414Z 11008KT 9SM SCT013 BKN020 BKN250 28/23 A2995 RMK AO2,110,2013-07-22 14:14:00<br />
10:51 AM,82.9,73.0,72,29.95,9.0,SE,10.4,-,N/A,,Mostly Cloudy,METAR KJFK 221451Z 13009KT 9SM FEW018 BKN032 BKN110 BKN250 28/23 A2995 RMK AO2 SLP140 T02830228 58001,130,2013-07-22 14:51:00<br />
11:51 AM,84.9,72.0,65,29.95,10.0,ESE,12.7,-,N/A,,Mostly Cloudy,METAR KJFK 221551Z 12011KT 10SM FEW019 SCT027CB BKN110 BKN250 29/22 A2994 RMK AO2 SLP140 CB N MOV E VCSH N T02940222,120,2013-07-22 15:51:00<br />
12:51 PM,84.9,72.0,65,29.94,10.0,ESE,10.4,-,N/A,,Mostly Cloudy,METAR KJFK 221651Z 12009KT 10SM FEW018 SCT026CB BKN080 BKN250 29/22 A2994 RMK AO2 SLP137 CB N-NE MOV E TCU NW VCSH N-NE T02940222,120,2013-07-22 16:51:00<br />
1:51 PM,84.0,72.0,67,29.92,10.0,SE,9.2,-,N/A,,Mostly Cloudy,METAR KJFK 221751Z COR 14008KT 10SM FEW021 SCT027TCU BKN080 BKN250 29/22 A2992 RMK AO2 SLP130 SCT V BKN TCU N-NE T02890222 10300 20250 58010,140,2013-07-22 17:51:00<br />
2:51 PM,84.9,71.1,63,29.90,10.0,ESE,8.1,-,N/A,,Mostly Cloudy,METAR KJFK 221851Z 12007KT 10SM SCT019 SCT027TCU SCT070 BKN250 29/22 A2990 RMK AO2 SLP125 TCU NW-N T02940217,120,2013-07-22 18:51:00<br />
3:51 PM,82.9,72.0,69,29.88,10.0,SE,10.4,-,N/A,,Mostly Cloudy,METAR KJFK 221951Z 14009KT 10SM FEW019 SCT027 SCT070 BKN240 28/22 A2987 RMK AO2 SLP116 T02830222,140,2013-07-22 19:51:00<br />
4:51 PM,81.0,73.0,77,29.87,10.0,East,10.4,-,N/A,,Mostly Cloudy,METAR KJFK 222051Z 10009KT 10SM FEW015 SCT027 BKN048 BKN250 27/23 A2987 RMK AO2 SLP114 T02720228 56016,100,2013-07-22 20:51:00<br />
5:51 PM,79.0,75.0,88,29.86,8.0,ESE,10.4,-,0.01,Rain,Light Rain,METAR KJFK 222151Z 12009KT 8SM -RA SCT009 OVC046 26/24 A2986 RMK AO2 RAB09 SLP111 P0001 T02610239,120,2013-07-22 21:51:00<br />
6:05 PM,78.8,75.2,89,29.85,7.0,ESE,10.4,-,0.01,Rain,Light Rain,SPECI KJFK 222205Z 11009KT 7SM -RA SCT009 BKN025 OVC050 26/24 A2985 RMK AO2 P0001,110,2013-07-22 22:05:00<br />
6:46 PM,77.0,73.4,89,29.86,9.0,ESE,9.2,-,0.01,Rain,Light Rain,SPECI KJFK 222246Z 11008KT 9SM -RA FEW007 SCT025 OVC045 25/23 A2986 RMK AO2 P0001,110,2013-07-22 22:46:00<br />
6:51 PM,77.0,73.9,90,29.86,9.0,SE,10.4,-,0.01,Rain,Light Rain,METAR KJFK 222251Z 13009KT 9SM -RA FEW007 SCT025 OVC045 25/23 A2986 RMK AO2 SLP111 P0001 T02500233,130,2013-07-22 22:51:00<br />
7:18 PM,77.0,73.4,89,29.86,8.0,SE,11.5,-,0.00,Rain,Light Rain,SPECI KJFK 222318Z 13010KT 8SM -RA BKN007 BKN026 OVC050 25/23 A2986 RMK AO2 P0000,130,2013-07-22 23:18:00<br />
7:51 PM,75.9,73.9,94,29.85,8.0,SE,9.2,-,0.01,Rain,Light Rain,METAR KJFK 222351Z COR 13008KT 8SM -RA BKN009 BKN038 OVC050 24/23 A2985 RMK AO2 SLP108 BKN009 V SCT P0001 60003 T02440233 10300 20244 58004,130,2013-07-22 23:51:00<br />
8:14 PM,75.2,73.4,94,29.84,9.0,SE,8.1,-,0.00,,Overcast,SPECI KJFK 230014Z 13007KT 9SM FEW009 SCT038 BKN110 OVC150 24/23 A2984 RMK AO2 RAE04 P0000,130,2013-07-23 00:14:00<br />
8:51 PM,75.9,73.0,91,29.85,10.0,SE,6.9,-,0.00,,Overcast,METAR KJFK 230051Z 13006KT 10SM FEW016 SCT038 SCT085 BKN170 OVC210 24/23 A2984 RMK AO2 RAE04 SLP106 P0000 T02440228,130,2013-07-23 00:51:00<br />
9:07 PM,75.2,73.4,94,29.85,10.0,SE,8.1,-,0.00,Rain,Light Rain,SPECI KJFK 230107Z 13007KT 10SM -RA BKN013 BKN024 OVC085 24/23 A2985 RMK AO2 RAB07 P0000,130,2013-07-23 01:07:00<br />
9:48 PM,75.2,73.4,94,29.85,7.0,SE,4.6,-,0.04,Rain,Light Rain,SPECI KJFK 230148Z 13004KT 7SM -RA FEW009 SCT024 BKN060 OVC130 24/23 A2985 RMK AO2 RAB07 P0004,130,2013-07-23 01:48:00<br />
9:51 PM,75.9,73.0,91,29.85,7.0,SE,4.6,-,0.04,Rain,Light Rain,METAR KJFK 230151Z 14004KT 7SM -RA FEW009 SCT024 BKN060 OVC130 24/23 A2985 RMK AO2 RAB07 SLP106 P0004 T02440228,140,2013-07-23 01:51:00<br />
10:39 PM,75.2,73.4,94,29.83,10.0,ESE,5.8,-,0.01,Rain,Light Rain,SPECI KJFK 230239Z 11005KT 10SM -RA FEW006 OVC026 24/23 A2983 RMK AO2 P0001,110,2013-07-23 02:39:00<br />
10:51 PM,75.9,73.9,94,29.83,10.0,ESE,8.1,-,0.01,Rain,Light Rain,METAR KJFK 230251Z 11007KT 10SM -RA FEW006 OVC025 24/23 A2983 RMK AO2 SLP101 P0001 60005 T02440233 58004,110,2013-07-23 02:51:00<br />
11:26 PM,75.2,73.4,94,29.82,9.0,East,8.1,-,0.00,Rain,Light Rain,SPECI KJFK 230326Z 10007KT 9SM -RA SCT006 OVC014 24/23 A2982 RMK AO2 RAE0253B21 P0000,100,2013-07-23 03:26:00<br />
11:51 PM,75.0,73.0,94,29.82,10.0,East,9.2,-,0.00,,Overcast,METAR KJFK 230351Z 08008KT 10SM SCT006 OVC014 24/23 A2981 RMK AO2 RAE0253B21E51 SLP096 P0000 T02390228,80,2013-07-23 03:51:00<br />
